{"type":"FeatureCollection","features":[{"type":"Feature","properties":{"c":"b0","b":0,"n":"Bela Vista","m":"1200054","cx":-69.5534,"cy":-10.9361},"geometry":{"type":"Polygon","coordinates":[[[-69.5583,-10.9376],[-69.5577,-10.9366],[-69.557,-10.9359],[-69.5558,-10.934],[-69.5558,-10.9333],[-69.5566,-10.9319],[-69.5541,-10.9316],[-69.5505,-10.9329],[-69.5496,-10.935],[-69.5496,-10.9363],[-69.5482,-10.9366],[-69.5493,-10.9369],[-69.5505,-10.937],[-69.5504,-10.938],[-69.5538,-10.9389],[-69.5536,-10.9405],[-69.5569,-10.941],[-69.5574,-10.9383],[-69.5582,-10.9385],[-69.5583,-10.9376]]]}},{"type":"Feature","properties":{"c":"b1","b":1,"n":"Cascata","m":"1200054","cx":-69.5628,"cy":-10.9413},"geometry":{"type":"Polygon","coordinates":[[[-69.5611,-10.9412],[-69.561,-10.9422],[-69.561,-10.9435],[-69.5646,-10.9454],[-69.5656,-10.9445],[-69.5668,-10.944],[-69.5666,-10.9432],[-69.5652,-10.9427],[-69.5645,-10.9415],[-69.5641,-10.9398],[-69.5634,-10.9376],[-69.5606,-10.9385],[-69.5611,-10.9412]]]}},{"type":"Feature","properties":{"c":"b2","b":2,"n":"Centro","m":"1200054","cx":-69.5667,"cy":-10.9407},"geometry":{"type":"Polygon","coordinates":[[[-69.5673,-10.944],[-69.5683,-10.9445],[-69.5697,-10.9425],[-69.5687,-10.9399],[-69.5678,-10.9363],[-69.5638,-10.9375],[-69.5634,-10.9376],[-69.5641,-10.9398],[-69.5645,-10.9415],[-69.5652,-10.9427],[-69.5666,-10.9432],[-69.5668,-10.944],[-69.5673,-10.944]]]}},{"type":"Feature","properties":{"c":"b3","b":3,"n":"Cidade Nova","m":"1200054","cx":-69.5501,"cy":-10.9326},"geometry":{"type":"Polygon","coordinates":[[[-69.5577,-10.9317],[-69.5595,-10.9311],[-69.5586,-10.9311],[-69.5582,-10.9306],[-69.5576,-10.9292],[-69.5553,-10.9294],[-69.5531,-10.9284],[-69.5525,-10.9285],[-69.5513,-10.9293],[-69.5494,-10.9323],[-69.5474,-10.9335],[-69.546,-10.9347],[-69.5449,-10.9351],[-69.5465,-10.9359],[-69.5482,-10.9366],[-69.5496,-10.9363],[-69.5496,-10.935],[-69.5505,-10.9329],[-69.5541,-10.9316],[-69.5566,-10.9319],[-69.5577,-10.9317]]]}},{"type":"Feature","properties":{"c":"b4","b":4,"n":"Plácido de Castro","m":"1200054","cx":-69.559,"cy":-10.9398},"geometry":{"type":"Polygon","coordinates":[[[-69.5597,-10.9386],[-69.5582,-10.9385],[-69.5574,-10.9383],[-69.5569,-10.941],[-69.5589,-10.9413],[-69.5595,-10.9419],[-69.5603,-10.9422],[-69.561,-10.9422],[-69.5611,-10.9412],[-69.5606,-10.9385],[-69.5597,-10.9386]]]}},{"type":"Feature","properties":{"c":"b5","b":5,"n":"Alberto Castro","m":"1200104","cx":-68.7605,"cy":-10.9947},"geometry":{"type":"Polygon","coordinates":[[[-68.7568,-10.9937],[-68.7538,-10.9969],[-68.7545,-10.9975],[-68.7547,-10.998],[-68.7551,-10.9979],[-68.7577,-10.9998],[-68.7581,-10.9996],[-68.7594,-10.9998],[-68.7607,-11.0009],[-68.7626,-11.0026],[-68.7632,-11.0029],[-68.7702,-10.9989],[-68.7702,-10.9966],[-68.768,-10.9957],[-68.7673,-10.9955],[-68.7654,-10.9959],[-68.7649,-10.9939],[-68.766,-10.9918],[-68.7656,-10.9915],[-68.7663,-10.9907],[-68.7659,-10.9897],[-68.7666,-10.989],[-68.7667,-10.9884],[-68.7664,-10.9879],[-68.7657,-10.9875],[-68.7661,-10.9856],[-68.7651,-10.9854],[-68.764,-10.9879],[-68.7626,-10.9868],[-68.7617,-10.9867],[-68.7616,-10.9877],[-68.761,-10.9892],[-68.7604,-10.9898],[-68.7568,-10.9937]]]}},{"type":"Feature","properties":{"c":"b6","b":6,"n":"Centro","m":"1200104","cx":-68.746,"cy":-11.0146},"geometry":{"type":"Polygon","coordinates":[[[-68.7392,-11.0136],[-68.7398,-11.0145],[-68.7404,-11.0153],[-68.7414,-11.016],[-68.7428,-11.0165],[-68.7486,-11.0187],[-68.75,-11.0191],[-68.7508,-11.019],[-68.7513,-11.0181],[-68.7516,-11.0171],[-68.7516,-11.016],[-68.7507,-11.0147],[-68.7487,-11.0124],[-68.7481,-11.0115],[-68.7476,-11.0105],[-68.7476,-11.01],[-68.7471,-11.01],[-68.7422,-11.01],[-68.7419,-11.0125],[-68.742,-11.0132],[-68.7423,-11.0135],[-68.7412,-11.0149],[-68.7407,-11.0145],[-68.7398,-11.0134],[-68.7402,-11.013],[-68.7391,-11.0118],[-68.738,-11.0131],[-68.7392,-11.0136]]]}},{"type":"Feature","properties":{"c":"b7","b":7,"n":"Eldorado","m":"1200104","cx":-68.7512,"cy":-11.0033},"geometry":{"type":"Polygon","coordinates":[[[-68.7545,-10.9975],[-68.7538,-10.9969],[-68.7523,-10.9984],[-68.7489,-11.0021],[-68.7482,-11.0028],[-68.7468,-11.0038],[-68.7458,-11.0046],[-68.7456,-11.0052],[-68.7456,-11.0065],[-68.7458,-11.0077],[-68.7471,-11.0092],[-68.7471,-11.01],[-68.7476,-11.01],[-68.7479,-11.0092],[-68.7488,-11.0086],[-68.7501,-11.0081],[-68.7522,-11.0078],[-68.7537,-11.0084],[-68.7545,-11.0089],[-68.7547,-11.0082],[-68.7549,-11.0051],[-68.7548,-11.0037],[-68.7542,-10.9992],[-68.7547,-10.9988],[-68.7547,-10.998],[-68.7545,-10.9975]]]}},{"type":"Feature","properties":{"c":"b8","b":8,"n":"Ferreira Silva","m":"1200104","cx":-68.7475,"cy":-10.9991},"geometry":{"type":"Polygon","coordinates":[[[-68.7432,-10.9974],[-68.7426,-10.9981],[-68.7431,-10.9985],[-68.7435,-10.9998],[-68.7458,-11.0024],[-68.7468,-11.0038],[-68.7482,-11.0028],[-68.7489,-11.0021],[-68.7523,-10.9984],[-68.7495,-10.9956],[-68.749,-10.9955],[-68.7481,-10.9966],[-68.7478,-10.9962],[-68.7462,-10.9958],[-68.745,-10.9963],[-68.7432,-10.9964],[-68.7432,-10.9974]]]}},{"type":"Feature","properties":{"c":"b9","b":9,"n":"Francisco J. Moreira","m":"1200104","cx":-68.7529,"cy":-10.9932},"geometry":{"type":"Polygon","coordinates":[[[-68.7594,-10.9889],[-68.7585,-10.9895],[-68.7574,-10.9895],[-68.7556,-10.9889],[-68.7541,-10.989],[-68.753,-10.9892],[-68.7527,-10.9898],[-68.7512,-10.9906],[-68.7512,-10.9909],[-68.7501,-10.9912],[-68.7502,-10.9916],[-68.7497,-10.9915],[-68.7488,-10.9924],[-68.7486,-10.9927],[-68.7478,-10.9962],[-68.7481,-10.9966],[-68.749,-10.9955],[-68.7495,-10.9956],[-68.7523,-10.9984],[-68.7538,-10.9969],[-68.7568,-10.9937],[-68.7604,-10.9898],[-68.7594,-10.9889]]]}},{"type":"Feature","properties":{"c":"b10","b":10,"n":"Leonardo Barbosa","m":"1200104","cx":-68.7615,"cy":-11.0147},"geometry":{"type":"Polygon","coordinates":[[[-68.7571,-11.011],[-68.7584,-11.0121],[-68.759,-11.0136],[-68.7591,-11.0157],[-68.7594,-11.0167],[-68.7601,-11.0177],[-68.7606,-11.0181],[-68.7616,-11.0184],[-68.7624,-11.0183],[-68.7634,-11.0174],[-68.764,-11.0164],[-68.7638,-11.0138],[-68.7634,-11.0119],[-68.7626,-11.0107],[-68.7616,-11.0103],[-68.7587,-11.0103],[-68.7577,-11.01],[-68.7571,-11.011]]]}},{"type":"Feature","properties":{"c":"b11","b":11,"n":"Marcos Galvão","m":"1200104","cx":-68.7457,"cy":-10.9923},"geometry":{"type":"Polygon","coordinates":[[[-68.745,-10.9963],[-68.7462,-10.9958],[-68.7478,-10.9962],[-68.7486,-10.9927],[-68.7488,-10.9924],[-68.7484,-10.9915],[-68.7491,-10.9908],[-68.7491,-10.9898],[-68.7494,-10.9889],[-68.7468,-10.9884],[-68.7467,-10.9888],[-68.745,-10.9897],[-68.7437,-10.9897],[-68.7424,-10.9892],[-68.7428,-10.9898],[-68.7424,-10.9904],[-68.7422,-10.9916],[-68.7427,-10.9922],[-68.743,-10.993],[-68.7431,-10.9952],[-68.7432,-10.9964],[-68.745,-10.9963]]]}},{"type":"Feature","properties":{"c":"b12","b":12,"n":"Raimundo Chaar","m":"1200104","cx":-68.7432,"cy":-11.0097},"geometry":{"type":"Polygon","coordinates":[[[-68.7471,-11.0092],[-68.7458,-11.0077],[-68.7456,-11.0065],[-68.7434,-11.0069],[-68.7421,-11.0067],[-68.7409,-11.0063],[-68.7411,-11.0056],[-68.7397,-11.005],[-68.7396,-11.0072],[-68.7398,-11.0086],[-68.7397,-11.0095],[-68.7382,-11.0106],[-68.7375,-11.0108],[-68.7368,-11.0117],[-68.7371,-11.0124],[-68.738,-11.0131],[-68.7391,-11.0118],[-68.7402,-11.013],[-68.7398,-11.0134],[-68.7407,-11.0145],[-68.7412,-11.0149],[-68.7423,-11.0135],[-68.742,-11.0132],[-68.7419,-11.0125],[-68.7422,-11.01],[-68.7471,-11.01],[-68.7471,-11.0092]]]}},{"type":"Feature","properties":{"c":"b13","b":13,"n":"Samaúma","m":"1200104","cx":-68.7569,"cy":-11.0044},"geometry":{"type":"Polygon","coordinates":[[[-68.7551,-10.9979],[-68.7547,-10.998],[-68.7547,-10.9988],[-68.7542,-10.9992],[-68.7548,-11.0037],[-68.7549,-11.0051],[-68.7547,-11.0082],[-68.7545,-11.0089],[-68.7571,-11.011],[-68.7577,-11.01],[-68.7571,-11.0095],[-68.7569,-11.009],[-68.7572,-11.0079],[-68.7577,-11.0067],[-68.7595,-11.0035],[-68.7593,-11.0024],[-68.7586,-11.0018],[-68.7577,-11.0015],[-68.7572,-11.0008],[-68.7577,-10.9998],[-68.7551,-10.9979]]]}},{"type":"Feature","properties":{"c":"b14","b":14,"n":"Três Botequins","m":"1200104","cx":-68.743,"cy":-11.0031},"geometry":{"type":"Polygon","coordinates":[[[-68.7403,-10.9992],[-68.7399,-11.0009],[-68.7397,-11.005],[-68.7411,-11.0056],[-68.7409,-11.0063],[-68.7421,-11.0067],[-68.7434,-11.0069],[-68.7456,-11.0065],[-68.7456,-11.0052],[-68.7458,-11.0046],[-68.7468,-11.0038],[-68.7458,-11.0024],[-68.7435,-10.9998],[-68.7431,-10.9985],[-68.7426,-10.9981],[-68.7403,-10.9992]]]}},{"type":"Feature","properties":{"c":"b15","b":15,"n":"Aeroporto","m":"1200252","cx":-68.7295,"cy":-11.0359},"geometry":{"type":"Polygon","coordinates":[[[-68.7344,-11.0397],[-68.7344,-11.037],[-68.734,-11.0349],[-68.734,-11.0337],[-68.7345,-11.033],[-68.7357,-11.0325],[-68.7376,-11.0313],[-68.7383,-11.0313],[-68.7399,-11.0303],[-68.7407,-11.0297],[-68.741,-11.0294],[-68.7401,-11.0291],[-68.7391,-11.0285],[-68.7378,-11.028],[-68.733,-11.0309],[-68.7277,-11.0341],[-68.7222,-11.0375],[-68.7206,-11.0381],[-68.7191,-11.0383],[-68.7174,-11.038],[-68.7163,-11.0389],[-68.7159,-11.0394],[-68.7149,-11.0428],[-68.7142,-11.0437],[-68.7132,-11.0444],[-68.715,-11.0457],[-68.7179,-11.046],[-68.722,-11.0458],[-68.7229,-11.0459],[-68.7237,-11.0457],[-68.7248,-11.0458],[-68.7248,-11.045],[-68.7255,-11.044],[-68.727,-11.0439],[-68.7273,-11.0441],[-68.728,-11.0438],[-68.7279,-11.043],[-68.7282,-11.0421],[-68.7282,-11.0415],[-68.7294,-11.041],[-68.7295,-11.0403],[-68.7299,-11.0399],[-68.7307,-11.0401],[-68.7312,-11.0396],[-68.7314,-11.04],[-68.7321,-11.0405],[-68.7328,-11.0412],[-68.7336,-11.0413],[-68.7336,-11.0417],[-68.7342,-11.0414],[-68.7344,-11.0417],[-68.7344,-11.0397]]]}},{"type":"Feature","properties":{"c":"b16","b":16,"n":"Beira Rio","m":"1200252","cx":-68.743,"cy":-11.0188},"geometry":{"type":"Polygon","coordinates":[[[-68.7387,-11.0164],[-68.7376,-11.019],[-68.739,-11.0211],[-68.7425,-11.022],[-68.7422,-11.0226],[-68.745,-11.0235],[-68.7455,-11.0227],[-68.746,-11.0229],[-68.7464,-11.0225],[-68.7464,-11.0216],[-68.7453,-11.0196],[-68.7461,-11.0199],[-68.7486,-11.0187],[-68.7428,-11.0165],[-68.7414,-11.016],[-68.7404,-11.0153],[-68.7398,-11.0145],[-68.7387,-11.0164]]]}},{"type":"Feature","properties":{"c":"b17","b":17,"n":"Centro","m":"1200252","cx":-68.7489,"cy":-11.0262},"geometry":{"type":"Polygon","coordinates":[[[-68.7486,-11.0266],[-68.7498,-11.0269],[-68.7512,-11.0269],[-68.7513,-11.0264],[-68.7496,-11.0259],[-68.7483,-11.025],[-68.7471,-11.0239],[-68.7464,-11.0239],[-68.7464,-11.0225],[-68.746,-11.0229],[-68.7455,-11.0227],[-68.745,-11.0235],[-68.7445,-11.0244],[-68.7434,-11.0256],[-68.7435,-11.0257],[-68.7419,-11.0273],[-68.741,-11.0283],[-68.7415,-11.0289],[-68.741,-11.0294],[-68.7407,-11.0297],[-68.7411,-11.0303],[-68.7422,-11.0293],[-68.7438,-11.028],[-68.7449,-11.0268],[-68.7451,-11.0265],[-68.7461,-11.0252],[-68.747,-11.026],[-68.7479,-11.0272],[-68.7486,-11.0266]]]}},{"type":"Feature","properties":{"c":"b18","b":18,"n":"J.C.Mesquita","m":"1200252","cx":-68.7452,"cy":-11.0288},"geometry":{"type":"Polygon","coordinates":[[[-68.747,-11.026],[-68.7461,-11.0252],[-68.7451,-11.0265],[-68.7449,-11.0268],[-68.7438,-11.028],[-68.7422,-11.0293],[-68.7411,-11.0303],[-68.7413,-11.0308],[-68.7423,-11.032],[-68.7424,-11.0325],[-68.7432,-11.0319],[-68.7435,-11.0321],[-68.7438,-11.0312],[-68.7443,-11.0313],[-68.7439,-11.0307],[-68.7447,-11.0301],[-68.7448,-11.0297],[-68.7453,-11.0299],[-68.7458,-11.0296],[-68.7462,-11.0298],[-68.7465,-11.0292],[-68.747,-11.0294],[-68.7475,-11.0292],[-68.7477,-11.0285],[-68.7475,-11.028],[-68.7479,-11.0272],[-68.747,-11.026]]]}},{"type":"Feature","properties":{"c":"b19","b":19,"n":"José Hassem","m":"1200252","cx":-68.7474,"cy":-11.0324},"geometry":{"type":"Polygon","coordinates":[[[-68.7426,-11.034],[-68.7428,-11.0344],[-68.7447,-11.0362],[-68.7455,-11.0374],[-68.746,-11.0372],[-68.747,-11.0363],[-68.7474,-11.0362],[-68.7493,-11.0371],[-68.7509,-11.0383],[-68.751,-11.0378],[-68.7516,-11.0381],[-68.7519,-11.0373],[-68.7524,-11.0373],[-68.7526,-11.0369],[-68.752,-11.0368],[-68.7514,-11.0358],[-68.7508,-11.0357],[-68.7515,-11.0353],[-68.7507,-11.0344],[-68.7516,-11.0347],[-68.7518,-11.034],[-68.7527,-11.0337],[-68.7523,-11.0336],[-68.7521,-11.0332],[-68.7523,-11.0323],[-68.7516,-11.0322],[-68.7514,-11.0312],[-68.7526,-11.0309],[-68.7528,-11.0303],[-68.7534,-11.0304],[-68.7533,-11.03],[-68.7527,-11.0301],[-68.7528,-11.0293],[-68.752,-11.0292],[-68.7516,-11.0287],[-68.7513,-11.0288],[-68.7515,-11.0273],[-68.7512,-11.0269],[-68.7498,-11.0269],[-68.7486,-11.0266],[-68.7479,-11.0272],[-68.7475,-11.028],[-68.7477,-11.0285],[-68.7475,-11.0292],[-68.747,-11.0294],[-68.7465,-11.0292],[-68.7462,-11.0298],[-68.7458,-11.0296],[-68.7453,-11.0299],[-68.7448,-11.0297],[-68.7447,-11.0301],[-68.7439,-11.0307],[-68.7443,-11.0313],[-68.7438,-11.0312],[-68.7435,-11.0321],[-68.7432,-11.0319],[-68.7424,-11.0325],[-68.7426,-11.034]]]}},{"type":"Feature","properties":{"c":"b20","b":20,"n":"Liberdade","m":"1200252","cx":-68.7353,"cy":-11.0216},"geometry":{"type":"Polygon","coordinates":[[[-68.7415,-11.0289],[-68.741,-11.0283],[-68.7419,-11.0273],[-68.7435,-11.0257],[-68.7434,-11.0256],[-68.7445,-11.0244],[-68.745,-11.0235],[-68.7422,-11.0226],[-68.7425,-11.022],[-68.739,-11.0211],[-68.7376,-11.019],[-68.7387,-11.0164],[-68.7398,-11.0145],[-68.7392,-11.0136],[-68.738,-11.0131],[-68.7371,-11.0124],[-68.7368,-11.0117],[-68.7355,-11.0117],[-68.7332,-11.0129],[-68.7331,-11.014],[-68.7332,-11.0157],[-68.7319,-11.0152],[-68.7301,-11.0148],[-68.7289,-11.0139],[-68.7291,-11.0186],[-68.7311,-11.0256],[-68.7315,-11.0274],[-68.7324,-11.0296],[-68.733,-11.0309],[-68.7378,-11.028],[-68.7391,-11.0285],[-68.7401,-11.0291],[-68.741,-11.0294],[-68.7415,-11.0289]]]}},{"type":"Feature","properties":{"c":"b21","b":21,"n":"Lírio dos Vales","m":"1200252","cx":-68.7391,"cy":-11.0355},"geometry":{"type":"Polygon","coordinates":[[[-68.7462,-11.0393],[-68.7455,-11.0374],[-68.7447,-11.0362],[-68.7428,-11.0344],[-68.7426,-11.034],[-68.7424,-11.0325],[-68.7423,-11.032],[-68.7413,-11.0308],[-68.7411,-11.0303],[-68.7407,-11.0297],[-68.7399,-11.0303],[-68.7383,-11.0313],[-68.7376,-11.0313],[-68.7357,-11.0325],[-68.7345,-11.033],[-68.734,-11.0337],[-68.734,-11.0349],[-68.7344,-11.037],[-68.7344,-11.0397],[-68.7344,-11.0417],[-68.7462,-11.0393]]]}},{"type":"Feature","properties":{"c":"b22","b":22,"n":"Por do Sol","m":"1200252","cx":-68.7228,"cy":-11.0326},"geometry":{"type":"Polygon","coordinates":[[[-68.7324,-11.0296],[-68.7315,-11.0274],[-68.7277,-11.0277],[-68.7266,-11.0279],[-68.7247,-11.0279],[-68.7204,-11.0278],[-68.7204,-11.0302],[-68.7195,-11.0305],[-68.7196,-11.0317],[-68.7193,-11.0317],[-68.7158,-11.0314],[-68.7153,-11.0335],[-68.715,-11.0354],[-68.7154,-11.0372],[-68.7166,-11.0378],[-68.7174,-11.038],[-68.7191,-11.0383],[-68.7206,-11.0381],[-68.7222,-11.0375],[-68.7277,-11.0341],[-68.733,-11.0309],[-68.7324,-11.0296]]]}},{"type":"Feature","properties":{"c":"b23","b":23,"n":"Satel","m":"1200252","cx":-68.7504,"cy":-11.0226},"geometry":{"type":"Polygon","coordinates":[[[-68.7515,-11.0257],[-68.7524,-11.0261],[-68.7524,-11.0253],[-68.7521,-11.0244],[-68.7516,-11.0241],[-68.752,-11.0236],[-68.7527,-11.0241],[-68.7531,-11.0232],[-68.7537,-11.0234],[-68.7541,-11.024],[-68.7542,-11.0235],[-68.7547,-11.0234],[-68.7546,-11.0226],[-68.7536,-11.0222],[-68.7522,-11.0221],[-68.7518,-11.0218],[-68.7516,-11.0208],[-68.751,-11.0207],[-68.7496,-11.0212],[-68.7488,-11.0204],[-68.7489,-11.0198],[-68.7486,-11.0187],[-68.7461,-11.0199],[-68.7453,-11.0196],[-68.7464,-11.0216],[-68.7464,-11.0225],[-68.7464,-11.0239],[-68.7471,-11.0239],[-68.7483,-11.025],[-68.7496,-11.0259],[-68.7513,-11.0264],[-68.7515,-11.0257]]]}},{"type":"Feature","properties":{"c":"b24","b":24,"n":"Aristides","m":"1200302","cx":-70.3537,"cy":-8.1589},"geometry":{"type":"Polygon","coordinates":[[[-70.3532,-8.1579],[-70.3527,-8.1587],[-70.3528,-8.1596],[-70.3523,-8.16],[-70.3524,-8.1606],[-70.3533,-8.1607],[-70.3534,-8.1613],[-70.3552,-8.1609],[-70.3547,-8.1596],[-70.3547,-8.159],[-70.3551,-8.1566],[-70.3553,-8.1562],[-70.3541,-8.1568],[-70.3537,-8.1566],[-70.3532,-8.1573],[-70.3532,-8.1579]]]}},{"type":"Feature","properties":{"c":"b25","b":25,"n":"Bela Vista","m":"1200302","cx":-70.3475,"cy":-8.1601},"geometry":{"type":"Polygon","coordinates":[[[-70.3528,-8.1596],[-70.3527,-8.1587],[-70.3532,-8.1579],[-70.3532,-8.1573],[-70.3527,-8.1573],[-70.3526,-8.1567],[-70.352,-8.1565],[-70.3515,-8.1567],[-70.351,-8.1562],[-70.3496,-8.1557],[-70.3494,-8.156],[-70.3486,-8.1561],[-70.3482,-8.1554],[-70.3473,-8.1556],[-70.3475,-8.1561],[-70.3461,-8.1554],[-70.3456,-8.1558],[-70.3455,-8.1552],[-70.3447,-8.1555],[-70.3438,-8.1551],[-70.3439,-8.1546],[-70.3431,-8.1548],[-70.342,-8.1547],[-70.3415,-8.1548],[-70.341,-8.1544],[-70.3406,-8.1549],[-70.3431,-8.1603],[-70.3461,-8.1657],[-70.3475,-8.1649],[-70.3473,-8.1644],[-70.3479,-8.1639],[-70.3495,-8.1618],[-70.3503,-8.1611],[-70.3523,-8.16],[-70.3528,-8.1596]]]}},{"type":"Feature","properties":{"c":"b26","b":26,"n":"Centro","m":"1200302","cx":-70.3549,"cy":-8.1662},"geometry":{"type":"Polygon","coordinates":[[[-70.3563,-8.1619],[-70.3556,-8.1615],[-70.3552,-8.1609],[-70.3534,-8.1613],[-70.3533,-8.1607],[-70.3524,-8.1606],[-70.3523,-8.1644],[-70.3523,-8.1696],[-70.353,-8.1699],[-70.353,-8.1705],[-70.3536,-8.1706],[-70.3547,-8.1711],[-70.3551,-8.1716],[-70.3574,-8.1726],[-70.3583,-8.1721],[-70.3596,-8.1719],[-70.3603,-8.1719],[-70.3605,-8.1711],[-70.3626,-8.1696],[-70.3618,-8.1689],[-70.3591,-8.1696],[-70.3581,-8.1676],[-70.3571,-8.1648],[-70.3563,-8.1644],[-70.3564,-8.164],[-70.3574,-8.1621],[-70.3563,-8.1619]]]}},{"type":"Feature","properties":{"c":"b27","b":27,"n":"Cidade Nova","m":"1200302","cx":-70.3501,"cy":-8.1675},"geometry":{"type":"Polygon","coordinates":[[[-70.3505,-8.1648],[-70.3476,-8.1649],[-70.3478,-8.1664],[-70.3478,-8.1687],[-70.3481,-8.1702],[-70.3488,-8.1715],[-70.35,-8.171],[-70.3504,-8.1708],[-70.353,-8.1705],[-70.353,-8.1699],[-70.3523,-8.1696],[-70.3523,-8.1644],[-70.3505,-8.1648]]]}},{"type":"Feature","properties":{"c":"b28","b":28,"n":"Cohab","m":"1200302","cx":-70.359,"cy":-8.1806},"geometry":{"type":"Polygon","coordinates":[[[-70.3596,-8.1778],[-70.3592,-8.1784],[-70.3576,-8.1772],[-70.3568,-8.1768],[-70.3562,-8.1767],[-70.3562,-8.1781],[-70.3565,-8.1783],[-70.3566,-8.1797],[-70.3554,-8.1798],[-70.3545,-8.1817],[-70.3541,-8.1823],[-70.3539,-8.1834],[-70.3537,-8.186],[-70.3565,-8.1845],[-70.3574,-8.1845],[-70.3578,-8.1838],[-70.3611,-8.1821],[-70.3623,-8.1813],[-70.3639,-8.18],[-70.3651,-8.1793],[-70.3676,-8.1781],[-70.3671,-8.1775],[-70.3662,-8.1773],[-70.3653,-8.1774],[-70.3641,-8.1777],[-70.3633,-8.1783],[-70.3628,-8.1783],[-70.3628,-8.1771],[-70.3623,-8.1766],[-70.3617,-8.1767],[-70.3615,-8.1773],[-70.3596,-8.1778]]]}},{"type":"Feature","properties":{"c":"b29","b":29,"n":"Eletroacre","m":"1200302","cx":-70.3586,"cy":-8.1748},"geometry":{"type":"Polygon","coordinates":[[[-70.3583,-8.1721],[-70.3574,-8.1726],[-70.3572,-8.1757],[-70.3572,-8.1761],[-70.3588,-8.1762],[-70.3596,-8.1765],[-70.3598,-8.1774],[-70.3596,-8.1778],[-70.3615,-8.1773],[-70.3611,-8.1769],[-70.3611,-8.175],[-70.3609,-8.1747],[-70.3601,-8.1751],[-70.3598,-8.1743],[-70.3602,-8.1734],[-70.3596,-8.1719],[-70.3583,-8.1721]]]}},{"type":"Feature","properties":{"c":"b30","b":30,"n":"Esperança","m":"1200302","cx":-70.3459,"cy":-8.1719},"geometry":{"type":"Polygon","coordinates":[[[-70.3481,-8.1702],[-70.3478,-8.1687],[-70.3478,-8.1664],[-70.3476,-8.1649],[-70.3475,-8.1649],[-70.3461,-8.1657],[-70.344,-8.1672],[-70.3424,-8.1681],[-70.3432,-8.169],[-70.3435,-8.1699],[-70.3431,-8.1725],[-70.3416,-8.1739],[-70.3405,-8.1752],[-70.3402,-8.176],[-70.3405,-8.1776],[-70.3402,-8.1782],[-70.3387,-8.1787],[-70.3388,-8.1793],[-70.3423,-8.1797],[-70.3431,-8.1776],[-70.3438,-8.1773],[-70.344,-8.1775],[-70.347,-8.1765],[-70.347,-8.1751],[-70.3476,-8.1734],[-70.3485,-8.1723],[-70.3488,-8.1715],[-70.3481,-8.1702]]]}},{"type":"Feature","properties":{"c":"b31","b":31,"n":"Genir Nunes","m":"1200302","cx":-70.341,"cy":-8.1612},"geometry":{"type":"Polygon","coordinates":[[[-70.3402,-8.1551],[-70.3397,-8.1545],[-70.34,-8.1542],[-70.3395,-8.154],[-70.3379,-8.1561],[-70.3379,-8.1568],[-70.3382,-8.1574],[-70.3377,-8.1582],[-70.3382,-8.1589],[-70.3385,-8.1599],[-70.3383,-8.161],[-70.3386,-8.1615],[-70.3384,-8.1644],[-70.3387,-8.1653],[-70.3396,-8.1657],[-70.3409,-8.1668],[-70.3424,-8.1681],[-70.344,-8.1672],[-70.3461,-8.1657],[-70.3431,-8.1603],[-70.3406,-8.1549],[-70.3402,-8.1551]]]}},{"type":"Feature","properties":{"c":"b32","b":32,"n":"Hospital","m":"1200302","cx":-70.3623,"cy":-8.1722},"geometry":{"type":"Polygon","coordinates":[[[-70.3605,-8.1711],[-70.3603,-8.1719],[-70.3596,-8.1719],[-70.3602,-8.1734],[-70.3608,-8.1734],[-70.3631,-8.1743],[-70.3642,-8.1745],[-70.3651,-8.1737],[-70.3651,-8.1725],[-70.3643,-8.1715],[-70.3644,-8.1711],[-70.364,-8.1703],[-70.3626,-8.1696],[-70.3605,-8.1711]]]}},{"type":"Feature","properties":{"c":"b33","b":33,"n":"Nair Araújo","m":"1200302","cx":-70.3543,"cy":-8.1742},"geometry":{"type":"Polygon","coordinates":[[[-70.3504,-8.1708],[-70.35,-8.171],[-70.3502,-8.1716],[-70.3529,-8.1779],[-70.354,-8.1779],[-70.3539,-8.1794],[-70.3545,-8.1794],[-70.3554,-8.1798],[-70.3566,-8.1797],[-70.3565,-8.1783],[-70.3562,-8.1781],[-70.3562,-8.1767],[-70.3568,-8.1768],[-70.3576,-8.1772],[-70.3592,-8.1784],[-70.3596,-8.1778],[-70.3598,-8.1774],[-70.3596,-8.1765],[-70.3588,-8.1762],[-70.3572,-8.1761],[-70.3572,-8.1757],[-70.3574,-8.1726],[-70.3551,-8.1716],[-70.3547,-8.1711],[-70.3536,-8.1706],[-70.353,-8.1705],[-70.3504,-8.1708]]]}},{"type":"Feature","properties":{"c":"b34","b":34,"n":"Segundo Distrito","m":"1200302","cx":-70.3505,"cy":-8.1628},"geometry":{"type":"Polygon","coordinates":[[[-70.3524,-8.1606],[-70.3523,-8.16],[-70.3503,-8.1611],[-70.3495,-8.1618],[-70.3479,-8.1639],[-70.3473,-8.1644],[-70.3475,-8.1649],[-70.3476,-8.1649],[-70.3505,-8.1648],[-70.3523,-8.1644],[-70.3524,-8.1606]]]}},{"type":"Feature","properties":{"c":"b35","b":35,"n":"Terminal","m":"1200302","cx":-70.3593,"cy":-8.1662},"geometry":{"type":"Polygon","coordinates":[[[-70.3597,-8.1618],[-70.3574,-8.1621],[-70.3564,-8.164],[-70.3563,-8.1644],[-70.3571,-8.1648],[-70.3581,-8.1676],[-70.3591,-8.1696],[-70.3618,-8.1689],[-70.3597,-8.1618]]]}},{"type":"Feature","properties":{"c":"b36","b":36,"n":"Zenaide Paiva","m":"1200302","cx":-70.3505,"cy":-8.1789},"geometry":{"type":"Polygon","coordinates":[[[-70.3539,-8.1834],[-70.3541,-8.1823],[-70.3545,-8.1817],[-70.3554,-8.1798],[-70.3545,-8.1794],[-70.3539,-8.1794],[-70.354,-8.1779],[-70.3529,-8.1779],[-70.3502,-8.1716],[-70.35,-8.171],[-70.3488,-8.1715],[-70.3485,-8.1723],[-70.3476,-8.1734],[-70.347,-8.1751],[-70.347,-8.1765],[-70.3471,-8.1785],[-70.3468,-8.1814],[-70.3472,-8.1815],[-70.3468,-8.1826],[-70.3492,-8.1847],[-70.3497,-8.1855],[-70.3511,-8.1874],[-70.3537,-8.186],[-70.3539,-8.1834]]]}},{"type":"Feature","properties":{"c":"b37","b":37,"n":"Centro","m":"1200427","cx":-72.6486,"cy":-7.7346},"geometry":{"type":"Polygon","coordinates":[[[-72.6526,-7.7335],[-72.6449,-7.7331],[-72.6444,-7.7359],[-72.644,-7.7372],[-72.6502,-7.7375],[-72.6502,-7.7377],[-72.6523,-7.7378],[-72.6524,-7.7357],[-72.6526,-7.7335]]]}},{"type":"Feature","properties":{"c":"b38","b":38,"n":"Dario Pereira","m":"1200427","cx":-72.6553,"cy":-7.7393},"geometry":{"type":"Polygon","coordinates":[[[-72.6587,-7.7362],[-72.6524,-7.7357],[-72.6523,-7.7378],[-72.652,-7.7426],[-72.6529,-7.7425],[-72.6549,-7.7441],[-72.6552,-7.7422],[-72.6571,-7.7428],[-72.6583,-7.7405],[-72.6585,-7.7381],[-72.6579,-7.738],[-72.659,-7.7362],[-72.6587,-7.7362]]]}},{"type":"Feature","properties":{"c":"b39","b":39,"n":"Manoel Gomes","m":"1200427","cx":-72.6477,"cy":-7.7411},"geometry":{"type":"Polygon","coordinates":[[[-72.6523,-7.7378],[-72.6502,-7.7377],[-72.6502,-7.7375],[-72.644,-7.7372],[-72.6436,-7.7394],[-72.6435,-7.7405],[-72.6433,-7.7417],[-72.643,-7.7424],[-72.6456,-7.7436],[-72.6503,-7.745],[-72.652,-7.7426],[-72.6523,-7.7378]]]}},{"type":"Feature","properties":{"c":"b40","b":40,"n":"Roberto Leite","m":"1200427","cx":-72.6484,"cy":-7.7293},"geometry":{"type":"Polygon","coordinates":[[[-72.6526,-7.7335],[-72.6528,-7.7301],[-72.6485,-7.7286],[-72.6484,-7.7279],[-72.6467,-7.7253],[-72.6468,-7.727],[-72.6465,-7.7282],[-72.6459,-7.7303],[-72.6454,-7.7312],[-72.6449,-7.7331],[-72.6526,-7.7335]]]}},{"type":"Feature","properties":{"c":"b41","b":41,"n":"São Francisco","m":"1200427","cx":-72.6566,"cy":-7.7331},"geometry":{"type":"Polygon","coordinates":[[[-72.6524,-7.7357],[-72.6587,-7.7362],[-72.659,-7.7362],[-72.6608,-7.7328],[-72.6528,-7.7301],[-72.6526,-7.7335],[-72.6524,-7.7357]]]}},{"type":"Feature","properties":{"c":"b42","b":42,"n":"Ana Vieira","m":"1200500","cx":-68.6719,"cy":-9.0674},"geometry":{"type":"Polygon","coordinates":[[[-68.6672,-9.0625],[-68.6682,-9.0629],[-68.6686,-9.0633],[-68.668,-9.0656],[-68.6673,-9.0656],[-68.6652,-9.0658],[-68.6653,-9.0669],[-68.6649,-9.0678],[-68.6642,-9.0685],[-68.663,-9.069],[-68.664,-9.0694],[-68.6654,-9.0702],[-68.666,-9.0708],[-68.667,-9.0729],[-68.6707,-9.0719],[-68.6794,-9.067],[-68.6797,-9.0669],[-68.6818,-9.0651],[-68.6821,-9.064],[-68.6797,-9.0647],[-68.6788,-9.0653],[-68.6782,-9.0654],[-68.6767,-9.0652],[-68.6752,-9.0633],[-68.6745,-9.0627],[-68.6721,-9.062],[-68.6705,-9.0618],[-68.6672,-9.0622],[-68.6672,-9.0625]]]}},{"type":"Feature","properties":{"c":"b43","b":43,"n":"Bom Sucesso","m":"1200500","cx":-68.6658,"cy":-9.0565},"geometry":{"type":"Polygon","coordinates":[[[-68.6615,-9.0579],[-68.6624,-9.0581],[-68.6631,-9.0591],[-68.6629,-9.0598],[-68.663,-9.0603],[-68.6639,-9.0615],[-68.6645,-9.0616],[-68.6659,-9.0613],[-68.6668,-9.061],[-68.6675,-9.0602],[-68.6675,-9.0598],[-68.6688,-9.0584],[-68.6691,-9.0576],[-68.6702,-9.0556],[-68.6697,-9.0548],[-68.6685,-9.0535],[-68.6677,-9.0522],[-68.6634,-9.0538],[-68.6621,-9.0544],[-68.6617,-9.0574],[-68.6615,-9.0579]]]}},{"type":"Feature","properties":{"c":"b44","b":44,"n":"Cafezal","m":"1200500","cx":-68.6627,"cy":-9.0619},"geometry":{"type":"Polygon","coordinates":[[[-68.6668,-9.061],[-68.6659,-9.0613],[-68.6645,-9.0616],[-68.6639,-9.0615],[-68.663,-9.0603],[-68.6629,-9.0598],[-68.658,-9.0605],[-68.6586,-9.064],[-68.6611,-9.0636],[-68.6642,-9.0631],[-68.6672,-9.0622],[-68.6668,-9.061]]]}},{"type":"Feature","properties":{"c":"b45","b":45,"n":"Centro","m":"1200500","cx":-68.6562,"cy":-9.0655},"geometry":{"type":"Polygon","coordinates":[[[-68.6586,-9.064],[-68.658,-9.0605],[-68.6555,-9.0607],[-68.6555,-9.061],[-68.6539,-9.0613],[-68.6539,-9.0619],[-68.6541,-9.0638],[-68.6539,-9.0647],[-68.6532,-9.0663],[-68.6538,-9.0674],[-68.6544,-9.0672],[-68.655,-9.0709],[-68.657,-9.0707],[-68.6567,-9.0688],[-68.6593,-9.0689],[-68.6586,-9.064]]]}},{"type":"Feature","properties":{"c":"b46","b":46,"n":"Centro Social Urbano","m":"1200500","cx":-68.6609,"cy":-9.0705},"geometry":{"type":"Polygon","coordinates":[[[-68.6624,-9.072],[-68.662,-9.069],[-68.6593,-9.0689],[-68.6604,-9.0751],[-68.6628,-9.0749],[-68.6624,-9.072]]]}},{"type":"Feature","properties":{"c":"b47","b":47,"n":"Cidade Nova","m":"1200500","cx":-68.6602,"cy":-9.0586},"geometry":{"type":"Polygon","coordinates":[[[-68.6631,-9.0591],[-68.6624,-9.0581],[-68.6615,-9.0579],[-68.6617,-9.0574],[-68.6614,-9.057],[-68.66,-9.0567],[-68.6591,-9.0571],[-68.6582,-9.0563],[-68.6577,-9.0564],[-68.6578,-9.0571],[-68.6575,-9.057],[-68.658,-9.0605],[-68.6629,-9.0598],[-68.6631,-9.0591]]]}},{"type":"Feature","properties":{"c":"b48","b":48,"n":"Cohab","m":"1200500","cx":-68.6601,"cy":-9.0654},"geometry":{"type":"Polygon","coordinates":[[[-68.6586,-9.064],[-68.6593,-9.0689],[-68.662,-9.069],[-68.6617,-9.0669],[-68.6611,-9.0636],[-68.6586,-9.064]]]}},{"type":"Feature","properties":{"c":"b49","b":49,"n":"Cristo Libertador","m":"1200500","cx":-68.6651,"cy":-9.0777},"geometry":{"type":"Polygon","coordinates":[[[-68.6681,-9.076],[-68.6651,-9.0762],[-68.6646,-9.0767],[-68.6645,-9.0748],[-68.6628,-9.0749],[-68.6629,-9.0764],[-68.6643,-9.0806],[-68.666,-9.0803],[-68.6658,-9.0782],[-68.6669,-9.078],[-68.6668,-9.0775],[-68.6682,-9.0774],[-68.6682,-9.0768],[-68.6681,-9.076]]]}},{"type":"Feature","properties":{"c":"b50","b":50,"n":"Da Pista","m":"1200500","cx":-68.6543,"cy":-9.0714},"geometry":{"type":"Polygon","coordinates":[[[-68.6515,-9.0692],[-68.6507,-9.07],[-68.6511,-9.071],[-68.6522,-9.0716],[-68.6525,-9.0712],[-68.6534,-9.0711],[-68.6535,-9.072],[-68.6538,-9.0738],[-68.6545,-9.0737],[-68.6548,-9.0756],[-68.655,-9.0765],[-68.6558,-9.0764],[-68.655,-9.0709],[-68.6544,-9.0672],[-68.6538,-9.0674],[-68.6532,-9.0663],[-68.6515,-9.0692]]]}},{"type":"Feature","properties":{"c":"b51","b":51,"n":"Da Vitória","m":"1200500","cx":-68.6512,"cy":-9.0735},"geometry":{"type":"Polygon","coordinates":[[[-68.6496,-9.0709],[-68.6488,-9.0719],[-68.6485,-9.0733],[-68.6489,-9.0746],[-68.6493,-9.0751],[-68.6511,-9.0763],[-68.652,-9.0766],[-68.6529,-9.0767],[-68.655,-9.0765],[-68.6548,-9.0756],[-68.6545,-9.0737],[-68.6538,-9.0738],[-68.6535,-9.072],[-68.6534,-9.0711],[-68.6525,-9.0712],[-68.6522,-9.0716],[-68.6511,-9.071],[-68.6507,-9.07],[-68.6496,-9.0709]]]}},{"type":"Feature","properties":{"c":"b52","b":52,"n":"Do Bosque","m":"1200500","cx":-68.6587,"cy":-9.0729},"geometry":{"type":"Polygon","coordinates":[[[-68.6567,-9.0688],[-68.657,-9.0707],[-68.6578,-9.076],[-68.6597,-9.0758],[-68.6604,-9.0759],[-68.6604,-9.0751],[-68.6593,-9.0689],[-68.6567,-9.0688]]]}},{"type":"Feature","properties":{"c":"b53","b":53,"n":"Eugênio Areal","m":"1200500","cx":-68.6809,"cy":-9.0842},"geometry":{"type":"Polygon","coordinates":[[[-68.6775,-9.0781],[-68.6721,-9.0792],[-68.6724,-9.0797],[-68.6739,-9.0809],[-68.6741,-9.0813],[-68.6742,-9.0823],[-68.6754,-9.0835],[-68.6751,-9.0863],[-68.6747,-9.0877],[-68.6746,-9.0886],[-68.6749,-9.0898],[-68.6753,-9.0904],[-68.6777,-9.0901],[-68.6777,-9.0897],[-68.6783,-9.0895],[-68.6786,-9.0891],[-68.6797,-9.0889],[-68.68,-9.0886],[-68.68,-9.0871],[-68.6799,-9.0857],[-68.6801,-9.0854],[-68.683,-9.0846],[-68.684,-9.0851],[-68.6852,-9.085],[-68.686,-9.0846],[-68.6869,-9.0837],[-68.6874,-9.0835],[-68.6876,-9.083],[-68.6869,-9.0814],[-68.6866,-9.0804],[-68.685,-9.0801],[-68.6842,-9.0794],[-68.6831,-9.0789],[-68.683,-9.0783],[-68.6823,-9.0773],[-68.6775,-9.0781]]]}},{"type":"Feature","properties":{"c":"b54","b":54,"n":"Florentino","m":"1200500","cx":-68.6721,"cy":-9.0528},"geometry":{"type":"Polygon","coordinates":[[[-68.6685,-9.0535],[-68.6697,-9.0548],[-68.6702,-9.0556],[-68.6719,-9.0549],[-68.673,-9.0537],[-68.6748,-9.0536],[-68.6762,-9.0538],[-68.676,-9.0511],[-68.6754,-9.0493],[-68.6721,-9.0504],[-68.6689,-9.0513],[-68.6682,-9.052],[-68.6677,-9.0522],[-68.6685,-9.0535]]]}},{"type":"Feature","properties":{"c":"b55","b":55,"n":"Jardim Primavera","m":"1200500","cx":-68.6648,"cy":-9.0646},"geometry":{"type":"Polygon","coordinates":[[[-68.6642,-9.0631],[-68.6611,-9.0636],[-68.6617,-9.0669],[-68.662,-9.069],[-68.663,-9.069],[-68.6642,-9.0685],[-68.6649,-9.0678],[-68.6653,-9.0669],[-68.6652,-9.0658],[-68.6673,-9.0656],[-68.668,-9.0656],[-68.6686,-9.0633],[-68.6682,-9.0629],[-68.6672,-9.0625],[-68.6672,-9.0622],[-68.6642,-9.0631]]]}},{"type":"Feature","properties":{"c":"b56","b":56,"n":"Jorge Alves Júnior","m":"1200500","cx":-68.6646,"cy":-9.0724},"geometry":{"type":"Polygon","coordinates":[[[-68.666,-9.0708],[-68.6654,-9.0702],[-68.664,-9.0694],[-68.663,-9.069],[-68.662,-9.069],[-68.6624,-9.072],[-68.6628,-9.0749],[-68.6645,-9.0748],[-68.6646,-9.0767],[-68.6651,-9.0762],[-68.6681,-9.076],[-68.6682,-9.0768],[-68.6692,-9.0765],[-68.6691,-9.0761],[-68.6698,-9.0757],[-68.6689,-9.0746],[-68.6677,-9.0739],[-68.667,-9.0729],[-68.666,-9.0708]]]}},{"type":"Feature","properties":{"c":"b57","b":57,"n":"José Nogueira Sobrinho","m":"1200500","cx":-68.6564,"cy":-9.0735},"geometry":{"type":"Polygon","coordinates":[[[-68.655,-9.0709],[-68.6558,-9.0764],[-68.6578,-9.076],[-68.657,-9.0707],[-68.655,-9.0709]]]}},{"type":"Feature","properties":{"c":"b58","b":58,"n":"Nenem das Neves","m":"1200500","cx":-68.6732,"cy":-9.0591},"geometry":{"type":"Polygon","coordinates":[[[-68.6691,-9.0576],[-68.6688,-9.0584],[-68.6675,-9.0598],[-68.6675,-9.0602],[-68.6668,-9.061],[-68.6672,-9.0622],[-68.6705,-9.0618],[-68.6721,-9.062],[-68.6745,-9.0627],[-68.6752,-9.0633],[-68.6767,-9.0652],[-68.6782,-9.0654],[-68.6788,-9.0653],[-68.6797,-9.0647],[-68.6821,-9.064],[-68.6823,-9.0626],[-68.6817,-9.0615],[-68.6812,-9.0608],[-68.6797,-9.0606],[-68.6788,-9.0602],[-68.6779,-9.0583],[-68.6772,-9.0579],[-68.6763,-9.0576],[-68.6755,-9.057],[-68.6751,-9.0558],[-68.6762,-9.0538],[-68.6748,-9.0536],[-68.673,-9.0537],[-68.6719,-9.0549],[-68.6702,-9.0556],[-68.6691,-9.0576]]]}},{"type":"Feature","properties":{"c":"b59","b":59,"n":"Niterói","m":"1200500","cx":-68.6491,"cy":-9.0676},"geometry":{"type":"Polygon","coordinates":[[[-68.6517,-9.0629],[-68.651,-9.0629],[-68.65,-9.0639],[-68.6491,-9.0651],[-68.6483,-9.0637],[-68.646,-9.0627],[-68.6452,-9.0625],[-68.6459,-9.0689],[-68.6471,-9.0704],[-68.6469,-9.0743],[-68.647,-9.0749],[-68.6474,-9.0747],[-68.6479,-9.0736],[-68.6485,-9.0733],[-68.6488,-9.0719],[-68.6496,-9.0709],[-68.6507,-9.07],[-68.6515,-9.0692],[-68.6532,-9.0663],[-68.6539,-9.0647],[-68.6541,-9.0638],[-68.6539,-9.0619],[-68.6529,-9.0622],[-68.6519,-9.0626],[-68.6517,-9.0629]]]}},{"type":"Feature","properties":{"c":"b60","b":60,"n":"Raimundo Gomes de Freitas","m":"1200500","cx":-68.6723,"cy":-9.0733},"geometry":{"type":"Polygon","coordinates":[[[-68.6677,-9.0739],[-68.6689,-9.0746],[-68.6698,-9.0757],[-68.6719,-9.0786],[-68.6721,-9.0792],[-68.6775,-9.0781],[-68.6823,-9.0773],[-68.6819,-9.0767],[-68.6813,-9.0764],[-68.6797,-9.0752],[-68.6791,-9.075],[-68.6773,-9.0736],[-68.6772,-9.0728],[-68.6776,-9.0712],[-68.6781,-9.0705],[-68.6787,-9.0689],[-68.6792,-9.0682],[-68.6797,-9.0669],[-68.6794,-9.067],[-68.6707,-9.0719],[-68.667,-9.0729],[-68.6677,-9.0739]]]}},{"type":"Feature","properties":{"c":"b61","b":61,"n":"São Felipe","m":"1200500","cx":-68.6622,"cy":-9.0774},"geometry":{"type":"Polygon","coordinates":[[[-68.6604,-9.0759],[-68.661,-9.0767],[-68.6614,-9.0781],[-68.6616,-9.0796],[-68.6616,-9.0811],[-68.6643,-9.0806],[-68.6629,-9.0764],[-68.6628,-9.0749],[-68.6604,-9.0751],[-68.6604,-9.0759]]]}},{"type":"Feature","properties":{"c":"b62","b":62,"n":"São Francisco","m":"1200500","cx":-68.6517,"cy":-9.0561},"geometry":{"type":"Polygon","coordinates":[[[-68.6539,-9.0613],[-68.6538,-9.0608],[-68.653,-9.057],[-68.6527,-9.0553],[-68.6522,-9.0534],[-68.6516,-9.0524],[-68.6503,-9.051],[-68.6497,-9.0506],[-68.6478,-9.0499],[-68.6477,-9.0505],[-68.6499,-9.0524],[-68.6519,-9.0626],[-68.6529,-9.0622],[-68.6539,-9.0619],[-68.6539,-9.0613]]]}},{"type":"Feature","properties":{"c":"b63","b":63,"n":"São Gonçalves","m":"1200500","cx":-68.6691,"cy":-9.0777},"geometry":{"type":"Polygon","coordinates":[[[-68.6691,-9.0761],[-68.6692,-9.0765],[-68.6682,-9.0768],[-68.6682,-9.0774],[-68.6668,-9.0775],[-68.6669,-9.078],[-68.6658,-9.0782],[-68.666,-9.0803],[-68.6721,-9.0792],[-68.6719,-9.0786],[-68.6698,-9.0757],[-68.6691,-9.0761]]]}},{"type":"Feature","properties":{"c":"b64","b":64,"n":"Triângulo","m":"1200500","cx":-68.6733,"cy":-9.0831},"geometry":{"type":"Polygon","coordinates":[[[-68.6643,-9.0806],[-68.6616,-9.0811],[-68.6616,-9.0827],[-68.671,-9.0812],[-68.672,-9.0848],[-68.6747,-9.0877],[-68.6751,-9.0863],[-68.6754,-9.0835],[-68.6742,-9.0823],[-68.6741,-9.0813],[-68.6739,-9.0809],[-68.6724,-9.0797],[-68.6721,-9.0792],[-68.666,-9.0803],[-68.6643,-9.0806]]]}},{"type":"Feature","properties":{"c":"b65","b":65,"n":"Vila Militar","m":"1200500","cx":-68.6556,"cy":-9.059},"geometry":{"type":"Polygon","coordinates":[[[-68.6555,-9.061],[-68.6555,-9.0607],[-68.658,-9.0605],[-68.6575,-9.057],[-68.6567,-9.0571],[-68.657,-9.0576],[-68.6566,-9.0576],[-68.6564,-9.0571],[-68.6555,-9.0567],[-68.6549,-9.0567],[-68.6546,-9.0571],[-68.654,-9.0568],[-68.6542,-9.0559],[-68.6527,-9.0553],[-68.653,-9.057],[-68.6538,-9.0608],[-68.6539,-9.0613],[-68.6555,-9.061]]]}},{"type":"Feature","properties":{"c":"b66","b":66,"n":"Avelino Leal","m":"1200609","cx":-70.7729,"cy":-8.1499},"geometry":{"type":"Polygon","coordinates":[[[-70.7751,-8.1583],[-70.7751,-8.157],[-70.7758,-8.1561],[-70.7753,-8.1558],[-70.7752,-8.1544],[-70.7755,-8.1544],[-70.7753,-8.1528],[-70.7765,-8.1525],[-70.7764,-8.1513],[-70.776,-8.1505],[-70.7749,-8.1487],[-70.7766,-8.1478],[-70.7773,-8.1475],[-70.774,-8.1423],[-70.7719,-8.1424],[-70.7709,-8.1422],[-70.7683,-8.1413],[-70.7677,-8.1413],[-70.7662,-8.1414],[-70.7667,-8.1421],[-70.7691,-8.1468],[-70.77,-8.1494],[-70.7703,-8.1525],[-70.7706,-8.1546],[-70.7711,-8.1583],[-70.7744,-8.1583],[-70.7751,-8.1583]]]}},{"type":"Feature","properties":{"c":"b67","b":67,"n":"Centro","m":"1200609","cx":-70.7666,"cy":-8.1592},"geometry":{"type":"Polygon","coordinates":[[[-70.7719,-8.1649],[-70.7719,-8.1641],[-70.7711,-8.1583],[-70.7706,-8.1546],[-70.7699,-8.155],[-70.7662,-8.1553],[-70.7662,-8.1543],[-70.7657,-8.1544],[-70.7656,-8.155],[-70.7646,-8.156],[-70.7611,-8.1602],[-70.7603,-8.1608],[-70.7603,-8.1623],[-70.7619,-8.1622],[-70.7631,-8.1618],[-70.7633,-8.162],[-70.7632,-8.1629],[-70.7635,-8.1634],[-70.764,-8.1634],[-70.7661,-8.1632],[-70.771,-8.1635],[-70.7714,-8.1646],[-70.7714,-8.1653],[-70.7718,-8.1653],[-70.7719,-8.1649]]]}},{"type":"Feature","properties":{"c":"b68","b":68,"n":"Cohab","m":"1200609","cx":-70.7729,"cy":-8.1609},"geometry":{"type":"Polygon","coordinates":[[[-70.7719,-8.1641],[-70.7719,-8.1649],[-70.7724,-8.1648],[-70.7724,-8.1632],[-70.7747,-8.1631],[-70.7747,-8.1621],[-70.7743,-8.1621],[-70.7743,-8.1597],[-70.7744,-8.1583],[-70.7711,-8.1583],[-70.7719,-8.1641]]]}},{"type":"Feature","properties":{"c":"b69","b":69,"n":"Copacabana","m":"1200609","cx":-70.7817,"cy":-8.1509},"geometry":{"type":"Polygon","coordinates":[[[-70.7743,-8.1597],[-70.7776,-8.1598],[-70.7795,-8.1595],[-70.7803,-8.1586],[-70.7869,-8.1513],[-70.7881,-8.1495],[-70.7889,-8.1433],[-70.7888,-8.1415],[-70.7853,-8.1419],[-70.774,-8.1423],[-70.7773,-8.1475],[-70.7766,-8.1478],[-70.7749,-8.1487],[-70.776,-8.1505],[-70.7764,-8.1513],[-70.7765,-8.1525],[-70.7753,-8.1528],[-70.7755,-8.1544],[-70.7752,-8.1544],[-70.7753,-8.1558],[-70.7758,-8.1561],[-70.7751,-8.157],[-70.7751,-8.1583],[-70.7744,-8.1583],[-70.7743,-8.1597]]]}},{"type":"Feature","properties":{"c":"b70","b":70,"n":"Ipepaconha","m":"1200609","cx":-70.7842,"cy":-8.1644},"geometry":{"type":"Polygon","coordinates":[[[-70.7798,-8.1628],[-70.7798,-8.1637],[-70.7807,-8.1637],[-70.7806,-8.1664],[-70.7824,-8.1665],[-70.7824,-8.1681],[-70.7848,-8.1684],[-70.7872,-8.1689],[-70.7879,-8.1652],[-70.7874,-8.1637],[-70.7865,-8.1626],[-70.7852,-8.1615],[-70.7839,-8.1596],[-70.7803,-8.1586],[-70.7795,-8.1595],[-70.7776,-8.1598],[-70.7743,-8.1597],[-70.7743,-8.1621],[-70.7747,-8.1621],[-70.7747,-8.1631],[-70.7798,-8.1628]]]}},{"type":"Feature","properties":{"c":"b71","b":71,"n":"Praia","m":"1200609","cx":-70.766,"cy":-8.1685},"geometry":{"type":"Polygon","coordinates":[[[-70.7601,-8.1654],[-70.7599,-8.1672],[-70.7597,-8.1695],[-70.7599,-8.1705],[-70.7603,-8.1709],[-70.7613,-8.1711],[-70.7652,-8.171],[-70.7667,-8.1706],[-70.7681,-8.1703],[-70.7697,-8.1704],[-70.7709,-8.1709],[-70.7718,-8.1715],[-70.7728,-8.1723],[-70.7734,-8.1736],[-70.7754,-8.171],[-70.7743,-8.1703],[-70.7731,-8.1698],[-70.7715,-8.1675],[-70.7718,-8.1653],[-70.7714,-8.1653],[-70.7714,-8.1646],[-70.771,-8.1635],[-70.7661,-8.1632],[-70.764,-8.1634],[-70.7635,-8.1634],[-70.7632,-8.1629],[-70.7633,-8.162],[-70.7631,-8.1618],[-70.7619,-8.1622],[-70.7603,-8.1623],[-70.7601,-8.1654]]]}},{"type":"Feature","properties":{"c":"b72","b":72,"n":"Triângulo","m":"1200609","cx":-70.7577,"cy":-8.1546},"geometry":{"type":"Polygon","coordinates":[[[-70.7634,-8.1548],[-70.7613,-8.1548],[-70.7613,-8.153],[-70.7608,-8.1515],[-70.7603,-8.1507],[-70.7581,-8.1482],[-70.756,-8.1504],[-70.755,-8.151],[-70.7537,-8.1517],[-70.752,-8.1521],[-70.7502,-8.1521],[-70.7463,-8.152],[-70.747,-8.153],[-70.7478,-8.1535],[-70.749,-8.1535],[-70.7515,-8.1538],[-70.7538,-8.1544],[-70.756,-8.1559],[-70.7575,-8.1571],[-70.7591,-8.1587],[-70.7599,-8.1599],[-70.7603,-8.1608],[-70.7611,-8.1602],[-70.7646,-8.156],[-70.7634,-8.1548]]]}},{"type":"Feature","properties":{"c":"b73","b":73,"n":"Bolívia","m":"1200708","cx":-68.5041,"cy":-10.6591},"geometry":{"type":"Polygon","coordinates":[[[-68.5032,-10.6583],[-68.5036,-10.6597],[-68.5055,-10.6621],[-68.5067,-10.6641],[-68.5071,-10.6636],[-68.5084,-10.6639],[-68.5088,-10.6628],[-68.5058,-10.6604],[-68.5051,-10.6596],[-68.5046,-10.6587],[-68.5046,-10.6578],[-68.5053,-10.6563],[-68.506,-10.6554],[-68.5056,-10.6551],[-68.5044,-10.6551],[-68.5036,-10.6557],[-68.5023,-10.6571],[-68.5023,-10.6578],[-68.5032,-10.6583]]]}},{"type":"Feature","properties":{"c":"b74","b":74,"n":"Cageacre","m":"1200708","cx":-68.4859,"cy":-10.6687},"geometry":{"type":"Polygon","coordinates":[[[-68.4827,-10.6691],[-68.4836,-10.6702],[-68.4843,-10.6701],[-68.4842,-10.6716],[-68.484,-10.6728],[-68.4861,-10.6728],[-68.4905,-10.6737],[-68.4908,-10.67],[-68.4862,-10.6673],[-68.4887,-10.6656],[-68.4903,-10.6645],[-68.4898,-10.6639],[-68.4856,-10.667],[-68.4837,-10.6684],[-68.4827,-10.6691]]]}},{"type":"Feature","properties":{"c":"b75","b":75,"n":"Centro","m":"1200708","cx":-68.5044,"cy":-10.6532},"geometry":{"type":"Polygon","coordinates":[[[-68.5063,-10.6487],[-68.5054,-10.6488],[-68.5021,-10.6502],[-68.5014,-10.6504],[-68.5007,-10.6512],[-68.5006,-10.6518],[-68.5008,-10.6532],[-68.501,-10.6545],[-68.5013,-10.6555],[-68.5018,-10.6572],[-68.5016,-10.6576],[-68.5023,-10.6578],[-68.5023,-10.6571],[-68.5036,-10.6557],[-68.5044,-10.6551],[-68.5056,-10.6551],[-68.506,-10.6554],[-68.5079,-10.6533],[-68.5084,-10.6522],[-68.5083,-10.6515],[-68.5074,-10.6498],[-68.5063,-10.6487]]]}},{"type":"Feature","properties":{"c":"b76","b":76,"n":"Cerâmica","m":"1200708","cx":-68.495,"cy":-10.6605},"geometry":{"type":"Polygon","coordinates":[[[-68.5016,-10.6576],[-68.5018,-10.6572],[-68.5013,-10.6555],[-68.5001,-10.6565],[-68.4988,-10.6572],[-68.4982,-10.6578],[-68.4974,-10.6582],[-68.4956,-10.6595],[-68.4924,-10.662],[-68.4898,-10.6639],[-68.4903,-10.6645],[-68.4927,-10.6629],[-68.4935,-10.6642],[-68.495,-10.6638],[-68.496,-10.6652],[-68.4971,-10.6644],[-68.4953,-10.6622],[-68.4947,-10.6616],[-68.4976,-10.6587],[-68.4989,-10.6583],[-68.5005,-10.6586],[-68.5017,-10.659],[-68.5025,-10.6584],[-68.5023,-10.6578],[-68.5016,-10.6576]]]}},{"type":"Feature","properties":{"c":"b77","b":77,"n":"Constantino","m":"1200708","cx":-68.4897,"cy":-10.6484},"geometry":{"type":"Polygon","coordinates":[[[-68.4934,-10.6544],[-68.4947,-10.6542],[-68.496,-10.654],[-68.4956,-10.6514],[-68.4965,-10.6512],[-68.4964,-10.6505],[-68.4955,-10.6496],[-68.4962,-10.6485],[-68.4949,-10.6477],[-68.4928,-10.6466],[-68.4918,-10.6451],[-68.4895,-10.6435],[-68.4883,-10.6419],[-68.4878,-10.6424],[-68.4859,-10.6434],[-68.4854,-10.6435],[-68.4858,-10.6445],[-68.4854,-10.6457],[-68.4859,-10.6461],[-68.4854,-10.647],[-68.4843,-10.6463],[-68.4836,-10.6468],[-68.4836,-10.6476],[-68.4833,-10.6483],[-68.4836,-10.6489],[-68.4831,-10.6493],[-68.4824,-10.6493],[-68.4822,-10.6503],[-68.4862,-10.653],[-68.489,-10.6549],[-68.4934,-10.6544]]]}},{"type":"Feature","properties":{"c":"b78","b":78,"n":"Laranjal","m":"1200708","cx":-68.492,"cy":-10.6582},"geometry":{"type":"Polygon","coordinates":[[[-68.4934,-10.6544],[-68.489,-10.6549],[-68.4879,-10.6551],[-68.4841,-10.6563],[-68.4831,-10.6567],[-68.4845,-10.6575],[-68.4866,-10.6576],[-68.488,-10.658],[-68.4891,-10.6585],[-68.4899,-10.6595],[-68.4911,-10.6605],[-68.4924,-10.662],[-68.4956,-10.6595],[-68.4951,-10.6569],[-68.4947,-10.6542],[-68.4934,-10.6544]]]}},{"type":"Feature","properties":{"c":"b79","b":79,"n":"Multirão","m":"1200708","cx":-68.4859,"cy":-10.6629},"geometry":{"type":"Polygon","coordinates":[[[-68.4924,-10.662],[-68.4911,-10.6605],[-68.4899,-10.6595],[-68.4891,-10.6585],[-68.488,-10.658],[-68.4866,-10.6576],[-68.4845,-10.6575],[-68.4831,-10.6567],[-68.4795,-10.6586],[-68.4799,-10.6597],[-68.4805,-10.6605],[-68.48,-10.661],[-68.4801,-10.6618],[-68.4833,-10.6681],[-68.4837,-10.6684],[-68.4856,-10.667],[-68.4898,-10.6639],[-68.4924,-10.662]]]}},{"type":"Feature","properties":{"c":"b80","b":80,"n":"Pantanal","m":"1200708","cx":-68.4987,"cy":-10.6509},"geometry":{"type":"Polygon","coordinates":[[[-68.5006,-10.6518],[-68.5007,-10.6512],[-68.5014,-10.6504],[-68.5006,-10.6506],[-68.4995,-10.6504],[-68.4986,-10.6497],[-68.4974,-10.648],[-68.4962,-10.6485],[-68.4955,-10.6496],[-68.4964,-10.6505],[-68.4965,-10.6512],[-68.4956,-10.6514],[-68.496,-10.654],[-68.5008,-10.6532],[-68.5006,-10.6518]]]}},{"type":"Feature","properties":{"c":"b81","b":81,"n":"Raimundo H. de Melo","m":"1200708","cx":-68.4978,"cy":-10.656},"geometry":{"type":"Polygon","coordinates":[[[-68.501,-10.6545],[-68.5008,-10.6532],[-68.496,-10.654],[-68.4947,-10.6542],[-68.4951,-10.6569],[-68.4956,-10.6595],[-68.4974,-10.6582],[-68.4982,-10.6578],[-68.4988,-10.6572],[-68.5001,-10.6565],[-68.5013,-10.6555],[-68.501,-10.6545]]]}},{"type":"Feature","properties":{"c":"b82","b":82,"n":"Sibéria","m":"1200708","cx":-68.5067,"cy":-10.6445},"geometry":{"type":"Polygon","coordinates":[[[-68.5085,-10.6491],[-68.5106,-10.6461],[-68.5106,-10.6452],[-68.5109,-10.6439],[-68.5122,-10.6408],[-68.5103,-10.6402],[-68.5045,-10.6395],[-68.5018,-10.6435],[-68.503,-10.6451],[-68.5024,-10.6456],[-68.5021,-10.6469],[-68.5019,-10.6496],[-68.5021,-10.6502],[-68.5054,-10.6488],[-68.5063,-10.6487],[-68.5074,-10.6498],[-68.5085,-10.6491]]]}}]}