{"type":"FeatureCollection","features":[{"type":"Feature","properties":{"c":"b0","b":0,"n":"CEA","m":"1600204","cx":-50.958,"cy":2.4977},"geometry":{"type":"Polygon","coordinates":[[[-50.9537,2.4967],[-50.9514,2.4948],[-50.9525,2.4935],[-50.9521,2.4931],[-50.9518,2.4918],[-50.9515,2.4916],[-50.9523,2.4907],[-50.9529,2.4924],[-50.9538,2.4933],[-50.9549,2.495],[-50.9554,2.4956],[-50.9561,2.496],[-50.9575,2.4957],[-50.958,2.4952],[-50.959,2.4938],[-50.9591,2.4932],[-50.9588,2.4923],[-50.9608,2.4937],[-50.963,2.4955],[-50.9615,2.4973],[-50.962,2.4981],[-50.9595,2.5007],[-50.961,2.5025],[-50.9603,2.5032],[-50.9595,2.5035],[-50.9589,2.5034],[-50.9586,2.5046],[-50.9581,2.5047],[-50.9574,2.5042],[-50.9573,2.5037],[-50.9569,2.5035],[-50.9571,2.5023],[-50.9568,2.4988],[-50.9533,2.4973],[-50.9537,2.4967]]]}},{"type":"Feature","properties":{"c":"b1","b":1,"n":"Das Palmeiras","m":"1600204","cx":-50.9537,"cy":2.5006},"geometry":{"type":"Polygon","coordinates":[[[-50.956,2.5034],[-50.9472,2.4989],[-50.9482,2.4968],[-50.9516,2.4983],[-50.9522,2.4968],[-50.9533,2.4973],[-50.9568,2.4988],[-50.9571,2.5023],[-50.9569,2.5035],[-50.956,2.5034]]]}},{"type":"Feature","properties":{"c":"b2","b":2,"n":"Parque dos Buritis","m":"1600204","cx":-50.9648,"cy":2.49},"geometry":{"type":"Polygon","coordinates":[[[-50.9573,2.4916],[-50.9565,2.4907],[-50.9565,2.4892],[-50.9568,2.4885],[-50.9579,2.4873],[-50.9602,2.4854],[-50.9704,2.4869],[-50.9735,2.4877],[-50.973,2.4908],[-50.9732,2.4928],[-50.9721,2.4932],[-50.971,2.4933],[-50.9702,2.4931],[-50.968,2.4922],[-50.9672,2.4921],[-50.9649,2.4932],[-50.963,2.4955],[-50.9608,2.4937],[-50.9588,2.4923],[-50.9573,2.4916]]]}},{"type":"Feature","properties":{"c":"b3","b":3,"n":"Centro","m":"1600238","cx":-51.1811,"cy":0.8574},"geometry":{"type":"Polygon","coordinates":[[[-51.1748,0.8622],[-51.1772,0.858],[-51.1763,0.8565],[-51.1782,0.8553],[-51.1787,0.8552],[-51.1834,0.8546],[-51.1837,0.8541],[-51.1839,0.8534],[-51.1836,0.8523],[-51.1836,0.8513],[-51.1853,0.8519],[-51.1877,0.855],[-51.1873,0.8553],[-51.1865,0.8552],[-51.186,0.8558],[-51.1863,0.8565],[-51.1861,0.8568],[-51.1843,0.8581],[-51.183,0.8595],[-51.1816,0.8603],[-51.1801,0.8614],[-51.1794,0.862],[-51.1794,0.8625],[-51.1789,0.8625],[-51.1774,0.863],[-51.1757,0.8623],[-51.1748,0.8622]]]}},{"type":"Feature","properties":{"c":"b4","b":4,"n":"Portelinha","m":"1600238","cx":-51.1781,"cy":0.8475},"geometry":{"type":"Polygon","coordinates":[[[-51.1809,0.8461],[-51.1827,0.849],[-51.1806,0.8499],[-51.1802,0.8502],[-51.1791,0.8487],[-51.1776,0.8492],[-51.1769,0.8482],[-51.1747,0.8493],[-51.1741,0.8483],[-51.1749,0.8467],[-51.176,0.8462],[-51.1809,0.8461]]]}},{"type":"Feature","properties":{"c":"b5","b":5,"n":"Alvorada","m":"1600303","cx":-51.0947,"cy":0.0367},"geometry":{"type":"Polygon","coordinates":[[[-51.1032,0.0328],[-51.1037,0.0334],[-51.1041,0.0351],[-51.1056,0.0358],[-51.1062,0.0362],[-51.1068,0.037],[-51.1068,0.0375],[-51.1062,0.0387],[-51.1044,0.0405],[-51.1034,0.0422],[-51.1026,0.0429],[-51.1017,0.0443],[-51.0996,0.046],[-51.0999,0.0465],[-51.0956,0.0491],[-51.0942,0.0467],[-51.0901,0.0403],[-51.0894,0.0407],[-51.0888,0.04],[-51.0879,0.0386],[-51.0883,0.0384],[-51.0876,0.0374],[-51.0848,0.0391],[-51.0829,0.0402],[-51.0826,0.0401],[-51.0829,0.0364],[-51.0836,0.0259],[-51.0837,0.0247],[-51.0847,0.0248],[-51.0901,0.0251],[-51.0901,0.0254],[-51.0899,0.0293],[-51.0911,0.0296],[-51.0933,0.0307],[-51.094,0.0308],[-51.0951,0.0305],[-51.0964,0.0298],[-51.0981,0.0286],[-51.0994,0.0275],[-51.1007,0.0269],[-51.1017,0.0286],[-51.1022,0.0302],[-51.1026,0.0317],[-51.1032,0.0328]]]}},{"type":"Feature","properties":{"c":"b6","b":6,"n":"Amazonas","m":"1600303","cx":-51.1162,"cy":0.0908},"geometry":{"type":"MultiPolygon","coordinates":[[[[-51.1151,0.0948],[-51.1142,0.0942],[-51.1116,0.0933],[-51.1124,0.0916],[-51.1159,0.0849],[-51.1166,0.0848],[-51.1201,0.0866],[-51.1183,0.0901],[-51.1208,0.0914],[-51.1193,0.0944],[-51.118,0.0969],[-51.1151,0.0948]]],[[[-51.0997,0.0808],[-51.1008,0.0811],[-51.1023,0.0821],[-51.1035,0.0827],[-51.1064,0.0839],[-51.1053,0.0864],[-51.104,0.0862],[-51.1026,0.0902],[-51.0992,0.0891],[-51.0997,0.0808]]]]}},{"type":"Feature","properties":{"c":"b7","b":7,"n":"Araxá","m":"1600303","cx":-51.0664,"cy":-0.0019},"geometry":{"type":"Polygon","coordinates":[[[-51.0595,0.0094],[-51.059,0.0095],[-51.0583,0.0102],[-51.0578,0.0112],[-51.0578,0.0081],[-51.0585,0.0071],[-51.0597,0.0061],[-51.0595,0.0048],[-51.0595,0.0038],[-51.0602,0.0027],[-51.06,0.0009],[-51.0604,-0.0013],[-51.0608,-0.0024],[-51.063,-0.0054],[-51.064,-0.0064],[-51.0643,-0.008],[-51.0648,-0.0087],[-51.0662,-0.0098],[-51.0665,-0.0099],[-51.067,-0.0109],[-51.0686,-0.013],[-51.0691,-0.0133],[-51.0693,-0.0142],[-51.0719,-0.0107],[-51.0719,-0.0102],[-51.0722,-0.0089],[-51.0728,-0.008],[-51.0733,-0.0076],[-51.0735,-0.0057],[-51.0734,-0.0031],[-51.0717,-0.0015],[-51.0715,-0.0007],[-51.0714,0.0006],[-51.0643,0.0005],[-51.0643,0.0022],[-51.0641,0.0027],[-51.0624,0.0032],[-51.0622,0.0034],[-51.0619,0.006],[-51.0617,0.0073],[-51.0609,0.0098],[-51.0595,0.0094]]]}},{"type":"Feature","properties":{"c":"b8","b":8,"n":"Açaí","m":"1600303","cx":-51.0803,"cy":0.0784},"geometry":{"type":"Polygon","coordinates":[[[-51.0832,0.0823],[-51.0815,0.0851],[-51.0728,0.0797],[-51.0741,0.0788],[-51.0746,0.0791],[-51.0752,0.0781],[-51.0764,0.0773],[-51.0762,0.077],[-51.0835,0.0722],[-51.0827,0.0736],[-51.0841,0.0745],[-51.084,0.074],[-51.0851,0.0743],[-51.085,0.0759],[-51.0857,0.076],[-51.0854,0.0779],[-51.0858,0.0781],[-51.0832,0.0823]]]}},{"type":"Feature","properties":{"c":"b9","b":9,"n":"Beirol","m":"1600303","cx":-51.0645,"cy":0.0174},"geometry":{"type":"Polygon","coordinates":[[[-51.0673,0.0127],[-51.0679,0.0127],[-51.0677,0.015],[-51.0672,0.0226],[-51.0631,0.0223],[-51.0633,0.0208],[-51.0593,0.0205],[-51.0593,0.0198],[-51.0613,0.0199],[-51.0618,0.0122],[-51.0618,0.0115],[-51.0622,0.0108],[-51.0627,0.01],[-51.0653,0.0082],[-51.0665,0.0101],[-51.0669,0.0109],[-51.0687,0.0112],[-51.0673,0.0127]]]}},{"type":"Feature","properties":{"c":"b10","b":10,"n":"Bella Ville","m":"1600303","cx":-51.1347,"cy":0.0418},"geometry":{"type":"Polygon","coordinates":[[[-51.1327,0.0466],[-51.1325,0.0465],[-51.1338,0.0413],[-51.134,0.0406],[-51.135,0.0364],[-51.1379,0.0367],[-51.1388,0.0365],[-51.1397,0.0361],[-51.1376,0.0384],[-51.1364,0.04],[-51.1355,0.0422],[-51.1351,0.0438],[-51.135,0.0451],[-51.1351,0.0467],[-51.1327,0.0466]]]}},{"type":"Feature","properties":{"c":"b11","b":11,"n":"Boné Azul","m":"1600303","cx":-51.0724,"cy":0.0935},"geometry":{"type":"Polygon","coordinates":[[[-51.0815,0.0851],[-51.084,0.0867],[-51.0787,0.0952],[-51.0776,0.0972],[-51.0709,0.1086],[-51.0698,0.1094],[-51.0687,0.1097],[-51.0671,0.1095],[-51.0674,0.1035],[-51.0659,0.1038],[-51.0677,0.1021],[-51.0687,0.1015],[-51.0696,0.1007],[-51.0705,0.0985],[-51.0693,0.0971],[-51.0658,0.0948],[-51.0646,0.0939],[-51.0655,0.0932],[-51.0661,0.0922],[-51.0661,0.0914],[-51.0661,0.087],[-51.066,0.0776],[-51.0675,0.0775],[-51.0693,0.0779],[-51.0699,0.0781],[-51.0713,0.0788],[-51.0728,0.0797],[-51.0815,0.0851]]]}},{"type":"Feature","properties":{"c":"b12","b":12,"n":"Brasil Novo","m":"1600303","cx":-51.086,"cy":0.0981},"geometry":{"type":"Polygon","coordinates":[[[-51.0972,0.0885],[-51.0976,0.0886],[-51.0971,0.09],[-51.0948,0.0972],[-51.0951,0.0989],[-51.0959,0.0993],[-51.092,0.1028],[-51.0906,0.1039],[-51.0889,0.1049],[-51.0853,0.1065],[-51.0836,0.107],[-51.0817,0.107],[-51.0798,0.1063],[-51.0787,0.1059],[-51.0775,0.1057],[-51.076,0.106],[-51.0745,0.1066],[-51.0727,0.1075],[-51.0709,0.1086],[-51.0776,0.0972],[-51.0787,0.0952],[-51.084,0.0867],[-51.0847,0.087],[-51.0861,0.0874],[-51.0885,0.0877],[-51.0894,0.0877],[-51.0927,0.088],[-51.0972,0.0885]]]}},{"type":"Feature","properties":{"c":"b13","b":13,"n":"Buritis","m":"1600303","cx":-51.091,"cy":0.0712},"geometry":{"type":"Polygon","coordinates":[[[-51.0967,0.065],[-51.0963,0.0664],[-51.0969,0.069],[-51.0975,0.0702],[-51.0964,0.0726],[-51.0952,0.0745],[-51.0947,0.0758],[-51.0944,0.0762],[-51.0932,0.0769],[-51.0922,0.0774],[-51.0898,0.0788],[-51.0892,0.0794],[-51.087,0.0781],[-51.0866,0.0785],[-51.0858,0.0781],[-51.0854,0.0779],[-51.0857,0.076],[-51.085,0.0759],[-51.0851,0.0743],[-51.084,0.074],[-51.0841,0.0745],[-51.0827,0.0736],[-51.0835,0.0722],[-51.0967,0.0637],[-51.0967,0.065]]]}},{"type":"Feature","properties":{"c":"b14","b":14,"n":"Buritizal","m":"1600303","cx":-51.0726,"cy":0.0218},"geometry":{"type":"Polygon","coordinates":[[[-51.0773,0.0179],[-51.0794,0.018],[-51.0784,0.0189],[-51.0778,0.0197],[-51.0778,0.021],[-51.078,0.021],[-51.0776,0.0233],[-51.0765,0.0263],[-51.0732,0.0261],[-51.073,0.03],[-51.0709,0.0298],[-51.0668,0.0295],[-51.0671,0.0246],[-51.0672,0.0226],[-51.0677,0.015],[-51.074,0.0154],[-51.0767,0.0157],[-51.0774,0.016],[-51.0773,0.0179]]]}},{"type":"Feature","properties":{"c":"b15","b":15,"n":"Cabralzinho","m":"1600303","cx":-51.1198,"cy":0.0258},"geometry":{"type":"Polygon","coordinates":[[[-51.1057,0.0289],[-51.1074,0.0276],[-51.1067,0.0265],[-51.1078,0.0255],[-51.1129,0.0261],[-51.1132,0.0247],[-51.1128,0.025],[-51.1123,0.0245],[-51.1118,0.0248],[-51.1109,0.0247],[-51.1107,0.0244],[-51.1112,0.0239],[-51.1105,0.0238],[-51.1108,0.023],[-51.1097,0.0233],[-51.1093,0.0224],[-51.1105,0.0218],[-51.1099,0.0217],[-51.1097,0.0214],[-51.1099,0.0206],[-51.1087,0.0198],[-51.1118,0.0183],[-51.1128,0.018],[-51.1137,0.018],[-51.1148,0.0182],[-51.1155,0.0194],[-51.1222,0.0164],[-51.1254,0.0205],[-51.127,0.0238],[-51.1269,0.025],[-51.1251,0.0292],[-51.1226,0.0349],[-51.1201,0.0345],[-51.1191,0.0341],[-51.1178,0.0334],[-51.1111,0.0295],[-51.1101,0.0292],[-51.1091,0.0292],[-51.1062,0.0303],[-51.1057,0.0289]]]}},{"type":"Feature","properties":{"c":"b16","b":16,"n":"Cajari","m":"1600303","cx":-51.1148,"cy":0.0423},"geometry":{"type":"Polygon","coordinates":[[[-51.1062,0.0303],[-51.1091,0.0292],[-51.1101,0.0292],[-51.1111,0.0295],[-51.1178,0.0334],[-51.116,0.0369],[-51.1188,0.0386],[-51.1196,0.0374],[-51.121,0.0374],[-51.121,0.0368],[-51.1224,0.037],[-51.1222,0.0397],[-51.1213,0.0395],[-51.1204,0.0396],[-51.1197,0.0403],[-51.1181,0.042],[-51.1176,0.0427],[-51.117,0.0431],[-51.1158,0.0429],[-51.1158,0.0436],[-51.1151,0.0443],[-51.1148,0.0436],[-51.114,0.0437],[-51.1137,0.0435],[-51.1127,0.0424],[-51.1122,0.0425],[-51.1115,0.0422],[-51.1112,0.0424],[-51.1108,0.0414],[-51.1095,0.0411],[-51.1088,0.0415],[-51.1084,0.0424],[-51.108,0.0419],[-51.1071,0.0413],[-51.1059,0.0427],[-51.106,0.0434],[-51.1066,0.0441],[-51.107,0.0443],[-51.1078,0.0436],[-51.108,0.044],[-51.1074,0.0446],[-51.1078,0.0448],[-51.108,0.0464],[-51.1085,0.0475],[-51.1091,0.048],[-51.1101,0.0485],[-51.1095,0.0485],[-51.1081,0.0478],[-51.1073,0.0465],[-51.1068,0.0464],[-51.1056,0.0471],[-51.1053,0.048],[-51.1053,0.0488],[-51.1061,0.0499],[-51.1057,0.0503],[-51.1064,0.0516],[-51.1065,0.0527],[-51.1071,0.0536],[-51.1077,0.0537],[-51.1052,0.0555],[-51.1035,0.0535],[-51.1033,0.052],[-51.1027,0.0502],[-51.1022,0.0483],[-51.1017,0.0457],[-51.1017,0.0443],[-51.1026,0.0429],[-51.1034,0.0422],[-51.1044,0.0405],[-51.1062,0.0387],[-51.1068,0.0375],[-51.1068,0.037],[-51.1062,0.0362],[-51.1056,0.0358],[-51.1041,0.0351],[-51.1037,0.0334],[-51.1032,0.0328],[-51.1026,0.0317],[-51.1062,0.0303]]]}},{"type":"Feature","properties":{"c":"b17","b":17,"n":"Central","m":"1600303","cx":-51.0592,"cy":0.0366},"geometry":{"type":"Polygon","coordinates":[[[-51.0709,0.0298],[-51.0699,0.0441],[-51.0638,0.0436],[-51.0617,0.0435],[-51.0577,0.0432],[-51.0502,0.0427],[-51.0501,0.0435],[-51.0481,0.0433],[-51.048,0.0417],[-51.0474,0.041],[-51.0477,0.0408],[-51.0483,0.0324],[-51.0477,0.0318],[-51.0479,0.0308],[-51.0477,0.0301],[-51.048,0.0298],[-51.0493,0.0297],[-51.05,0.0295],[-51.0511,0.0284],[-51.0537,0.0287],[-51.0536,0.0291],[-51.0541,0.0286],[-51.0647,0.0294],[-51.0668,0.0295],[-51.0709,0.0298]]]}},{"type":"Feature","properties":{"c":"b18","b":18,"n":"Chefe Clodoaldo","m":"1600303","cx":-51.0864,"cy":-0.0345},"geometry":{"type":"Polygon","coordinates":[[[-51.0952,-0.0204],[-51.0941,-0.0192],[-51.093,-0.0195],[-51.0916,-0.0206],[-51.0907,-0.0204],[-51.0889,-0.0206],[-51.0878,-0.0209],[-51.087,-0.0214],[-51.0861,-0.0225],[-51.0854,-0.0241],[-51.0851,-0.0256],[-51.0842,-0.0269],[-51.0833,-0.0278],[-51.0818,-0.0284],[-51.08,-0.0284],[-51.0783,-0.0289],[-51.0759,-0.0299],[-51.0766,-0.0323],[-51.0771,-0.0325],[-51.0769,-0.033],[-51.0774,-0.034],[-51.078,-0.035],[-51.0781,-0.0355],[-51.0786,-0.0359],[-51.0788,-0.0366],[-51.0803,-0.0385],[-51.0808,-0.0393],[-51.0819,-0.0406],[-51.0824,-0.0416],[-51.0831,-0.0423],[-51.0832,-0.0427],[-51.0841,-0.0434],[-51.0844,-0.0441],[-51.085,-0.0445],[-51.0852,-0.0452],[-51.0862,-0.046],[-51.0864,-0.0465],[-51.0869,-0.047],[-51.0881,-0.0483],[-51.0888,-0.0487],[-51.0892,-0.0484],[-51.0894,-0.0488],[-51.0907,-0.0493],[-51.0909,-0.0496],[-51.0916,-0.0495],[-51.0919,-0.0499],[-51.0928,-0.0495],[-51.0932,-0.05],[-51.0939,-0.0498],[-51.0953,-0.0503],[-51.0954,-0.0502],[-51.0982,-0.0442],[-51.0992,-0.0417],[-51.0929,-0.0403],[-51.0932,-0.0396],[-51.0932,-0.0385],[-51.0936,-0.037],[-51.0957,-0.0336],[-51.0965,-0.0314],[-51.0979,-0.0265],[-51.0979,-0.0245],[-51.0973,-0.0227],[-51.0967,-0.0213],[-51.0952,-0.0204]]]}},{"type":"Feature","properties":{"c":"b19","b":19,"n":"Cidade Nova","m":"1600303","cx":-51.0459,"cy":0.0565},"geometry":{"type":"Polygon","coordinates":[[[-51.0504,0.0539],[-51.0499,0.0556],[-51.0502,0.0556],[-51.0504,0.0566],[-51.0498,0.0568],[-51.0497,0.0586],[-51.0498,0.0593],[-51.0515,0.0589],[-51.0489,0.0621],[-51.0483,0.0616],[-51.0471,0.06],[-51.0422,0.0572],[-51.0409,0.0569],[-51.0415,0.0563],[-51.0416,0.0557],[-51.0412,0.0553],[-51.0415,0.053],[-51.042,0.0515],[-51.0418,0.0509],[-51.0473,0.0512],[-51.0505,0.0514],[-51.0504,0.0539]]]}},{"type":"Feature","properties":{"c":"b20","b":20,"n":"Congós","m":"1600303","cx":-51.0998,"cy":0.0172},"geometry":{"type":"Polygon","coordinates":[[[-51.1034,0.0073],[-51.1042,0.009],[-51.1063,0.0111],[-51.1072,0.0136],[-51.1075,0.017],[-51.1087,0.0198],[-51.1099,0.0206],[-51.1097,0.0214],[-51.1099,0.0217],[-51.1105,0.0218],[-51.1093,0.0224],[-51.1097,0.0233],[-51.1108,0.023],[-51.1105,0.0238],[-51.1112,0.0239],[-51.1107,0.0244],[-51.1109,0.0247],[-51.1118,0.0248],[-51.1123,0.0245],[-51.1128,0.025],[-51.1132,0.0247],[-51.1129,0.0261],[-51.1078,0.0255],[-51.1067,0.0265],[-51.1074,0.0276],[-51.1057,0.0289],[-51.1062,0.0303],[-51.1026,0.0317],[-51.1022,0.0302],[-51.1017,0.0286],[-51.1007,0.0269],[-51.0994,0.0275],[-51.0981,0.0286],[-51.0964,0.0298],[-51.0951,0.0305],[-51.094,0.0308],[-51.0933,0.0307],[-51.0911,0.0296],[-51.0899,0.0293],[-51.0901,0.0254],[-51.0901,0.0251],[-51.0902,0.0234],[-51.0901,0.0232],[-51.0902,0.0212],[-51.0908,0.0209],[-51.091,0.0204],[-51.0919,0.0205],[-51.0921,0.0203],[-51.0919,0.0194],[-51.0923,0.0191],[-51.0918,0.0188],[-51.0923,0.0174],[-51.0883,0.0138],[-51.0857,0.0116],[-51.0849,0.0119],[-51.0846,0.0104],[-51.0886,0.0095],[-51.0877,0.0052],[-51.0877,0.0026],[-51.0898,0.0026],[-51.0915,0.0029],[-51.0931,0.0029],[-51.0954,0.0029],[-51.0988,0.0029],[-51.0992,0.0041],[-51.1003,0.005],[-51.1014,0.0051],[-51.1034,0.0051],[-51.1034,0.0073]]]}},{"type":"Feature","properties":{"c":"b21","b":21,"n":"Coração","m":"1600303","cx":-51.1799,"cy":0.0154},"geometry":{"type":"Polygon","coordinates":[[[-51.1677,0.0215],[-51.1686,0.0209],[-51.1694,0.02],[-51.1701,0.0184],[-51.1706,0.0167],[-51.1689,0.0164],[-51.1705,0.0139],[-51.1702,0.0137],[-51.1749,0.0064],[-51.1753,0.0067],[-51.1769,0.0041],[-51.1778,0.0025],[-51.1781,0.0015],[-51.1783,0.0],[-51.1819,0.0],[-51.2036,0.0],[-51.2023,0.0055],[-51.2026,0.0067],[-51.1996,0.0066],[-51.1977,0.0072],[-51.1959,0.0083],[-51.1949,0.0091],[-51.1907,0.0144],[-51.1886,0.0186],[-51.1842,0.0177],[-51.1841,0.0183],[-51.1833,0.0193],[-51.1831,0.0199],[-51.1834,0.0207],[-51.1833,0.0215],[-51.1828,0.0225],[-51.1825,0.0241],[-51.1825,0.0261],[-51.1822,0.0271],[-51.1822,0.0281],[-51.1819,0.0292],[-51.1812,0.0311],[-51.1798,0.0318],[-51.1788,0.0316],[-51.178,0.0312],[-51.1778,0.0317],[-51.1664,0.0223],[-51.1662,0.0221],[-51.1677,0.0215]]]}},{"type":"Feature","properties":{"c":"b22","b":22,"n":"Fazendinha","m":"1600303","cx":-51.1201,"cy":-0.0343},"geometry":{"type":"Polygon","coordinates":[[[-51.1389,-0.053],[-51.1382,-0.0531],[-51.1386,-0.0523],[-51.1382,-0.0516],[-51.1375,-0.0513],[-51.1377,-0.0503],[-51.1362,-0.0497],[-51.1368,-0.049],[-51.1365,-0.0485],[-51.1349,-0.0473],[-51.1367,-0.0458],[-51.1362,-0.0447],[-51.1368,-0.0435],[-51.1383,-0.042],[-51.141,-0.0389],[-51.1413,-0.0383],[-51.1418,-0.0381],[-51.1437,-0.038],[-51.1441,-0.0379],[-51.1448,-0.0372],[-51.1451,-0.0362],[-51.1451,-0.035],[-51.1448,-0.0335],[-51.1441,-0.0326],[-51.1421,-0.0313],[-51.1411,-0.03],[-51.1404,-0.0287],[-51.1394,-0.0276],[-51.1383,-0.0268],[-51.1378,-0.0266],[-51.1362,-0.0273],[-51.1347,-0.0273],[-51.1343,-0.0268],[-51.1351,-0.0245],[-51.135,-0.024],[-51.1342,-0.0228],[-51.1337,-0.0224],[-51.1324,-0.0221],[-51.131,-0.0213],[-51.1299,-0.0203],[-51.1291,-0.0198],[-51.1274,-0.019],[-51.1253,-0.0185],[-51.1241,-0.0188],[-51.1237,-0.0179],[-51.1243,-0.0168],[-51.1237,-0.0155],[-51.1233,-0.0151],[-51.1221,-0.0156],[-51.1188,-0.0178],[-51.1177,-0.0159],[-51.1159,-0.015],[-51.1146,-0.0139],[-51.1136,-0.0135],[-51.1127,-0.0145],[-51.1125,-0.0156],[-51.1122,-0.0158],[-51.1109,-0.0151],[-51.1096,-0.0148],[-51.108,-0.0129],[-51.1065,-0.0114],[-51.1059,-0.0115],[-51.1049,-0.0119],[-51.1041,-0.0126],[-51.1037,-0.0119],[-51.1029,-0.0125],[-51.1011,-0.0132],[-51.1001,-0.0133],[-51.0983,-0.0141],[-51.0979,-0.0153],[-51.098,-0.0158],[-51.0979,-0.0169],[-51.0985,-0.0181],[-51.0988,-0.0192],[-51.0986,-0.0204],[-51.0967,-0.0213],[-51.0973,-0.0227],[-51.0979,-0.0245],[-51.0979,-0.0265],[-51.0965,-0.0314],[-51.0957,-0.0336],[-51.0936,-0.037],[-51.0932,-0.0385],[-51.0932,-0.0396],[-51.0929,-0.0403],[-51.0992,-0.0417],[-51.106,-0.0432],[-51.1093,-0.044],[-51.1118,-0.0467],[-51.1103,-0.0476],[-51.1044,-0.0511],[-51.1037,-0.054],[-51.104,-0.0542],[-51.104,-0.0549],[-51.1048,-0.0549],[-51.1053,-0.0554],[-51.1066,-0.0558],[-51.1076,-0.0557],[-51.1082,-0.0559],[-51.1089,-0.0556],[-51.11,-0.0562],[-51.1117,-0.0558],[-51.1125,-0.0553],[-51.1136,-0.0552],[-51.1136,-0.0555],[-51.1166,-0.0552],[-51.1181,-0.0552],[-51.1188,-0.055],[-51.1202,-0.055],[-51.1213,-0.0553],[-51.1218,-0.0548],[-51.1231,-0.0551],[-51.1248,-0.0547],[-51.1252,-0.0551],[-51.1259,-0.0548],[-51.127,-0.0551],[-51.1276,-0.0549],[-51.1278,-0.0551],[-51.1288,-0.0554],[-51.1292,-0.0548],[-51.1301,-0.0553],[-51.1315,-0.0543],[-51.1324,-0.054],[-51.1326,-0.0536],[-51.1333,-0.0535],[-51.1337,-0.0532],[-51.1341,-0.0537],[-51.1345,-0.0532],[-51.1352,-0.0527],[-51.1358,-0.0527],[-51.136,-0.0533],[-51.1367,-0.0531],[-51.1371,-0.0535],[-51.1379,-0.053],[-51.138,-0.0538],[-51.1387,-0.0542],[-51.1389,-0.053]]]}},{"type":"Feature","properties":{"c":"b23","b":23,"n":"Goiabal","m":"1600303","cx":-51.1205,"cy":0.0154},"geometry":{"type":"Polygon","coordinates":[[[-51.1271,0.0017],[-51.1264,0.0056],[-51.1259,0.0067],[-51.125,0.0074],[-51.1213,0.0085],[-51.1212,0.0094],[-51.1223,0.01],[-51.123,0.01],[-51.1247,0.0092],[-51.1262,0.009],[-51.1273,0.0095],[-51.1285,0.0096],[-51.129,0.0105],[-51.1289,0.0111],[-51.1277,0.0127],[-51.1275,0.0137],[-51.1281,0.0141],[-51.1299,0.014],[-51.1312,0.0136],[-51.1319,0.013],[-51.1326,0.0131],[-51.133,0.0136],[-51.1333,0.0146],[-51.134,0.0161],[-51.1348,0.0184],[-51.1352,0.0199],[-51.1359,0.0209],[-51.1367,0.0218],[-51.1369,0.0223],[-51.1348,0.0241],[-51.1325,0.0254],[-51.1308,0.0266],[-51.1301,0.0275],[-51.1296,0.0285],[-51.1296,0.0294],[-51.1281,0.0294],[-51.1251,0.0292],[-51.1269,0.025],[-51.127,0.0238],[-51.1254,0.0205],[-51.1222,0.0164],[-51.1155,0.0194],[-51.1148,0.0182],[-51.1137,0.018],[-51.1128,0.018],[-51.1118,0.0183],[-51.1087,0.0198],[-51.1075,0.017],[-51.1072,0.0136],[-51.1063,0.0111],[-51.1042,0.009],[-51.1034,0.0073],[-51.1034,0.0051],[-51.1033,0.0036],[-51.1035,0.0023],[-51.104,0.0012],[-51.1052,0.0],[-51.127,0.0],[-51.1271,0.0017]]]}},{"type":"Feature","properties":{"c":"b24","b":24,"n":"Igarapé de Fortaleza","m":"1600303","cx":-51.138,"cy":-0.05},"geometry":{"type":"Polygon","coordinates":[[[-51.1349,-0.0473],[-51.1365,-0.0485],[-51.1368,-0.049],[-51.1362,-0.0497],[-51.1377,-0.0503],[-51.1375,-0.0513],[-51.1382,-0.0516],[-51.1386,-0.0523],[-51.1382,-0.0531],[-51.1389,-0.053],[-51.1387,-0.0542],[-51.1402,-0.0534],[-51.1406,-0.0529],[-51.1401,-0.0517],[-51.1387,-0.0494],[-51.1382,-0.0481],[-51.1367,-0.0458],[-51.1349,-0.0473]]]}},{"type":"Feature","properties":{"c":"b25","b":25,"n":"Ilha Mirim","m":"1600303","cx":-51.1004,"cy":0.0624},"geometry":{"type":"Polygon","coordinates":[[[-51.1058,0.0559],[-51.106,0.0565],[-51.1057,0.057],[-51.1058,0.0575],[-51.1063,0.0579],[-51.1069,0.059],[-51.1068,0.0598],[-51.1049,0.0622],[-51.1031,0.0639],[-51.1021,0.0656],[-51.1018,0.0677],[-51.1012,0.0682],[-51.0993,0.0691],[-51.0985,0.0693],[-51.0974,0.0693],[-51.0969,0.069],[-51.0963,0.0664],[-51.0967,0.065],[-51.0967,0.0637],[-51.0962,0.0626],[-51.0954,0.0614],[-51.0976,0.0602],[-51.1001,0.0587],[-51.1052,0.0555],[-51.1058,0.0559]]]}},{"type":"Feature","properties":{"c":"b26","b":26,"n":"Infraero I","m":"1600303","cx":-51.0644,"cy":0.0715},"geometry":{"type":"Polygon","coordinates":[[[-51.0675,0.0775],[-51.066,0.0776],[-51.0599,0.0778],[-51.0597,0.0721],[-51.0582,0.0722],[-51.0584,0.0738],[-51.0582,0.0738],[-51.0579,0.0719],[-51.0598,0.0718],[-51.0598,0.0712],[-51.061,0.0711],[-51.0591,0.0682],[-51.0594,0.0675],[-51.0602,0.0687],[-51.0632,0.0667],[-51.0666,0.0646],[-51.0691,0.0686],[-51.0692,0.0693],[-51.069,0.0732],[-51.0692,0.0748],[-51.0705,0.0749],[-51.0693,0.0779],[-51.0675,0.0775]]]}},{"type":"Feature","properties":{"c":"b27","b":27,"n":"Infraero II","m":"1600303","cx":-51.0857,"cy":0.0693},"geometry":{"type":"Polygon","coordinates":[[[-51.0713,0.0788],[-51.0699,0.0781],[-51.0879,0.0664],[-51.0954,0.0614],[-51.0962,0.0626],[-51.0967,0.0637],[-51.0835,0.0722],[-51.0762,0.077],[-51.0764,0.0773],[-51.0752,0.0781],[-51.0746,0.0791],[-51.0741,0.0788],[-51.0728,0.0797],[-51.0713,0.0788]]]}},{"type":"Feature","properties":{"c":"b28","b":28,"n":"Ipê","m":"1600303","cx":-51.061,"cy":0.1028},"geometry":{"type":"Polygon","coordinates":[[[-51.0616,0.0992],[-51.0635,0.0976],[-51.0645,0.0986],[-51.0633,0.0997],[-51.0639,0.1004],[-51.0651,0.0993],[-51.0677,0.1021],[-51.0659,0.1038],[-51.0674,0.1035],[-51.0671,0.1095],[-51.0659,0.1089],[-51.0637,0.1078],[-51.06,0.1065],[-51.059,0.1062],[-51.0548,0.1054],[-51.055,0.1019],[-51.0555,0.1008],[-51.0599,0.0974],[-51.0616,0.0992]]]}},{"type":"Feature","properties":{"c":"b29","b":29,"n":"Jardim América","m":"1600303","cx":-51.1128,"cy":0.0477},"geometry":{"type":"Polygon","coordinates":[[[-51.1163,0.051],[-51.1156,0.0543],[-51.1124,0.0532],[-51.1102,0.0525],[-51.1107,0.0521],[-51.1097,0.0518],[-51.1094,0.0529],[-51.1077,0.0537],[-51.1071,0.0536],[-51.1065,0.0527],[-51.1064,0.0516],[-51.1057,0.0503],[-51.1061,0.0499],[-51.1053,0.0488],[-51.1053,0.048],[-51.1056,0.0471],[-51.1068,0.0464],[-51.1073,0.0465],[-51.1081,0.0478],[-51.1095,0.0485],[-51.1101,0.0485],[-51.1091,0.048],[-51.1085,0.0475],[-51.108,0.0464],[-51.1078,0.0448],[-51.1074,0.0446],[-51.108,0.044],[-51.1078,0.0436],[-51.107,0.0443],[-51.1066,0.0441],[-51.106,0.0434],[-51.1059,0.0427],[-51.1071,0.0413],[-51.108,0.0419],[-51.1084,0.0424],[-51.1088,0.0415],[-51.1095,0.0411],[-51.1108,0.0414],[-51.1112,0.0424],[-51.1115,0.0422],[-51.1122,0.0425],[-51.1127,0.0424],[-51.1137,0.0435],[-51.114,0.0437],[-51.1148,0.0436],[-51.1151,0.0443],[-51.1158,0.0436],[-51.1159,0.0455],[-51.1176,0.0455],[-51.1175,0.0467],[-51.1171,0.0467],[-51.1162,0.0509],[-51.1163,0.051]]]}},{"type":"Feature","properties":{"c":"b30","b":30,"n":"Jardim Equatorial","m":"1600303","cx":-51.0681,"cy":0.0084},"geometry":{"type":"Polygon","coordinates":[[[-51.0707,0.0085],[-51.07,0.0097],[-51.0687,0.0112],[-51.0669,0.0109],[-51.0665,0.0101],[-51.0653,0.0082],[-51.0688,0.0058],[-51.0698,0.0053],[-51.0699,0.0071],[-51.0708,0.0072],[-51.0707,0.0085]]]}},{"type":"Feature","properties":{"c":"b31","b":31,"n":"Jardim Felicidade I","m":"1600303","cx":-51.0608,"cy":0.0842},"geometry":{"type":"Polygon","coordinates":[[[-51.0661,0.087],[-51.0661,0.0914],[-51.0625,0.0915],[-51.0604,0.0916],[-51.0605,0.0923],[-51.0552,0.0925],[-51.0552,0.0917],[-51.0563,0.0917],[-51.0563,0.0903],[-51.0557,0.0903],[-51.0552,0.0908],[-51.055,0.0873],[-51.0553,0.0855],[-51.0557,0.0829],[-51.0557,0.0822],[-51.0552,0.0789],[-51.0566,0.0775],[-51.0578,0.0779],[-51.0599,0.0778],[-51.066,0.0776],[-51.0661,0.087]]]}},{"type":"Feature","properties":{"c":"b32","b":32,"n":"Jardim Felicidade II","m":"1600303","cx":-51.0588,"cy":0.0957},"geometry":{"type":"Polygon","coordinates":[[[-51.0605,0.0923],[-51.0604,0.0916],[-51.0625,0.0915],[-51.0661,0.0914],[-51.0661,0.0922],[-51.0655,0.0932],[-51.0646,0.0939],[-51.0599,0.0974],[-51.0555,0.1008],[-51.0552,0.0925],[-51.0605,0.0923]]]}},{"type":"Feature","properties":{"c":"b33","b":33,"n":"Jardim Marco Zero","m":"1600303","cx":-51.0776,"cy":-0.0084},"geometry":{"type":"Polygon","coordinates":[[[-51.0877,0.0052],[-51.0886,0.0095],[-51.0846,0.0104],[-51.0833,0.0112],[-51.0811,0.0137],[-51.081,0.0135],[-51.0812,0.0133],[-51.0802,0.0125],[-51.0804,0.0122],[-51.0801,0.0119],[-51.0809,0.011],[-51.0797,0.0101],[-51.0795,0.0103],[-51.0786,0.0096],[-51.0799,0.0081],[-51.08,0.0075],[-51.0789,0.0074],[-51.076,0.0074],[-51.076,0.0069],[-51.075,0.0069],[-51.075,0.0073],[-51.074,0.007],[-51.072,0.0071],[-51.0708,0.0072],[-51.0699,0.0071],[-51.0698,0.0053],[-51.0719,0.0051],[-51.0719,0.0024],[-51.0721,0.0017],[-51.0725,0.0013],[-51.0732,0.0013],[-51.0732,0.0007],[-51.0714,0.0006],[-51.0715,-0.0007],[-51.0717,-0.0015],[-51.0734,-0.0031],[-51.0735,-0.0057],[-51.0733,-0.0076],[-51.0728,-0.008],[-51.0722,-0.0089],[-51.0719,-0.0102],[-51.0719,-0.0107],[-51.0693,-0.0142],[-51.0699,-0.015],[-51.0707,-0.0149],[-51.0708,-0.0153],[-51.0703,-0.0159],[-51.0709,-0.0172],[-51.0713,-0.0191],[-51.0717,-0.0193],[-51.0719,-0.0202],[-51.0723,-0.0214],[-51.0726,-0.0216],[-51.073,-0.0232],[-51.0732,-0.0236],[-51.0734,-0.0249],[-51.0742,-0.0251],[-51.0747,-0.0249],[-51.0748,-0.0254],[-51.0741,-0.0259],[-51.0741,-0.0263],[-51.0745,-0.0268],[-51.0748,-0.0276],[-51.0756,-0.0281],[-51.0754,-0.0284],[-51.0759,-0.0299],[-51.0783,-0.0289],[-51.0782,-0.0276],[-51.0788,-0.0259],[-51.0798,-0.0246],[-51.0806,-0.0231],[-51.0817,-0.0174],[-51.083,-0.0106],[-51.083,-0.0098],[-51.0818,-0.0037],[-51.0818,0.0024],[-51.0847,0.0026],[-51.0877,0.0026],[-51.0877,0.0052]]]}},{"type":"Feature","properties":{"c":"b34","b":34,"n":"Jardim das Acácias","m":"1600303","cx":-51.0991,"cy":0.1015},"geometry":{"type":"Polygon","coordinates":[[[-51.1142,0.0942],[-51.1136,0.0989],[-51.1113,0.0998],[-51.1074,0.1001],[-51.1056,0.1001],[-51.0998,0.108],[-51.0967,0.112],[-51.0943,0.1113],[-51.0945,0.1108],[-51.0949,0.108],[-51.0915,0.1047],[-51.0906,0.1039],[-51.092,0.1028],[-51.0959,0.0993],[-51.0951,0.0989],[-51.0948,0.0972],[-51.0971,0.09],[-51.0976,0.0886],[-51.0992,0.0891],[-51.1026,0.0902],[-51.1116,0.0933],[-51.1142,0.0942]]]}},{"type":"Feature","properties":{"c":"b35","b":35,"n":"Jesus de Nazaré","m":"1600303","cx":-51.0635,"cy":0.0485},"geometry":{"type":"Polygon","coordinates":[[[-51.0617,0.0435],[-51.0638,0.0436],[-51.0699,0.0441],[-51.0699,0.0445],[-51.0697,0.0477],[-51.0662,0.0474],[-51.0654,0.0494],[-51.0642,0.0513],[-51.063,0.051],[-51.063,0.0516],[-51.0622,0.0516],[-51.0622,0.0522],[-51.0611,0.0521],[-51.0617,0.0435]]]}},{"type":"Feature","properties":{"c":"b36","b":36,"n":"KM 9","m":"1600303","cx":-51.1196,"cy":0.0833},"geometry":{"type":"Polygon","coordinates":[[[-51.1359,0.0735],[-51.1346,0.0813],[-51.1338,0.0864],[-51.1334,0.0886],[-51.1317,0.0994],[-51.1317,0.1002],[-51.1309,0.1124],[-51.1308,0.1146],[-51.1289,0.1145],[-51.1281,0.1143],[-51.1272,0.1136],[-51.1268,0.1129],[-51.1266,0.111],[-51.1261,0.105],[-51.126,0.1037],[-51.1257,0.103],[-51.1248,0.102],[-51.118,0.0969],[-51.1193,0.0944],[-51.1208,0.0914],[-51.1183,0.0901],[-51.1201,0.0866],[-51.1166,0.0848],[-51.1159,0.0849],[-51.1124,0.0916],[-51.1116,0.0933],[-51.1026,0.0902],[-51.104,0.0862],[-51.1053,0.0864],[-51.1064,0.0839],[-51.1035,0.0827],[-51.1023,0.0821],[-51.1008,0.0811],[-51.0997,0.0808],[-51.0988,0.0803],[-51.0973,0.0797],[-51.097,0.079],[-51.0969,0.0781],[-51.0961,0.0775],[-51.0955,0.0767],[-51.0947,0.0758],[-51.0952,0.0745],[-51.0964,0.0726],[-51.0975,0.0702],[-51.0969,0.069],[-51.0974,0.0693],[-51.0985,0.0693],[-51.0993,0.0691],[-51.1012,0.0682],[-51.1018,0.0677],[-51.1021,0.0656],[-51.1031,0.0639],[-51.1049,0.0622],[-51.1068,0.0598],[-51.1069,0.059],[-51.1063,0.0579],[-51.1058,0.0575],[-51.1057,0.057],[-51.106,0.0565],[-51.1058,0.0559],[-51.1052,0.0555],[-51.1077,0.0537],[-51.1094,0.0529],[-51.1097,0.0518],[-51.1107,0.0521],[-51.1102,0.0525],[-51.1124,0.0532],[-51.1156,0.0543],[-51.1163,0.051],[-51.1162,0.0509],[-51.1362,0.0519],[-51.1368,0.0545],[-51.1368,0.0558],[-51.1364,0.0674],[-51.1369,0.0674],[-51.1359,0.0735]]]}},{"type":"Feature","properties":{"c":"b37","b":37,"n":"Lago da Vaca","m":"1600303","cx":-51.0419,"cy":0.0853},"geometry":{"type":"Polygon","coordinates":[[[-51.044,0.0823],[-51.0444,0.0826],[-51.0445,0.0833],[-51.0452,0.0837],[-51.0459,0.0836],[-51.0459,0.0862],[-51.0457,0.0865],[-51.0458,0.0893],[-51.0442,0.0895],[-51.0425,0.0895],[-51.0424,0.0879],[-51.0404,0.088],[-51.0404,0.0873],[-51.0367,0.0873],[-51.0371,0.0862],[-51.0387,0.0844],[-51.0388,0.0836],[-51.0399,0.0827],[-51.0403,0.0817],[-51.0412,0.0817],[-51.0416,0.0818],[-51.0419,0.0828],[-51.0422,0.0829],[-51.0429,0.0824],[-51.0434,0.0824],[-51.044,0.0823]]]}},{"type":"Feature","properties":{"c":"b38","b":38,"n":"Lagoa Azul","m":"1600303","cx":-51.1712,"cy":0.0118},"geometry":{"type":"Polygon","coordinates":[[[-51.1609,0.0242],[-51.1604,0.0244],[-51.159,0.0242],[-51.1585,0.024],[-51.1658,0.0192],[-51.167,0.0179],[-51.1722,0.0098],[-51.1768,0.0026],[-51.1772,0.0014],[-51.1774,0.0],[-51.1775,0.0],[-51.1783,0.0],[-51.1781,0.0015],[-51.1778,0.0025],[-51.1769,0.0041],[-51.1753,0.0067],[-51.1749,0.0064],[-51.1702,0.0137],[-51.1705,0.0139],[-51.1689,0.0164],[-51.1706,0.0167],[-51.1701,0.0184],[-51.1694,0.02],[-51.1686,0.0209],[-51.1677,0.0215],[-51.1662,0.0221],[-51.1609,0.0242]]]}},{"type":"Feature","properties":{"c":"b39","b":39,"n":"Laguinho","m":"1600303","cx":-51.0557,"cy":0.0461},"geometry":{"type":"Polygon","coordinates":[[[-51.0611,0.0521],[-51.0508,0.0514],[-51.051,0.0489],[-51.0498,0.0488],[-51.0501,0.0435],[-51.0502,0.0427],[-51.0577,0.0432],[-51.0617,0.0435],[-51.0611,0.0521]]]}},{"type":"Feature","properties":{"c":"b40","b":40,"n":"Macapaba","m":"1600303","cx":-51.0963,"cy":0.0825},"geometry":{"type":"Polygon","coordinates":[[[-51.0992,0.0891],[-51.0976,0.0886],[-51.0972,0.0885],[-51.0927,0.088],[-51.093,0.0841],[-51.0932,0.0769],[-51.0944,0.0762],[-51.0947,0.0758],[-51.0955,0.0767],[-51.0961,0.0775],[-51.0969,0.0781],[-51.097,0.079],[-51.0973,0.0797],[-51.0988,0.0803],[-51.0997,0.0808],[-51.0992,0.0891]]]}},{"type":"Feature","properties":{"c":"b41","b":41,"n":"Marabaixo I","m":"1600303","cx":-51.1253,"cy":0.038},"geometry":{"type":"Polygon","coordinates":[[[-51.1285,0.0356],[-51.1281,0.0394],[-51.1279,0.0402],[-51.1272,0.0406],[-51.127,0.0419],[-51.1262,0.0418],[-51.1253,0.0413],[-51.1239,0.0411],[-51.1232,0.0406],[-51.1222,0.0405],[-51.1222,0.0397],[-51.1224,0.037],[-51.121,0.0368],[-51.121,0.0374],[-51.1196,0.0374],[-51.1188,0.0386],[-51.116,0.0369],[-51.1178,0.0334],[-51.1191,0.0341],[-51.1201,0.0345],[-51.1226,0.0349],[-51.1285,0.0356]]]}},{"type":"Feature","properties":{"c":"b42","b":42,"n":"Marabaixo II","m":"1600303","cx":-51.1311,"cy":0.0412},"geometry":{"type":"Polygon","coordinates":[[[-51.134,0.0406],[-51.1338,0.0413],[-51.1325,0.0465],[-51.1312,0.0464],[-51.1315,0.0429],[-51.1304,0.0428],[-51.1299,0.0423],[-51.1292,0.0419],[-51.1282,0.0419],[-51.1283,0.041],[-51.1286,0.0408],[-51.1286,0.0402],[-51.1279,0.0402],[-51.1281,0.0394],[-51.1285,0.0356],[-51.135,0.0364],[-51.134,0.0406]]]}},{"type":"Feature","properties":{"c":"b43","b":43,"n":"Marabaixo III","m":"1600303","cx":-51.1244,"cy":0.046},"geometry":{"type":"Polygon","coordinates":[[[-51.1286,0.0402],[-51.1286,0.0408],[-51.1283,0.041],[-51.1282,0.0419],[-51.1292,0.0419],[-51.1299,0.0423],[-51.1304,0.0428],[-51.1315,0.0429],[-51.1312,0.0464],[-51.1325,0.0465],[-51.1327,0.0466],[-51.1351,0.0467],[-51.1362,0.0519],[-51.1162,0.0509],[-51.1171,0.0467],[-51.1175,0.0467],[-51.1176,0.0455],[-51.1159,0.0455],[-51.1158,0.0436],[-51.1158,0.0429],[-51.117,0.0431],[-51.1176,0.0427],[-51.1181,0.042],[-51.1197,0.0403],[-51.1204,0.0396],[-51.1213,0.0395],[-51.1222,0.0397],[-51.1222,0.0405],[-51.1232,0.0406],[-51.1239,0.0411],[-51.1253,0.0413],[-51.1262,0.0418],[-51.127,0.0419],[-51.1272,0.0406],[-51.1279,0.0402],[-51.1286,0.0402]]]}},{"type":"Feature","properties":{"c":"b44","b":44,"n":"Morada das Palmeiras","m":"1600303","cx":-51.0878,"cy":0.0832},"geometry":{"type":"Polygon","coordinates":[[[-51.0866,0.0785],[-51.087,0.0781],[-51.0892,0.0794],[-51.0898,0.0788],[-51.0922,0.0774],[-51.0932,0.0769],[-51.093,0.0841],[-51.0927,0.088],[-51.0894,0.0877],[-51.0885,0.0877],[-51.0861,0.0874],[-51.0847,0.087],[-51.084,0.0867],[-51.0815,0.0851],[-51.0832,0.0823],[-51.0858,0.0781],[-51.0866,0.0785]]]}},{"type":"Feature","properties":{"c":"b45","b":45,"n":"Muca","m":"1600303","cx":-51.0744,"cy":0.0116},"geometry":{"type":"Polygon","coordinates":[[[-51.0806,0.0136],[-51.08,0.013],[-51.08,0.0134],[-51.079,0.0142],[-51.0787,0.0139],[-51.0776,0.0153],[-51.0774,0.016],[-51.0767,0.0157],[-51.074,0.0154],[-51.0677,0.015],[-51.0679,0.0127],[-51.0673,0.0127],[-51.0687,0.0112],[-51.07,0.0097],[-51.0707,0.0085],[-51.0708,0.0072],[-51.072,0.0071],[-51.074,0.007],[-51.075,0.0073],[-51.075,0.0069],[-51.076,0.0069],[-51.076,0.0074],[-51.0789,0.0074],[-51.08,0.0075],[-51.0799,0.0081],[-51.0786,0.0096],[-51.0795,0.0103],[-51.0797,0.0101],[-51.0809,0.011],[-51.0801,0.0119],[-51.0804,0.0122],[-51.0802,0.0125],[-51.0812,0.0133],[-51.081,0.0135],[-51.0806,0.0136]]]}},{"type":"Feature","properties":{"c":"b46","b":46,"n":"Murici","m":"1600303","cx":-51.1082,"cy":-0.0471},"geometry":{"type":"Polygon","coordinates":[[[-51.1054,-0.0462],[-51.1056,-0.0463],[-51.1044,-0.0511],[-51.1103,-0.0476],[-51.1118,-0.0467],[-51.1093,-0.044],[-51.106,-0.0432],[-51.1054,-0.0462]]]}},{"type":"Feature","properties":{"c":"b47","b":47,"n":"Nova Esperança","m":"1600303","cx":-51.0815,"cy":0.0315},"geometry":{"type":"Polygon","coordinates":[[[-51.0814,0.0274],[-51.082,0.0265],[-51.0829,0.026],[-51.0836,0.0259],[-51.0829,0.0364],[-51.0786,0.0362],[-51.0788,0.0344],[-51.0796,0.0336],[-51.0797,0.0326],[-51.0797,0.0304],[-51.0795,0.0303],[-51.0792,0.0293],[-51.0791,0.0273],[-51.0814,0.0274]]]}},{"type":"Feature","properties":{"c":"b48","b":48,"n":"Novo Buritizal","m":"1600303","cx":-51.0852,"cy":0.019},"geometry":{"type":"Polygon","coordinates":[[[-51.0776,0.0153],[-51.0787,0.0139],[-51.079,0.0142],[-51.08,0.0134],[-51.08,0.013],[-51.0806,0.0136],[-51.081,0.0135],[-51.0811,0.0137],[-51.0833,0.0112],[-51.0846,0.0104],[-51.0849,0.0119],[-51.0857,0.0116],[-51.0883,0.0138],[-51.0923,0.0174],[-51.0918,0.0188],[-51.0923,0.0191],[-51.0919,0.0194],[-51.0921,0.0203],[-51.0919,0.0205],[-51.091,0.0204],[-51.0908,0.0209],[-51.0902,0.0212],[-51.0901,0.0232],[-51.0902,0.0234],[-51.0901,0.0251],[-51.0847,0.0248],[-51.0837,0.0247],[-51.0836,0.0259],[-51.0829,0.026],[-51.082,0.0265],[-51.0814,0.0274],[-51.0791,0.0273],[-51.0791,0.0265],[-51.0765,0.0263],[-51.0776,0.0233],[-51.078,0.021],[-51.0778,0.021],[-51.0778,0.0197],[-51.0784,0.0189],[-51.0794,0.018],[-51.0773,0.0179],[-51.0774,0.016],[-51.0776,0.0153]]]}},{"type":"Feature","properties":{"c":"b49","b":49,"n":"Novo Horizonte","m":"1600303","cx":-51.0463,"cy":0.0949},"geometry":{"type":"Polygon","coordinates":[[[-51.055,0.0873],[-51.0552,0.0908],[-51.0557,0.0903],[-51.0563,0.0903],[-51.0563,0.0917],[-51.0552,0.0917],[-51.0552,0.0925],[-51.0555,0.1008],[-51.055,0.1019],[-51.0548,0.1054],[-51.0492,0.1056],[-51.0501,0.1052],[-51.0506,0.1037],[-51.0504,0.1033],[-51.0486,0.1034],[-51.0366,0.1019],[-51.0367,0.1011],[-51.0361,0.1007],[-51.0355,0.0996],[-51.0354,0.0991],[-51.0355,0.0978],[-51.0351,0.0967],[-51.0354,0.0956],[-51.036,0.0957],[-51.037,0.0952],[-51.0377,0.0945],[-51.0372,0.0922],[-51.0369,0.0898],[-51.0366,0.0885],[-51.0367,0.0873],[-51.0404,0.0873],[-51.0404,0.088],[-51.0424,0.0879],[-51.0425,0.0895],[-51.0442,0.0895],[-51.0458,0.0893],[-51.0457,0.0865],[-51.0459,0.0862],[-51.0459,0.0836],[-51.0469,0.0841],[-51.0485,0.0842],[-51.0496,0.0846],[-51.0506,0.0844],[-51.0521,0.0847],[-51.0531,0.0851],[-51.0544,0.0848],[-51.0553,0.0855],[-51.055,0.0873]]]}},{"type":"Feature","properties":{"c":"b50","b":50,"n":"Pacoval","m":"1600303","cx":-51.0555,"cy":0.0571},"geometry":{"type":"Polygon","coordinates":[[[-51.0508,0.0514],[-51.0611,0.0521],[-51.0622,0.0522],[-51.0622,0.0516],[-51.063,0.0516],[-51.063,0.051],[-51.0642,0.0513],[-51.0632,0.0528],[-51.0619,0.0544],[-51.0617,0.0558],[-51.0612,0.0563],[-51.0611,0.0574],[-51.0608,0.0578],[-51.0611,0.0587],[-51.0608,0.0599],[-51.0601,0.0612],[-51.0597,0.0612],[-51.0593,0.0622],[-51.0589,0.0628],[-51.0576,0.0638],[-51.0551,0.0638],[-51.0525,0.0638],[-51.0516,0.0636],[-51.0503,0.063],[-51.0489,0.0621],[-51.0515,0.0589],[-51.0498,0.0593],[-51.0497,0.0586],[-51.0498,0.0568],[-51.0504,0.0566],[-51.0502,0.0556],[-51.0499,0.0556],[-51.0504,0.0539],[-51.0505,0.0514],[-51.0508,0.0514]]]}},{"type":"Feature","properties":{"c":"b51","b":51,"n":"Pantanal","m":"1600303","cx":-51.0396,"cy":0.069},"geometry":{"type":"Polygon","coordinates":[[[-51.0503,0.063],[-51.0516,0.0636],[-51.0507,0.0677],[-51.0506,0.0676],[-51.0488,0.0705],[-51.0487,0.071],[-51.0467,0.0741],[-51.0455,0.0731],[-51.0443,0.0723],[-51.0462,0.0688],[-51.0454,0.068],[-51.0448,0.0686],[-51.0429,0.07],[-51.0419,0.0716],[-51.0414,0.0733],[-51.0407,0.0741],[-51.0396,0.0764],[-51.0394,0.0772],[-51.0384,0.0768],[-51.0369,0.076],[-51.0362,0.0761],[-51.035,0.0774],[-51.033,0.0783],[-51.031,0.0795],[-51.029,0.0804],[-51.0273,0.0811],[-51.0265,0.0812],[-51.0253,0.081],[-51.0236,0.0803],[-51.0258,0.0776],[-51.0275,0.076],[-51.0299,0.0746],[-51.0308,0.0739],[-51.0318,0.0729],[-51.0324,0.0716],[-51.0335,0.0707],[-51.0343,0.0695],[-51.0348,0.0692],[-51.0354,0.0683],[-51.0361,0.0664],[-51.0372,0.0655],[-51.0378,0.0641],[-51.0378,0.0635],[-51.0384,0.0627],[-51.0391,0.0622],[-51.0397,0.0615],[-51.0401,0.0602],[-51.0396,0.059],[-51.0402,0.0582],[-51.04,0.0572],[-51.0409,0.0569],[-51.0422,0.0572],[-51.0471,0.06],[-51.0483,0.0616],[-51.0489,0.0621],[-51.0503,0.063]]]}},{"type":"Feature","properties":{"c":"b52","b":52,"n":"Parque Aeroportuário","m":"1600303","cx":-51.0814,"cy":0.0576},"geometry":{"type":"Polygon","coordinates":[[[-51.1017,0.0457],[-51.1022,0.0483],[-51.1027,0.0502],[-51.1033,0.052],[-51.1035,0.0535],[-51.1052,0.0555],[-51.1001,0.0587],[-51.0976,0.0602],[-51.0954,0.0614],[-51.0879,0.0664],[-51.0699,0.0781],[-51.0693,0.0779],[-51.0705,0.0749],[-51.0692,0.0748],[-51.069,0.0732],[-51.0692,0.0693],[-51.0691,0.0686],[-51.0666,0.0646],[-51.0632,0.0667],[-51.0602,0.0687],[-51.0594,0.0675],[-51.0601,0.0658],[-51.0601,0.0643],[-51.0576,0.064],[-51.0576,0.0638],[-51.0589,0.0628],[-51.0593,0.0622],[-51.0597,0.0612],[-51.0601,0.0612],[-51.0608,0.0599],[-51.0611,0.0587],[-51.0608,0.0578],[-51.0611,0.0574],[-51.0612,0.0563],[-51.0617,0.0558],[-51.0619,0.0544],[-51.0632,0.0528],[-51.0642,0.0513],[-51.0654,0.0494],[-51.0662,0.0474],[-51.0697,0.0477],[-51.0699,0.0445],[-51.0721,0.0447],[-51.072,0.0454],[-51.075,0.0455],[-51.075,0.0448],[-51.0772,0.0449],[-51.0772,0.0441],[-51.0815,0.0414],[-51.0815,0.0411],[-51.0822,0.0408],[-51.0823,0.0401],[-51.0826,0.0401],[-51.0829,0.0402],[-51.0848,0.0391],[-51.0876,0.0374],[-51.0883,0.0384],[-51.0879,0.0386],[-51.0888,0.04],[-51.0894,0.0407],[-51.0901,0.0403],[-51.0942,0.0467],[-51.0956,0.0491],[-51.0999,0.0465],[-51.0996,0.046],[-51.1017,0.0443],[-51.1017,0.0457]]]}},{"type":"Feature","properties":{"c":"b53","b":53,"n":"Parque dos Jardins","m":"1600303","cx":-51.1507,"cy":0.0182},"geometry":{"type":"Polygon","coordinates":[[[-51.1388,0.0365],[-51.1379,0.0367],[-51.135,0.0364],[-51.1285,0.0356],[-51.1226,0.0349],[-51.1251,0.0292],[-51.1281,0.0294],[-51.1296,0.0294],[-51.1296,0.0285],[-51.1301,0.0275],[-51.1308,0.0266],[-51.1325,0.0254],[-51.1348,0.0241],[-51.1369,0.0223],[-51.1367,0.0218],[-51.1359,0.0209],[-51.1352,0.0199],[-51.1348,0.0184],[-51.134,0.0161],[-51.1333,0.0146],[-51.133,0.0136],[-51.1326,0.0131],[-51.1319,0.013],[-51.1312,0.0136],[-51.1299,0.014],[-51.1281,0.0141],[-51.1275,0.0137],[-51.1277,0.0127],[-51.1289,0.0111],[-51.129,0.0105],[-51.1285,0.0096],[-51.1273,0.0095],[-51.1262,0.009],[-51.1247,0.0092],[-51.123,0.01],[-51.1223,0.01],[-51.1212,0.0094],[-51.1213,0.0085],[-51.125,0.0074],[-51.1259,0.0067],[-51.1264,0.0056],[-51.1271,0.0017],[-51.127,0.0],[-51.1613,0.0],[-51.1774,0.0],[-51.1772,0.0014],[-51.1768,0.0026],[-51.1722,0.0098],[-51.167,0.0179],[-51.1658,0.0192],[-51.1585,0.024],[-51.1574,0.0244],[-51.1559,0.0258],[-51.1547,0.0264],[-51.1489,0.0278],[-51.1472,0.0284],[-51.1464,0.0289],[-51.1455,0.0298],[-51.1437,0.0317],[-51.1414,0.0343],[-51.1397,0.0361],[-51.1388,0.0365]]]}},{"type":"Feature","properties":{"c":"b54","b":54,"n":"Pedrinhas","m":"1600303","cx":-51.0647,"cy":0.0067},"geometry":{"type":"Polygon","coordinates":[[[-51.0732,0.0007],[-51.0732,0.0013],[-51.0725,0.0013],[-51.0721,0.0017],[-51.0719,0.0024],[-51.0719,0.0051],[-51.0698,0.0053],[-51.0688,0.0058],[-51.0653,0.0082],[-51.0627,0.01],[-51.0622,0.0108],[-51.0618,0.0115],[-51.0619,0.0107],[-51.0616,0.0101],[-51.0609,0.0098],[-51.0617,0.0073],[-51.0619,0.006],[-51.0622,0.0034],[-51.0624,0.0032],[-51.0641,0.0027],[-51.0643,0.0022],[-51.0643,0.0005],[-51.0714,0.0006],[-51.0732,0.0007]]]}},{"type":"Feature","properties":{"c":"b55","b":55,"n":"Perpétuo Socorro","m":"1600303","cx":-51.047,"cy":0.046},"geometry":{"type":"Polygon","coordinates":[[[-51.048,0.0417],[-51.0481,0.0433],[-51.0501,0.0435],[-51.0498,0.0488],[-51.051,0.0489],[-51.0508,0.0514],[-51.0505,0.0514],[-51.0473,0.0512],[-51.0418,0.0509],[-51.0428,0.0485],[-51.0457,0.0425],[-51.0456,0.0419],[-51.0462,0.0409],[-51.0462,0.0405],[-51.047,0.039],[-51.0475,0.0398],[-51.047,0.0406],[-51.0474,0.041],[-51.048,0.0417]]]}},{"type":"Feature","properties":{"c":"b56","b":56,"n":"Renascer","m":"1600303","cx":-51.048,"cy":0.0753},"geometry":{"type":"Polygon","coordinates":[[[-51.0396,0.0764],[-51.0407,0.0741],[-51.0414,0.0733],[-51.0419,0.0716],[-51.0429,0.07],[-51.0448,0.0686],[-51.0454,0.068],[-51.0462,0.0688],[-51.0443,0.0723],[-51.0455,0.0731],[-51.0467,0.0741],[-51.0487,0.071],[-51.0488,0.0705],[-51.0506,0.0676],[-51.0507,0.0677],[-51.0516,0.0636],[-51.0525,0.0638],[-51.0551,0.0638],[-51.0544,0.0656],[-51.0531,0.0694],[-51.0545,0.0694],[-51.0562,0.0693],[-51.0556,0.0711],[-51.0554,0.0723],[-51.0559,0.0765],[-51.0566,0.0775],[-51.0552,0.0789],[-51.0557,0.0822],[-51.0557,0.0829],[-51.0553,0.0855],[-51.0544,0.0848],[-51.0531,0.0851],[-51.0521,0.0847],[-51.0506,0.0844],[-51.0496,0.0846],[-51.0485,0.0842],[-51.0469,0.0841],[-51.0459,0.0836],[-51.0452,0.0837],[-51.0445,0.0833],[-51.0444,0.0826],[-51.044,0.0823],[-51.0434,0.0824],[-51.0439,0.0812],[-51.0456,0.0798],[-51.042,0.0776],[-51.0394,0.0772],[-51.0396,0.0764]]]}},{"type":"Feature","properties":{"c":"b57","b":57,"n":"Santa Inês","m":"1600303","cx":-51.059,"cy":0.0176},"geometry":{"type":"Polygon","coordinates":[[[-51.059,0.0244],[-51.0567,0.0242],[-51.0551,0.0239],[-51.0551,0.0225],[-51.0557,0.0217],[-51.0563,0.0205],[-51.0567,0.0153],[-51.0569,0.0152],[-51.0577,0.013],[-51.0578,0.0112],[-51.0583,0.0102],[-51.059,0.0095],[-51.0595,0.0094],[-51.0609,0.0098],[-51.0616,0.0101],[-51.0619,0.0107],[-51.0618,0.0115],[-51.0618,0.0122],[-51.0613,0.0199],[-51.0593,0.0198],[-51.0593,0.0205],[-51.059,0.0244]]]}},{"type":"Feature","properties":{"c":"b58","b":58,"n":"Santa Rita","m":"1600303","cx":-51.0746,"cy":0.0353},"geometry":{"type":"Polygon","coordinates":[[[-51.0792,0.0293],[-51.0795,0.0303],[-51.0797,0.0304],[-51.0797,0.0326],[-51.0796,0.0336],[-51.0788,0.0344],[-51.0786,0.0362],[-51.0829,0.0364],[-51.0826,0.0401],[-51.0823,0.0401],[-51.0822,0.0408],[-51.0815,0.0411],[-51.0815,0.0414],[-51.0772,0.0441],[-51.0772,0.0449],[-51.075,0.0448],[-51.075,0.0455],[-51.072,0.0454],[-51.0721,0.0447],[-51.0699,0.0445],[-51.0699,0.0441],[-51.0709,0.0298],[-51.073,0.03],[-51.0732,0.0261],[-51.0765,0.0263],[-51.0791,0.0265],[-51.0791,0.0273],[-51.0792,0.0293]]]}},{"type":"Feature","properties":{"c":"b59","b":59,"n":"Sol Nascente","m":"1600303","cx":-51.067,"cy":0.0981},"geometry":{"type":"Polygon","coordinates":[[[-51.0658,0.0948],[-51.0693,0.0971],[-51.0705,0.0985],[-51.0696,0.1007],[-51.0687,0.1015],[-51.0677,0.1021],[-51.0651,0.0993],[-51.0639,0.1004],[-51.0633,0.0997],[-51.0645,0.0986],[-51.0635,0.0976],[-51.0616,0.0992],[-51.0599,0.0974],[-51.0646,0.0939],[-51.0658,0.0948]]]}},{"type":"Feature","properties":{"c":"b60","b":60,"n":"São José","m":"1600303","cx":-51.1365,"cy":0.0459},"geometry":{"type":"Polygon","coordinates":[[[-51.1364,0.0674],[-51.1368,0.0558],[-51.1368,0.0545],[-51.1362,0.0519],[-51.1351,0.0467],[-51.135,0.0451],[-51.1351,0.0438],[-51.1355,0.0422],[-51.1364,0.04],[-51.1376,0.0384],[-51.1397,0.0361],[-51.1414,0.0343],[-51.1437,0.0317],[-51.1455,0.0298],[-51.1464,0.0289],[-51.1472,0.0284],[-51.1489,0.0278],[-51.1547,0.0264],[-51.1559,0.0258],[-51.1574,0.0244],[-51.1585,0.024],[-51.159,0.0242],[-51.1426,0.035],[-51.1428,0.0352],[-51.141,0.0364],[-51.1409,0.0362],[-51.1392,0.0375],[-51.1386,0.0383],[-51.1379,0.0398],[-51.1378,0.0405],[-51.1381,0.0405],[-51.1379,0.0475],[-51.1376,0.0475],[-51.1373,0.0575],[-51.137,0.0655],[-51.1369,0.0674],[-51.1364,0.0674]]]}},{"type":"Feature","properties":{"c":"b61","b":61,"n":"São Lázaro","m":"1600303","cx":-51.0582,"cy":0.0703},"geometry":{"type":"Polygon","coordinates":[[[-51.0578,0.0779],[-51.0566,0.0775],[-51.0559,0.0765],[-51.0554,0.0723],[-51.0556,0.0711],[-51.0562,0.0693],[-51.0545,0.0694],[-51.0531,0.0694],[-51.0544,0.0656],[-51.0551,0.0638],[-51.0576,0.0638],[-51.0576,0.064],[-51.0601,0.0643],[-51.0601,0.0658],[-51.0594,0.0675],[-51.0591,0.0682],[-51.061,0.0711],[-51.0598,0.0712],[-51.0598,0.0718],[-51.0579,0.0719],[-51.0582,0.0738],[-51.0584,0.0738],[-51.0582,0.0722],[-51.0597,0.0721],[-51.0599,0.0778],[-51.0578,0.0779]]]}},{"type":"Feature","properties":{"c":"b62","b":62,"n":"Trem","m":"1600303","cx":-51.0605,"cy":0.0258},"geometry":{"type":"Polygon","coordinates":[[[-51.0671,0.0246],[-51.0668,0.0295],[-51.0647,0.0294],[-51.0541,0.0286],[-51.0536,0.0291],[-51.0537,0.0287],[-51.0511,0.0284],[-51.053,0.0268],[-51.0549,0.0248],[-51.0551,0.0239],[-51.0567,0.0242],[-51.059,0.0244],[-51.0593,0.0205],[-51.0633,0.0208],[-51.0631,0.0223],[-51.0672,0.0226],[-51.0671,0.0246]]]}},{"type":"Feature","properties":{"c":"b63","b":63,"n":"Universidade","m":"1600303","cx":-51.0923,"cy":-0.0128},"geometry":{"type":"Polygon","coordinates":[[[-51.0986,-0.0204],[-51.0988,-0.0192],[-51.0985,-0.0181],[-51.0979,-0.0169],[-51.098,-0.0158],[-51.0979,-0.0153],[-51.0983,-0.0141],[-51.1001,-0.0133],[-51.1011,-0.0132],[-51.1029,-0.0125],[-51.1037,-0.0119],[-51.1036,-0.0112],[-51.1049,-0.0107],[-51.1057,-0.0099],[-51.1065,-0.0084],[-51.1066,-0.0066],[-51.1051,-0.0069],[-51.104,-0.007],[-51.1034,-0.0067],[-51.1026,-0.0067],[-51.1016,-0.0065],[-51.1016,-0.0068],[-51.0998,-0.0068],[-51.0998,-0.0061],[-51.0902,-0.0062],[-51.0894,-0.0066],[-51.089,-0.0062],[-51.0878,-0.0062],[-51.0877,0.0026],[-51.0847,0.0026],[-51.0818,0.0024],[-51.0818,-0.0037],[-51.083,-0.0098],[-51.083,-0.0106],[-51.0817,-0.0174],[-51.0806,-0.0231],[-51.0798,-0.0246],[-51.0788,-0.0259],[-51.0782,-0.0276],[-51.0783,-0.0289],[-51.08,-0.0284],[-51.0818,-0.0284],[-51.0833,-0.0278],[-51.0842,-0.0269],[-51.0851,-0.0256],[-51.0854,-0.0241],[-51.0861,-0.0225],[-51.087,-0.0214],[-51.0878,-0.0209],[-51.0889,-0.0206],[-51.0907,-0.0204],[-51.0916,-0.0206],[-51.093,-0.0195],[-51.0941,-0.0192],[-51.0952,-0.0204],[-51.0967,-0.0213],[-51.0986,-0.0204]]]}},{"type":"Feature","properties":{"c":"b64","b":64,"n":"Vale Verde","m":"1600303","cx":-51.1007,"cy":-0.0481},"geometry":{"type":"Polygon","coordinates":[[[-51.1056,-0.0463],[-51.1054,-0.0462],[-51.106,-0.0432],[-51.0992,-0.0417],[-51.0982,-0.0442],[-51.0954,-0.0502],[-51.0957,-0.0504],[-51.0963,-0.05],[-51.0969,-0.0509],[-51.0972,-0.0506],[-51.0973,-0.0512],[-51.0977,-0.0509],[-51.0991,-0.0519],[-51.0988,-0.052],[-51.0994,-0.0523],[-51.0999,-0.0522],[-51.1,-0.053],[-51.1004,-0.0532],[-51.1012,-0.0532],[-51.1017,-0.0537],[-51.103,-0.0543],[-51.1037,-0.054],[-51.1044,-0.0511],[-51.1056,-0.0463]]]}},{"type":"Feature","properties":{"c":"b65","b":65,"n":"Zerão","m":"1600303","cx":-51.0967,"cy":-0.0007},"geometry":{"type":"Polygon","coordinates":[[[-51.1064,-0.0053],[-51.106,-0.0037],[-51.106,-0.0026],[-51.106,-0.0015],[-51.1052,0.0],[-51.104,0.0012],[-51.1035,0.0023],[-51.1033,0.0036],[-51.1034,0.0051],[-51.1014,0.0051],[-51.1003,0.005],[-51.0992,0.0041],[-51.0988,0.0029],[-51.0954,0.0029],[-51.0931,0.0029],[-51.0915,0.0029],[-51.0898,0.0026],[-51.0877,0.0026],[-51.0878,-0.0062],[-51.089,-0.0062],[-51.0894,-0.0066],[-51.0902,-0.0062],[-51.0998,-0.0061],[-51.0998,-0.0068],[-51.1016,-0.0068],[-51.1016,-0.0065],[-51.1026,-0.0067],[-51.1034,-0.0067],[-51.104,-0.007],[-51.1051,-0.0069],[-51.1066,-0.0066],[-51.1064,-0.0053]]]}},{"type":"Feature","properties":{"c":"b66","b":66,"n":"Acquaville","m":"1600600","cx":-51.1898,"cy":-0.0214},"geometry":{"type":"Polygon","coordinates":[[[-51.1796,-0.017],[-51.1797,-0.0191],[-51.1804,-0.0237],[-51.1817,-0.0316],[-51.1818,-0.0322],[-51.1816,-0.0341],[-51.1845,-0.0341],[-51.1848,-0.0349],[-51.1848,-0.0365],[-51.1893,-0.0365],[-51.1912,-0.0365],[-51.1914,-0.0357],[-51.1922,-0.0357],[-51.1937,-0.0353],[-51.1944,-0.0347],[-51.195,-0.0354],[-51.1955,-0.0354],[-51.196,-0.0348],[-51.1965,-0.0335],[-51.1965,-0.0329],[-51.1971,-0.0322],[-51.1972,-0.0317],[-51.1968,-0.0315],[-51.1952,-0.0323],[-51.1945,-0.0323],[-51.1937,-0.0325],[-51.1936,-0.0333],[-51.1924,-0.0332],[-51.1916,-0.0326],[-51.1906,-0.0328],[-51.1902,-0.0337],[-51.1895,-0.033],[-51.1894,-0.0319],[-51.1901,-0.0317],[-51.1901,-0.031],[-51.1914,-0.0315],[-51.1922,-0.0315],[-51.1935,-0.0313],[-51.1943,-0.0305],[-51.1953,-0.0303],[-51.1954,-0.03],[-51.1994,-0.0282],[-51.2001,-0.0252],[-51.1989,-0.018],[-51.1963,-0.0162],[-51.1963,-0.014],[-51.1842,-0.0107],[-51.1847,-0.0159],[-51.1795,-0.0165],[-51.1796,-0.017]]]}},{"type":"Feature","properties":{"c":"b67","b":67,"n":"Central","m":"1600600","cx":-51.1744,"cy":-0.0397},"geometry":{"type":"Polygon","coordinates":[[[-51.1789,-0.043],[-51.1789,-0.0419],[-51.1807,-0.0419],[-51.1804,-0.0371],[-51.1801,-0.0374],[-51.1799,-0.0342],[-51.1763,-0.0345],[-51.1735,-0.0347],[-51.1733,-0.0323],[-51.1714,-0.0324],[-51.1696,-0.0324],[-51.1696,-0.0325],[-51.1676,-0.0322],[-51.1681,-0.0376],[-51.1685,-0.0438],[-51.1751,-0.0433],[-51.1789,-0.043]]]}},{"type":"Feature","properties":{"c":"b68","b":68,"n":"Comercial","m":"1600600","cx":-51.1802,"cy":-0.0484},"geometry":{"type":"Polygon","coordinates":[[[-51.1847,-0.042],[-51.1841,-0.042],[-51.1811,-0.042],[-51.1807,-0.0419],[-51.1789,-0.0419],[-51.1789,-0.043],[-51.1751,-0.0433],[-51.1758,-0.0535],[-51.1741,-0.0536],[-51.1744,-0.0577],[-51.1749,-0.0577],[-51.1752,-0.0572],[-51.177,-0.0572],[-51.177,-0.0574],[-51.1782,-0.0576],[-51.18,-0.0573],[-51.1809,-0.0576],[-51.1812,-0.0571],[-51.1812,-0.0564],[-51.1823,-0.0563],[-51.1827,-0.056],[-51.1833,-0.0566],[-51.184,-0.0568],[-51.1851,-0.0564],[-51.1847,-0.042]]]}},{"type":"Feature","properties":{"c":"b69","b":69,"n":"Daniel","m":"1600600","cx":-51.1607,"cy":-0.0564},"geometry":{"type":"Polygon","coordinates":[[[-51.1607,-0.0617],[-51.1616,-0.0617],[-51.1619,-0.0579],[-51.1622,-0.0544],[-51.1615,-0.054],[-51.1606,-0.0532],[-51.1578,-0.0537],[-51.1593,-0.0552],[-51.1593,-0.0576],[-51.1593,-0.061],[-51.1607,-0.0617]]]}},{"type":"Feature","properties":{"c":"b70","b":70,"n":"Distrito Industrial","m":"1600600","cx":-51.203,"cy":-0.0256},"geometry":{"type":"Polygon","coordinates":[[[-51.1828,-0.0012],[-51.1831,-0.0021],[-51.1833,-0.0038],[-51.183,-0.005],[-51.1795,-0.0148],[-51.1795,-0.0155],[-51.1795,-0.0165],[-51.1847,-0.0159],[-51.1842,-0.0107],[-51.1963,-0.014],[-51.1963,-0.0162],[-51.1989,-0.018],[-51.2001,-0.0252],[-51.1994,-0.0282],[-51.1954,-0.03],[-51.1953,-0.0303],[-51.1943,-0.0305],[-51.1935,-0.0313],[-51.1922,-0.0315],[-51.1914,-0.0315],[-51.1901,-0.031],[-51.1901,-0.0317],[-51.1894,-0.0319],[-51.1895,-0.033],[-51.1902,-0.0337],[-51.1906,-0.0328],[-51.1916,-0.0326],[-51.1924,-0.0332],[-51.1936,-0.0333],[-51.1937,-0.0325],[-51.1945,-0.0323],[-51.1952,-0.0323],[-51.1968,-0.0315],[-51.1972,-0.0317],[-51.1971,-0.0322],[-51.1965,-0.0329],[-51.1965,-0.0335],[-51.196,-0.0348],[-51.1955,-0.0354],[-51.195,-0.0354],[-51.1944,-0.0347],[-51.1937,-0.0353],[-51.1922,-0.0357],[-51.1914,-0.0357],[-51.1912,-0.0365],[-51.1893,-0.0365],[-51.1893,-0.0383],[-51.1927,-0.0412],[-51.1928,-0.0418],[-51.1928,-0.0436],[-51.1949,-0.0438],[-51.1962,-0.0438],[-51.1967,-0.0442],[-51.1988,-0.0445],[-51.1972,-0.0499],[-51.1974,-0.0506],[-51.1992,-0.0504],[-51.2,-0.0499],[-51.2013,-0.0479],[-51.2017,-0.047],[-51.2024,-0.0451],[-51.2027,-0.0435],[-51.2028,-0.0423],[-51.2033,-0.0423],[-51.203,-0.0446],[-51.2028,-0.0454],[-51.2019,-0.048],[-51.201,-0.0497],[-51.1996,-0.051],[-51.2017,-0.051],[-51.2035,-0.0465],[-51.2041,-0.0445],[-51.2039,-0.0399],[-51.2042,-0.0365],[-51.2048,-0.0324],[-51.2059,-0.0261],[-51.2061,-0.0223],[-51.2059,-0.0196],[-51.2054,-0.0173],[-51.2046,-0.0147],[-51.2043,-0.0127],[-51.2039,-0.0097],[-51.2039,-0.0082],[-51.2041,-0.0045],[-51.2041,-0.0024],[-51.204,-0.0009],[-51.2036,0.0],[-51.1819,0.0],[-51.1828,-0.0012]]]}},{"type":"Feature","properties":{"c":"b71","b":71,"n":"Elesbão","m":"1600600","cx":-51.1909,"cy":-0.0527},"geometry":{"type":"Polygon","coordinates":[[[-51.1933,-0.0534],[-51.194,-0.053],[-51.1934,-0.0524],[-51.1937,-0.0514],[-51.1929,-0.0514],[-51.192,-0.0519],[-51.1922,-0.0511],[-51.1926,-0.0507],[-51.1917,-0.0503],[-51.1915,-0.0498],[-51.1907,-0.0504],[-51.1901,-0.05],[-51.1899,-0.0505],[-51.1892,-0.051],[-51.1886,-0.0511],[-51.1879,-0.0538],[-51.1877,-0.0543],[-51.1864,-0.0547],[-51.1868,-0.056],[-51.1894,-0.0552],[-51.1897,-0.0549],[-51.1913,-0.0542],[-51.1923,-0.0541],[-51.1928,-0.0544],[-51.1933,-0.0542],[-51.1933,-0.0534]]]}},{"type":"Feature","properties":{"c":"b72","b":72,"n":"Equador","m":"1600600","cx":-51.14,"cy":-0.0163},"geometry":{"type":"Polygon","coordinates":[[[-51.1052,0.0],[-51.106,-0.0015],[-51.106,-0.0026],[-51.106,-0.0037],[-51.1064,-0.0053],[-51.1066,-0.0066],[-51.1065,-0.0084],[-51.1057,-0.0099],[-51.1049,-0.0107],[-51.1036,-0.0112],[-51.1037,-0.0119],[-51.1041,-0.0126],[-51.1049,-0.0119],[-51.1059,-0.0115],[-51.1065,-0.0114],[-51.108,-0.0129],[-51.1096,-0.0148],[-51.1109,-0.0151],[-51.1122,-0.0158],[-51.1125,-0.0156],[-51.1127,-0.0145],[-51.1136,-0.0135],[-51.1146,-0.0139],[-51.1159,-0.015],[-51.1177,-0.0159],[-51.1188,-0.0178],[-51.1221,-0.0156],[-51.1233,-0.0151],[-51.1237,-0.0155],[-51.1243,-0.0168],[-51.1237,-0.0179],[-51.1241,-0.0188],[-51.1253,-0.0185],[-51.1274,-0.019],[-51.1291,-0.0198],[-51.1299,-0.0203],[-51.131,-0.0213],[-51.1324,-0.0221],[-51.1337,-0.0224],[-51.1342,-0.0228],[-51.135,-0.024],[-51.1351,-0.0245],[-51.1343,-0.0268],[-51.1347,-0.0273],[-51.1362,-0.0273],[-51.1378,-0.0266],[-51.1383,-0.0268],[-51.1394,-0.0276],[-51.1404,-0.0287],[-51.1411,-0.03],[-51.1421,-0.0313],[-51.1441,-0.0326],[-51.1448,-0.0335],[-51.151,-0.0279],[-51.159,-0.0206],[-51.1565,-0.0208],[-51.1561,-0.0204],[-51.1551,-0.0202],[-51.1543,-0.0195],[-51.1557,-0.0172],[-51.156,-0.0151],[-51.1566,-0.014],[-51.1576,-0.0125],[-51.1579,-0.0113],[-51.1588,-0.0093],[-51.16,-0.007],[-51.1613,-0.0031],[-51.1613,0.0],[-51.127,0.0],[-51.1052,0.0]]]}},{"type":"Feature","properties":{"c":"b73","b":73,"n":"Fonte Nova","m":"1600600","cx":-51.1753,"cy":-0.0216},"geometry":{"type":"Polygon","coordinates":[[[-51.1797,-0.0191],[-51.1796,-0.017],[-51.1741,-0.0174],[-51.174,-0.0169],[-51.1732,-0.0169],[-51.1732,-0.0175],[-51.1721,-0.0176],[-51.172,-0.0167],[-51.1716,-0.0166],[-51.1716,-0.0158],[-51.1687,-0.0163],[-51.1687,-0.0171],[-51.1697,-0.017],[-51.1698,-0.0182],[-51.1694,-0.0183],[-51.1695,-0.0195],[-51.1704,-0.0194],[-51.1708,-0.0243],[-51.1737,-0.0241],[-51.179,-0.0237],[-51.1804,-0.0237],[-51.1797,-0.0191]]]}},{"type":"Feature","properties":{"c":"b74","b":74,"n":"Fortaleza","m":"1600600","cx":-51.1423,"cy":-0.0469},"geometry":{"type":"Polygon","coordinates":[[[-51.1418,-0.0381],[-51.1413,-0.0383],[-51.141,-0.0389],[-51.1383,-0.042],[-51.1368,-0.0435],[-51.1362,-0.0447],[-51.1367,-0.0458],[-51.1382,-0.0481],[-51.1387,-0.0494],[-51.1401,-0.0517],[-51.1406,-0.0529],[-51.1409,-0.0539],[-51.1413,-0.0539],[-51.1428,-0.0536],[-51.1435,-0.0542],[-51.1443,-0.0545],[-51.146,-0.0542],[-51.1466,-0.055],[-51.1483,-0.055],[-51.1483,-0.0494],[-51.1471,-0.0496],[-51.1471,-0.0447],[-51.1437,-0.038],[-51.1418,-0.0381]]]}},{"type":"Feature","properties":{"c":"b75","b":75,"n":"Fé em Deus","m":"1600600","cx":-51.1668,"cy":-0.0202},"geometry":{"type":"Polygon","coordinates":[[[-51.166,-0.0161],[-51.1646,-0.0166],[-51.164,-0.0174],[-51.1638,-0.0185],[-51.1634,-0.0192],[-51.1628,-0.021],[-51.1625,-0.0222],[-51.1628,-0.023],[-51.1637,-0.025],[-51.165,-0.0247],[-51.1652,-0.0233],[-51.1666,-0.0231],[-51.1673,-0.0241],[-51.1682,-0.0242],[-51.1684,-0.0245],[-51.1687,-0.0257],[-51.1698,-0.0256],[-51.1697,-0.0247],[-51.1708,-0.0243],[-51.1704,-0.0194],[-51.1695,-0.0195],[-51.1694,-0.0183],[-51.1698,-0.0182],[-51.1697,-0.017],[-51.1687,-0.0171],[-51.1687,-0.0163],[-51.166,-0.0161]]]}},{"type":"Feature","properties":{"c":"b76","b":76,"n":"Hospitalidade","m":"1600600","cx":-51.1714,"cy":-0.0512},"geometry":{"type":"Polygon","coordinates":[[[-51.1685,-0.0438],[-51.1666,-0.0439],[-51.167,-0.0489],[-51.1673,-0.0542],[-51.1668,-0.0543],[-51.1668,-0.0578],[-51.1673,-0.0585],[-51.1674,-0.0618],[-51.1688,-0.0612],[-51.1687,-0.061],[-51.1676,-0.0616],[-51.1677,-0.0611],[-51.1683,-0.0607],[-51.1691,-0.0606],[-51.17,-0.0596],[-51.1706,-0.0592],[-51.1721,-0.0587],[-51.1723,-0.0581],[-51.173,-0.0583],[-51.1744,-0.0577],[-51.1741,-0.0536],[-51.1758,-0.0535],[-51.1751,-0.0433],[-51.1685,-0.0438]]]}},{"type":"Feature","properties":{"c":"b77","b":77,"n":"Jardim Floresta","m":"1600600","cx":-51.1643,"cy":-0.0132},"geometry":{"type":"Polygon","coordinates":[[[-51.1775,0.0],[-51.1774,0.0],[-51.1613,0.0],[-51.1613,-0.0031],[-51.16,-0.007],[-51.1588,-0.0093],[-51.1579,-0.0113],[-51.1576,-0.0125],[-51.1566,-0.014],[-51.156,-0.0151],[-51.1557,-0.0172],[-51.1543,-0.0195],[-51.1551,-0.0202],[-51.1561,-0.0204],[-51.1565,-0.0208],[-51.159,-0.0206],[-51.1618,-0.0248],[-51.1625,-0.0253],[-51.1628,-0.025],[-51.1637,-0.025],[-51.1628,-0.023],[-51.1625,-0.0222],[-51.1628,-0.021],[-51.1634,-0.0192],[-51.1638,-0.0185],[-51.164,-0.0174],[-51.1646,-0.0166],[-51.166,-0.0161],[-51.1687,-0.0163],[-51.1716,-0.0158],[-51.1714,-0.0111],[-51.173,-0.0093],[-51.1706,-0.0077],[-51.1713,-0.0067],[-51.1733,-0.0045],[-51.1766,-0.0076],[-51.1766,-0.0086],[-51.1776,-0.0095],[-51.1782,-0.0094],[-51.1775,0.0]]]}},{"type":"Feature","properties":{"c":"b78","b":78,"n":"Jardim de Deus","m":"1600600","cx":-51.1801,"cy":-0.0071},"geometry":{"type":"Polygon","coordinates":[[[-51.1775,0.0],[-51.1782,-0.0094],[-51.1788,-0.0093],[-51.1792,-0.0155],[-51.1795,-0.0155],[-51.1795,-0.0148],[-51.183,-0.005],[-51.1833,-0.0038],[-51.1831,-0.0021],[-51.1828,-0.0012],[-51.1819,0.0],[-51.1783,0.0],[-51.1775,0.0]]]}},{"type":"Feature","properties":{"c":"b79","b":79,"n":"Matapi Mirim","m":"1600600","cx":-51.1916,"cy":-0.0462},"geometry":{"type":"Polygon","coordinates":[[[-51.201,-0.0497],[-51.2019,-0.048],[-51.2028,-0.0454],[-51.203,-0.0446],[-51.2033,-0.0423],[-51.2028,-0.0423],[-51.2027,-0.0435],[-51.2024,-0.0451],[-51.2017,-0.047],[-51.2013,-0.0479],[-51.2,-0.0499],[-51.1992,-0.0504],[-51.1974,-0.0506],[-51.1972,-0.0499],[-51.1988,-0.0445],[-51.1967,-0.0442],[-51.1962,-0.0438],[-51.1949,-0.0438],[-51.1928,-0.0436],[-51.1892,-0.0433],[-51.1887,-0.043],[-51.1875,-0.042],[-51.1869,-0.0419],[-51.1869,-0.041],[-51.1888,-0.0402],[-51.1856,-0.038],[-51.1838,-0.0374],[-51.1835,-0.0382],[-51.1827,-0.0387],[-51.1825,-0.0393],[-51.183,-0.041],[-51.1847,-0.0411],[-51.1847,-0.042],[-51.1851,-0.0564],[-51.1868,-0.056],[-51.1864,-0.0547],[-51.1877,-0.0543],[-51.1879,-0.0538],[-51.1886,-0.0511],[-51.1892,-0.051],[-51.1899,-0.0505],[-51.1901,-0.05],[-51.1907,-0.0504],[-51.1915,-0.0498],[-51.1917,-0.0503],[-51.1926,-0.0507],[-51.1922,-0.0511],[-51.192,-0.0519],[-51.1929,-0.0514],[-51.1937,-0.0514],[-51.1934,-0.0524],[-51.194,-0.053],[-51.1933,-0.0534],[-51.1933,-0.0542],[-51.1941,-0.0541],[-51.195,-0.0536],[-51.1957,-0.0535],[-51.1958,-0.0532],[-51.1969,-0.054],[-51.1973,-0.0537],[-51.1982,-0.0526],[-51.1991,-0.0517],[-51.1996,-0.051],[-51.201,-0.0497]]]}},{"type":"Feature","properties":{"c":"b80","b":80,"n":"Monte das Oliveiras","m":"1600600","cx":-51.1515,"cy":-0.0504},"geometry":{"type":"Polygon","coordinates":[[[-51.1519,-0.0475],[-51.1507,-0.0486],[-51.1496,-0.049],[-51.1496,-0.0518],[-51.1534,-0.0518],[-51.1534,-0.0477],[-51.1532,-0.0469],[-51.1519,-0.0475]]]}},{"type":"Feature","properties":{"c":"b81","b":81,"n":"Mutirão","m":"1600600","cx":-51.1662,"cy":-0.0287},"geometry":{"type":"Polygon","coordinates":[[[-51.1697,-0.0247],[-51.1698,-0.0256],[-51.1687,-0.0257],[-51.1684,-0.0245],[-51.1682,-0.0242],[-51.1673,-0.0241],[-51.1666,-0.0231],[-51.1652,-0.0233],[-51.165,-0.0247],[-51.1637,-0.025],[-51.1628,-0.025],[-51.1625,-0.0253],[-51.1618,-0.0248],[-51.1634,-0.027],[-51.1635,-0.0275],[-51.1646,-0.03],[-51.1657,-0.03],[-51.1657,-0.0308],[-51.167,-0.031],[-51.1673,-0.0313],[-51.1674,-0.0323],[-51.1676,-0.0322],[-51.1696,-0.0325],[-51.1696,-0.0324],[-51.1694,-0.0306],[-51.1685,-0.0307],[-51.1682,-0.027],[-51.1691,-0.0269],[-51.169,-0.0257],[-51.1709,-0.0256],[-51.1708,-0.0243],[-51.1697,-0.0247]]]}},{"type":"Feature","properties":{"c":"b82","b":82,"n":"Nova Brasília","m":"1600600","cx":-51.1613,"cy":-0.0384},"geometry":{"type":"Polygon","coordinates":[[[-51.1685,-0.0438],[-51.1681,-0.0376],[-51.1676,-0.0322],[-51.1674,-0.0323],[-51.1673,-0.0313],[-51.167,-0.031],[-51.1657,-0.0308],[-51.1657,-0.03],[-51.1646,-0.03],[-51.1647,-0.0315],[-51.1659,-0.0317],[-51.1664,-0.0334],[-51.1664,-0.034],[-51.1668,-0.034],[-51.1669,-0.0352],[-51.1606,-0.0358],[-51.1605,-0.0349],[-51.1554,-0.0345],[-51.155,-0.0359],[-51.1551,-0.0363],[-51.1547,-0.0369],[-51.1547,-0.0375],[-51.1544,-0.0379],[-51.1544,-0.0389],[-51.1541,-0.0393],[-51.1599,-0.0389],[-51.16,-0.0408],[-51.1601,-0.0408],[-51.1602,-0.0425],[-51.1598,-0.0426],[-51.16,-0.0433],[-51.1601,-0.0452],[-51.1613,-0.0451],[-51.1617,-0.0459],[-51.1636,-0.0442],[-51.1666,-0.0439],[-51.1685,-0.0438]]]}},{"type":"Feature","properties":{"c":"b83","b":83,"n":"Nova União","m":"1600600","cx":-51.157,"cy":-0.0289},"geometry":{"type":"Polygon","coordinates":[[[-51.1635,-0.0275],[-51.1634,-0.027],[-51.1618,-0.0248],[-51.159,-0.0206],[-51.151,-0.0279],[-51.1448,-0.0335],[-51.1562,-0.0329],[-51.1554,-0.0345],[-51.1605,-0.0349],[-51.1606,-0.0358],[-51.1669,-0.0352],[-51.1668,-0.034],[-51.1664,-0.034],[-51.1664,-0.0334],[-51.1659,-0.0317],[-51.1647,-0.0315],[-51.1646,-0.03],[-51.1635,-0.0275]]]}},{"type":"Feature","properties":{"c":"b84","b":84,"n":"Novo Horizonte","m":"1600600","cx":-51.1645,"cy":-0.0582},"geometry":{"type":"Polygon","coordinates":[[[-51.1619,-0.0579],[-51.1616,-0.0617],[-51.1621,-0.062],[-51.1643,-0.0624],[-51.1651,-0.0618],[-51.1674,-0.0618],[-51.1673,-0.0585],[-51.1668,-0.0578],[-51.1668,-0.0543],[-51.1633,-0.0546],[-51.1622,-0.0544],[-51.1619,-0.0579]]]}},{"type":"Feature","properties":{"c":"b85","b":85,"n":"Paraíso","m":"1600600","cx":-51.1748,"cy":-0.0288},"geometry":{"type":"Polygon","coordinates":[[[-51.1811,-0.0365],[-51.1814,-0.0359],[-51.1816,-0.0341],[-51.1818,-0.0322],[-51.1817,-0.0316],[-51.1804,-0.0237],[-51.179,-0.0237],[-51.1737,-0.0241],[-51.1708,-0.0243],[-51.1709,-0.0256],[-51.169,-0.0257],[-51.1691,-0.0269],[-51.1682,-0.027],[-51.1685,-0.0307],[-51.1694,-0.0306],[-51.1696,-0.0324],[-51.1714,-0.0324],[-51.1733,-0.0323],[-51.1735,-0.0347],[-51.1763,-0.0345],[-51.1799,-0.0342],[-51.1801,-0.0374],[-51.1804,-0.0371],[-51.1811,-0.0365]]]}},{"type":"Feature","properties":{"c":"b86","b":86,"n":"Parque das Laranjeiras","m":"1600600","cx":-51.1755,"cy":-0.0103},"geometry":{"type":"Polygon","coordinates":[[[-51.1795,-0.0165],[-51.1795,-0.0155],[-51.1792,-0.0155],[-51.1788,-0.0093],[-51.1782,-0.0094],[-51.1776,-0.0095],[-51.1766,-0.0086],[-51.1766,-0.0076],[-51.1733,-0.0045],[-51.1713,-0.0067],[-51.1706,-0.0077],[-51.173,-0.0093],[-51.1714,-0.0111],[-51.1716,-0.0158],[-51.1716,-0.0166],[-51.172,-0.0167],[-51.1721,-0.0176],[-51.1732,-0.0175],[-51.1732,-0.0169],[-51.174,-0.0169],[-51.1741,-0.0174],[-51.1796,-0.017],[-51.1795,-0.0165]]]}},{"type":"Feature","properties":{"c":"b87","b":87,"n":"Piçarreira","m":"1600600","cx":-51.1886,"cy":-0.039},"geometry":{"type":"Polygon","coordinates":[[[-51.1807,-0.0419],[-51.1811,-0.042],[-51.1841,-0.042],[-51.1847,-0.042],[-51.1847,-0.0411],[-51.183,-0.041],[-51.1825,-0.0393],[-51.1827,-0.0387],[-51.1835,-0.0382],[-51.1838,-0.0374],[-51.1856,-0.038],[-51.1888,-0.0402],[-51.1869,-0.041],[-51.1869,-0.0419],[-51.1875,-0.042],[-51.1887,-0.043],[-51.1892,-0.0433],[-51.1928,-0.0436],[-51.1928,-0.0418],[-51.1927,-0.0412],[-51.1893,-0.0383],[-51.1893,-0.0365],[-51.1848,-0.0365],[-51.1848,-0.0349],[-51.1845,-0.0341],[-51.1816,-0.0341],[-51.1814,-0.0359],[-51.1811,-0.0365],[-51.1804,-0.0371],[-51.1807,-0.0419]]]}},{"type":"Feature","properties":{"c":"b88","b":88,"n":"Provedor I","m":"1600600","cx":-51.1492,"cy":-0.0384},"geometry":{"type":"Polygon","coordinates":[[[-51.1602,-0.0425],[-51.1601,-0.0408],[-51.16,-0.0408],[-51.1599,-0.0389],[-51.1541,-0.0393],[-51.1544,-0.0389],[-51.1544,-0.0379],[-51.1547,-0.0375],[-51.1547,-0.0369],[-51.1551,-0.0363],[-51.155,-0.0359],[-51.1554,-0.0345],[-51.1562,-0.0329],[-51.1448,-0.0335],[-51.1451,-0.035],[-51.1451,-0.0362],[-51.1448,-0.0372],[-51.1441,-0.0379],[-51.1437,-0.038],[-51.1471,-0.0447],[-51.1498,-0.0435],[-51.1512,-0.0433],[-51.1517,-0.0436],[-51.1527,-0.0433],[-51.1535,-0.044],[-51.1545,-0.0431],[-51.1582,-0.0428],[-51.1598,-0.0426],[-51.1602,-0.0425]]]}},{"type":"Feature","properties":{"c":"b89","b":89,"n":"Provedor II","m":"1600600","cx":-51.1542,"cy":-0.0463},"geometry":{"type":"Polygon","coordinates":[[[-51.1471,-0.0496],[-51.1483,-0.0494],[-51.1496,-0.049],[-51.1507,-0.0486],[-51.1519,-0.0475],[-51.1532,-0.0469],[-51.1536,-0.0468],[-51.1548,-0.0474],[-51.1575,-0.0501],[-51.1585,-0.0492],[-51.1617,-0.0459],[-51.1613,-0.0451],[-51.1601,-0.0452],[-51.16,-0.0433],[-51.1598,-0.0426],[-51.1582,-0.0428],[-51.1545,-0.0431],[-51.1535,-0.044],[-51.1527,-0.0433],[-51.1517,-0.0436],[-51.1512,-0.0433],[-51.1498,-0.0435],[-51.1471,-0.0447],[-51.1471,-0.0496]]]}},{"type":"Feature","properties":{"c":"b90","b":90,"n":"Remédios I","m":"1600600","cx":-51.1636,"cy":-0.0474},"geometry":{"type":"Polygon","coordinates":[[[-51.1666,-0.0439],[-51.1636,-0.0442],[-51.1617,-0.0459],[-51.1585,-0.0492],[-51.1575,-0.0501],[-51.159,-0.0516],[-51.161,-0.0495],[-51.1618,-0.0491],[-51.1619,-0.0497],[-51.1627,-0.0498],[-51.1628,-0.052],[-51.1634,-0.052],[-51.1633,-0.0515],[-51.1643,-0.0515],[-51.164,-0.0498],[-51.1641,-0.0492],[-51.167,-0.0489],[-51.1666,-0.0439]]]}},{"type":"Feature","properties":{"c":"b91","b":91,"n":"Remédios II","m":"1600600","cx":-51.1653,"cy":-0.0518},"geometry":{"type":"Polygon","coordinates":[[[-51.1673,-0.0542],[-51.167,-0.0489],[-51.1641,-0.0492],[-51.164,-0.0498],[-51.1643,-0.0515],[-51.1633,-0.0515],[-51.1634,-0.052],[-51.1628,-0.052],[-51.1627,-0.0498],[-51.1619,-0.0497],[-51.1618,-0.0491],[-51.161,-0.0495],[-51.159,-0.0516],[-51.1606,-0.0532],[-51.1615,-0.054],[-51.1622,-0.0544],[-51.1633,-0.0546],[-51.1668,-0.0543],[-51.1673,-0.0542]]]}},{"type":"Feature","properties":{"c":"b92","b":92,"n":"Vila Amazonas","m":"1600600","cx":-51.1534,"cy":-0.0543},"geometry":{"type":"Polygon","coordinates":[[[-51.159,-0.0516],[-51.1575,-0.0501],[-51.1548,-0.0474],[-51.1536,-0.0468],[-51.1532,-0.0469],[-51.1534,-0.0477],[-51.1534,-0.0518],[-51.1496,-0.0518],[-51.1496,-0.049],[-51.1483,-0.0494],[-51.1483,-0.055],[-51.149,-0.0553],[-51.1494,-0.0551],[-51.1509,-0.0556],[-51.1518,-0.056],[-51.1541,-0.0579],[-51.1554,-0.0586],[-51.1568,-0.06],[-51.1593,-0.061],[-51.1593,-0.0576],[-51.1593,-0.0552],[-51.1578,-0.0537],[-51.1606,-0.0532],[-51.159,-0.0516]]]}}]}