{"type":"FeatureCollection","features":[{"type":"Feature","properties":{"c":"b0","b":0,"n":"Aristeu J. Ferreira / Tancredo Neves / Zulmira / Corumbá II","m":"5217401","cx":-48.2668,"cy":-17.2938},"geometry":{"type":"Polygon","coordinates":[[[-48.2667,-17.2986],[-48.2698,-17.2989],[-48.27,-17.2957],[-48.2705,-17.2919],[-48.2678,-17.2915],[-48.2679,-17.2909],[-48.2671,-17.2907],[-48.2658,-17.2898],[-48.2653,-17.2892],[-48.2651,-17.2905],[-48.2642,-17.2904],[-48.2642,-17.2907],[-48.2626,-17.2969],[-48.2652,-17.2981],[-48.2667,-17.2986]]]}},{"type":"Feature","properties":{"c":"b1","b":1,"n":"Centro","m":"5217401","cx":-48.2788,"cy":-17.302},"geometry":{"type":"Polygon","coordinates":[[[-48.276,-17.2984],[-48.276,-17.2979],[-48.2754,-17.2979],[-48.2753,-17.3015],[-48.2757,-17.3026],[-48.2784,-17.3026],[-48.2782,-17.3063],[-48.282,-17.3064],[-48.2822,-17.2996],[-48.2822,-17.2985],[-48.2785,-17.2984],[-48.276,-17.2984]]]}},{"type":"Feature","properties":{"c":"b2","b":2,"n":"Colegial/Vila Grambery/Fime/Eurípedes Lázaro","m":"5217401","cx":-48.2874,"cy":-17.3057},"geometry":{"type":"Polygon","coordinates":[[[-48.2822,-17.2996],[-48.282,-17.3064],[-48.2866,-17.3065],[-48.2884,-17.3065],[-48.2883,-17.3081],[-48.2926,-17.3106],[-48.2927,-17.3051],[-48.294,-17.3051],[-48.2939,-17.3045],[-48.2943,-17.3037],[-48.2946,-17.3039],[-48.2944,-17.3032],[-48.2948,-17.3031],[-48.2942,-17.3018],[-48.2945,-17.301],[-48.2938,-17.3008],[-48.2932,-17.3009],[-48.2931,-17.303],[-48.2896,-17.3029],[-48.2897,-17.2998],[-48.2822,-17.2996]]]}},{"type":"Feature","properties":{"c":"b3","b":3,"n":"JK","m":"5217401","cx":-48.2922,"cy":-17.3003},"geometry":{"type":"Polygon","coordinates":[[[-48.295,-17.298],[-48.2953,-17.2979],[-48.2946,-17.2972],[-48.2935,-17.2972],[-48.2908,-17.2984],[-48.2908,-17.2987],[-48.2897,-17.2987],[-48.2897,-17.2998],[-48.2896,-17.3029],[-48.2931,-17.303],[-48.2932,-17.3009],[-48.2938,-17.3008],[-48.2945,-17.301],[-48.295,-17.298]]]}},{"type":"Feature","properties":{"c":"b4","b":4,"n":"Jardim Guanabara","m":"5217401","cx":-48.2683,"cy":-17.3031},"geometry":{"type":"Polygon","coordinates":[[[-48.2651,-17.2991],[-48.2655,-17.2991],[-48.2658,-17.3021],[-48.2667,-17.3013],[-48.2665,-17.3046],[-48.2668,-17.3046],[-48.2699,-17.3074],[-48.2702,-17.3069],[-48.2703,-17.3062],[-48.2701,-17.3051],[-48.2703,-17.3046],[-48.2701,-17.3039],[-48.2701,-17.3023],[-48.27,-17.3019],[-48.2704,-17.3016],[-48.2704,-17.299],[-48.2698,-17.2989],[-48.2667,-17.2986],[-48.2652,-17.2981],[-48.2651,-17.2991]]]}},{"type":"Feature","properties":{"c":"b5","b":5,"n":"Jardim João Monteiro / Bouganville","m":"5217401","cx":-48.2823,"cy":-17.3187},"geometry":{"type":"Polygon","coordinates":[[[-48.2817,-17.3162],[-48.2792,-17.3162],[-48.279,-17.3166],[-48.2794,-17.317],[-48.2812,-17.3205],[-48.2827,-17.323],[-48.2837,-17.3242],[-48.2845,-17.3239],[-48.2849,-17.324],[-48.2845,-17.3218],[-48.2848,-17.3206],[-48.2834,-17.3158],[-48.2817,-17.3162]]]}},{"type":"Feature","properties":{"c":"b6","b":6,"n":"Jardim Maratá","m":"5217401","cx":-48.2741,"cy":-17.3075},"geometry":{"type":"Polygon","coordinates":[[[-48.2726,-17.3028],[-48.2701,-17.3039],[-48.2703,-17.3046],[-48.2701,-17.3051],[-48.2703,-17.3062],[-48.2702,-17.3069],[-48.2706,-17.3071],[-48.2706,-17.3079],[-48.2699,-17.3095],[-48.2756,-17.3116],[-48.276,-17.3124],[-48.277,-17.3119],[-48.2773,-17.3113],[-48.2778,-17.309],[-48.2778,-17.308],[-48.2757,-17.3026],[-48.2726,-17.3028]]]}},{"type":"Feature","properties":{"c":"b7","b":7,"n":"Mosaico / Esplanada / Sonho Verde","m":"5217401","cx":-48.2774,"cy":-17.3206},"geometry":{"type":"MultiPolygon","coordinates":[[[[-48.2827,-17.323],[-48.2812,-17.3205],[-48.2794,-17.317],[-48.279,-17.3166],[-48.2792,-17.3162],[-48.2782,-17.3164],[-48.2733,-17.3175],[-48.2736,-17.321],[-48.2747,-17.3208],[-48.275,-17.3219],[-48.2774,-17.322],[-48.2787,-17.3224],[-48.2803,-17.3231],[-48.2816,-17.324],[-48.283,-17.3252],[-48.2837,-17.3242],[-48.2827,-17.323]]],[[[-48.2632,-17.3293],[-48.2655,-17.3249],[-48.2673,-17.3267],[-48.2675,-17.3271],[-48.2685,-17.3263],[-48.2702,-17.3222],[-48.269,-17.32],[-48.2685,-17.3193],[-48.2686,-17.3191],[-48.2704,-17.3159],[-48.2714,-17.3145],[-48.2705,-17.3148],[-48.2684,-17.3148],[-48.2674,-17.3155],[-48.264,-17.3214],[-48.2609,-17.3282],[-48.2632,-17.3293]]]]}},{"type":"Feature","properties":{"c":"b8","b":8,"n":"Nossa Senhora de Lourdes","m":"5217401","cx":-48.2843,"cy":-17.3126},"geometry":{"type":"Polygon","coordinates":[[[-48.2834,-17.3158],[-48.286,-17.3147],[-48.2866,-17.3141],[-48.2867,-17.3138],[-48.2868,-17.3115],[-48.2819,-17.3114],[-48.2817,-17.3162],[-48.2834,-17.3158]]]}},{"type":"Feature","properties":{"c":"b9","b":9,"n":"Nova Vila","m":"5217401","cx":-48.2843,"cy":-17.3089},"geometry":{"type":"Polygon","coordinates":[[[-48.282,-17.3064],[-48.2819,-17.3114],[-48.2868,-17.3115],[-48.2866,-17.3065],[-48.282,-17.3064]]]}},{"type":"Feature","properties":{"c":"b10","b":10,"n":"Parque Santana / Hene Saud","m":"5217401","cx":-48.2909,"cy":-17.3121},"geometry":{"type":"Polygon","coordinates":[[[-48.2868,-17.3115],[-48.2867,-17.3138],[-48.2866,-17.3141],[-48.2882,-17.3149],[-48.2891,-17.3133],[-48.2913,-17.3147],[-48.2949,-17.3172],[-48.2946,-17.3167],[-48.2951,-17.3162],[-48.2948,-17.3157],[-48.295,-17.3151],[-48.2943,-17.3144],[-48.295,-17.3139],[-48.2946,-17.3136],[-48.295,-17.3131],[-48.2954,-17.3135],[-48.2961,-17.3127],[-48.2926,-17.3106],[-48.2883,-17.3081],[-48.2884,-17.3065],[-48.2866,-17.3065],[-48.2868,-17.3115]]]}},{"type":"Feature","properties":{"c":"b11","b":11,"n":"Sampaio/Parque Silvana/São João/Jardim Amaral","m":"5217401","cx":-48.2881,"cy":-17.2954},"geometry":{"type":"Polygon","coordinates":[[[-48.2961,-17.2972],[-48.2961,-17.2969],[-48.2954,-17.2965],[-48.2951,-17.2966],[-48.2943,-17.2959],[-48.2936,-17.2949],[-48.2931,-17.2936],[-48.2922,-17.2932],[-48.2921,-17.2925],[-48.2914,-17.2924],[-48.2911,-17.2921],[-48.2905,-17.2921],[-48.2906,-17.2915],[-48.2902,-17.2917],[-48.2897,-17.2912],[-48.2887,-17.2912],[-48.2886,-17.2907],[-48.2882,-17.2904],[-48.2877,-17.2912],[-48.2871,-17.2911],[-48.287,-17.2916],[-48.2865,-17.2918],[-48.2859,-17.2926],[-48.285,-17.293],[-48.2843,-17.2936],[-48.2838,-17.2934],[-48.2822,-17.2944],[-48.2822,-17.2985],[-48.2822,-17.2996],[-48.2897,-17.2998],[-48.2897,-17.2987],[-48.2908,-17.2987],[-48.2908,-17.2984],[-48.2935,-17.2972],[-48.2946,-17.2972],[-48.2953,-17.2979],[-48.2961,-17.2972]]]}},{"type":"Feature","properties":{"c":"b12","b":12,"n":"Santa Cecília","m":"5217401","cx":-48.2734,"cy":-17.292},"geometry":{"type":"Polygon","coordinates":[[[-48.2727,-17.2888],[-48.2717,-17.2908],[-48.271,-17.2917],[-48.2705,-17.2919],[-48.27,-17.2957],[-48.2749,-17.2958],[-48.2755,-17.296],[-48.2755,-17.2945],[-48.2758,-17.2936],[-48.2767,-17.2923],[-48.2767,-17.2922],[-48.2735,-17.2905],[-48.2729,-17.2886],[-48.2725,-17.288],[-48.2727,-17.2888]]]}},{"type":"Feature","properties":{"c":"b13","b":13,"n":"Santa Terezinha / São Sebastião / Vila Sinhô Nogueira","m":"5217401","cx":-48.2821,"cy":-17.2895},"geometry":{"type":"Polygon","coordinates":[[[-48.2838,-17.2934],[-48.2843,-17.2936],[-48.285,-17.293],[-48.2859,-17.2926],[-48.2865,-17.2918],[-48.287,-17.2916],[-48.2871,-17.2911],[-48.2863,-17.2905],[-48.2865,-17.2901],[-48.2858,-17.2897],[-48.2857,-17.2887],[-48.2852,-17.2885],[-48.2844,-17.2876],[-48.2845,-17.2868],[-48.2841,-17.287],[-48.282,-17.2886],[-48.2817,-17.2877],[-48.2773,-17.2806],[-48.2763,-17.2803],[-48.2763,-17.2808],[-48.2751,-17.2834],[-48.2752,-17.2842],[-48.2758,-17.285],[-48.2768,-17.2858],[-48.2784,-17.2893],[-48.2785,-17.2901],[-48.2781,-17.2907],[-48.2767,-17.2923],[-48.2758,-17.2936],[-48.2755,-17.2945],[-48.2755,-17.296],[-48.2754,-17.2979],[-48.276,-17.2979],[-48.276,-17.2984],[-48.2785,-17.2984],[-48.2786,-17.2942],[-48.2808,-17.2943],[-48.2822,-17.2944],[-48.2838,-17.2934]]]}},{"type":"Feature","properties":{"c":"b14","b":14,"n":"Setor Industrial / Mauá","m":"5217401","cx":-48.2644,"cy":-17.3171},"geometry":{"type":"Polygon","coordinates":[[[-48.276,-17.3124],[-48.2756,-17.3116],[-48.2699,-17.3095],[-48.2706,-17.3079],[-48.2706,-17.3071],[-48.2702,-17.3069],[-48.2699,-17.3074],[-48.2678,-17.3084],[-48.2677,-17.3081],[-48.2671,-17.3076],[-48.2667,-17.3079],[-48.2659,-17.3075],[-48.2652,-17.3078],[-48.2646,-17.3075],[-48.2631,-17.3077],[-48.2614,-17.307],[-48.2603,-17.3064],[-48.2594,-17.307],[-48.2588,-17.3069],[-48.2584,-17.308],[-48.2587,-17.3086],[-48.2586,-17.3104],[-48.2579,-17.3115],[-48.257,-17.3115],[-48.257,-17.3122],[-48.2561,-17.3126],[-48.2561,-17.3131],[-48.2557,-17.3134],[-48.2571,-17.3136],[-48.2581,-17.3125],[-48.2602,-17.3103],[-48.2611,-17.3104],[-48.2652,-17.312],[-48.2643,-17.3135],[-48.2615,-17.3187],[-48.2573,-17.3196],[-48.2567,-17.3218],[-48.2543,-17.321],[-48.2536,-17.3213],[-48.2526,-17.3213],[-48.2526,-17.3221],[-48.252,-17.3234],[-48.2526,-17.3239],[-48.2523,-17.3243],[-48.2514,-17.3246],[-48.251,-17.3252],[-48.2519,-17.325],[-48.2536,-17.3254],[-48.256,-17.326],[-48.2567,-17.326],[-48.2609,-17.3282],[-48.264,-17.3214],[-48.2674,-17.3155],[-48.2684,-17.3148],[-48.2705,-17.3148],[-48.2714,-17.3145],[-48.276,-17.3124]]]}},{"type":"Feature","properties":{"c":"b15","b":15,"n":"Setor dos Bancários","m":"5217401","cx":-48.2804,"cy":-17.2964},"geometry":{"type":"Polygon","coordinates":[[[-48.2822,-17.2985],[-48.2822,-17.2944],[-48.2808,-17.2943],[-48.2786,-17.2942],[-48.2785,-17.2984],[-48.2822,-17.2985]]]}},{"type":"Feature","properties":{"c":"b16","b":16,"n":"São José / Dergo / Santa Rita de Cássia / Eliza Galli","m":"5217401","cx":-48.2751,"cy":-17.282},"geometry":{"type":"Polygon","coordinates":[[[-48.2729,-17.2886],[-48.2735,-17.2905],[-48.2767,-17.2922],[-48.2767,-17.2923],[-48.2781,-17.2907],[-48.2785,-17.2901],[-48.2784,-17.2893],[-48.2768,-17.2858],[-48.2758,-17.285],[-48.2752,-17.2842],[-48.2751,-17.2834],[-48.2763,-17.2808],[-48.2763,-17.2803],[-48.276,-17.2796],[-48.275,-17.2781],[-48.275,-17.2774],[-48.276,-17.2749],[-48.277,-17.2738],[-48.2765,-17.2737],[-48.2756,-17.275],[-48.2748,-17.2765],[-48.2746,-17.2777],[-48.2744,-17.2832],[-48.2745,-17.2838],[-48.2752,-17.2849],[-48.2743,-17.2869],[-48.2732,-17.2867],[-48.2728,-17.2878],[-48.2725,-17.288],[-48.2729,-17.2886]]]}},{"type":"Feature","properties":{"c":"b17","b":17,"n":"São Miguel / São Francisco","m":"5217401","cx":-48.2729,"cy":-17.3002},"geometry":{"type":"Polygon","coordinates":[[[-48.2704,-17.299],[-48.2704,-17.3016],[-48.27,-17.3019],[-48.2701,-17.3023],[-48.2701,-17.3039],[-48.2726,-17.3028],[-48.2757,-17.3026],[-48.2753,-17.3015],[-48.2754,-17.2979],[-48.2755,-17.296],[-48.2749,-17.2958],[-48.27,-17.2957],[-48.2698,-17.2989],[-48.2704,-17.299]]]}},{"type":"Feature","properties":{"c":"b18","b":18,"n":"Vila Militar/Vila Sumaia/Vila Nova Jardim Goiás","m":"5217401","cx":-48.2797,"cy":-17.3101},"geometry":{"type":"Polygon","coordinates":[[[-48.2817,-17.3162],[-48.2819,-17.3114],[-48.282,-17.3064],[-48.2782,-17.3063],[-48.2784,-17.3026],[-48.2757,-17.3026],[-48.2778,-17.308],[-48.2778,-17.309],[-48.2773,-17.3113],[-48.277,-17.3119],[-48.276,-17.3124],[-48.2714,-17.3145],[-48.2704,-17.3159],[-48.2686,-17.3191],[-48.27,-17.3182],[-48.2733,-17.3175],[-48.2782,-17.3164],[-48.2792,-17.3162],[-48.2817,-17.3162]]]}},{"type":"Feature","properties":{"c":"b19","b":19,"n":"Cafelândios","m":"5218300","cx":-46.3707,"cy":-14.0812},"geometry":{"type":"Polygon","coordinates":[[[-46.3739,-14.0832],[-46.3746,-14.0817],[-46.3748,-14.0806],[-46.3742,-14.0807],[-46.374,-14.0788],[-46.3737,-14.0782],[-46.3723,-14.0786],[-46.3701,-14.0788],[-46.3695,-14.0799],[-46.3675,-14.0799],[-46.3668,-14.0799],[-46.3668,-14.0834],[-46.3719,-14.0834],[-46.3732,-14.0841],[-46.3739,-14.0832]]]}},{"type":"Feature","properties":{"c":"b20","b":20,"n":"Setor Augusto José Valente I","m":"5218300","cx":-46.3628,"cy":-14.0876},"geometry":{"type":"Polygon","coordinates":[[[-46.3583,-14.0863],[-46.3581,-14.0903],[-46.3594,-14.0908],[-46.3594,-14.0906],[-46.363,-14.0907],[-46.3674,-14.0908],[-46.3675,-14.0887],[-46.3674,-14.0866],[-46.3668,-14.0866],[-46.3668,-14.0847],[-46.3661,-14.0848],[-46.3634,-14.0847],[-46.3584,-14.0846],[-46.3583,-14.0863]]]}},{"type":"Feature","properties":{"c":"b21","b":21,"n":"Setor Augusto José Valente II","m":"5218300","cx":-46.3632,"cy":-14.0812},"geometry":{"type":"Polygon","coordinates":[[[-46.3668,-14.0834],[-46.3668,-14.0799],[-46.3668,-14.0798],[-46.3623,-14.0805],[-46.3619,-14.0804],[-46.3597,-14.0788],[-46.3596,-14.0822],[-46.3584,-14.082],[-46.3584,-14.0846],[-46.3634,-14.0847],[-46.3661,-14.0848],[-46.3668,-14.0847],[-46.3668,-14.0834]]]}},{"type":"Feature","properties":{"c":"b22","b":22,"n":"Setor Buenos Aires","m":"5218300","cx":-46.3476,"cy":-14.0873},"geometry":{"type":"Polygon","coordinates":[[[-46.352,-14.0759],[-46.3584,-14.0792],[-46.3597,-14.0788],[-46.3619,-14.0804],[-46.3623,-14.0805],[-46.3668,-14.0798],[-46.3667,-14.0791],[-46.3673,-14.079],[-46.3664,-14.0744],[-46.3609,-14.075],[-46.3588,-14.0729],[-46.3526,-14.0666],[-46.3503,-14.0687],[-46.3478,-14.0662],[-46.3463,-14.0638],[-46.3445,-14.0629],[-46.3407,-14.069],[-46.3383,-14.0678],[-46.3381,-14.0681],[-46.3357,-14.0706],[-46.3336,-14.0711],[-46.3337,-14.0718],[-46.3333,-14.0732],[-46.3323,-14.0736],[-46.3298,-14.0744],[-46.3302,-14.0762],[-46.329,-14.0759],[-46.3304,-14.0766],[-46.334,-14.0774],[-46.3395,-14.0785],[-46.338,-14.0859],[-46.3406,-14.0859],[-46.3413,-14.0857],[-46.3426,-14.0858],[-46.3435,-14.0866],[-46.3453,-14.0869],[-46.3458,-14.0877],[-46.3476,-14.0888],[-46.3482,-14.0895],[-46.3405,-14.0965],[-46.3401,-14.0961],[-46.3397,-14.0965],[-46.3391,-14.0958],[-46.3369,-14.0959],[-46.3355,-14.0972],[-46.3358,-14.0974],[-46.3348,-14.0983],[-46.3346,-14.098],[-46.3321,-14.1003],[-46.3314,-14.0995],[-46.3307,-14.0996],[-46.3299,-14.1003],[-46.3309,-14.1014],[-46.3303,-14.102],[-46.3321,-14.1056],[-46.3264,-14.1076],[-46.3273,-14.11],[-46.3283,-14.1097],[-46.3288,-14.1117],[-46.3338,-14.1101],[-46.335,-14.1102],[-46.3352,-14.1112],[-46.3449,-14.1076],[-46.3455,-14.1091],[-46.3489,-14.1079],[-46.3495,-14.1066],[-46.3501,-14.1058],[-46.3521,-14.1039],[-46.3531,-14.1021],[-46.3542,-14.1009],[-46.3561,-14.0994],[-46.359,-14.0985],[-46.3596,-14.0977],[-46.3587,-14.0977],[-46.3577,-14.0966],[-46.3574,-14.0958],[-46.3567,-14.0928],[-46.3566,-14.0925],[-46.3562,-14.0924],[-46.3548,-14.0929],[-46.3531,-14.0923],[-46.3529,-14.0919],[-46.3515,-14.0915],[-46.3505,-14.091],[-46.35,-14.0903],[-46.3495,-14.0901],[-46.3498,-14.0816],[-46.3498,-14.0804],[-46.3464,-14.0797],[-46.3442,-14.0794],[-46.3419,-14.0789],[-46.3418,-14.0788],[-46.3427,-14.0746],[-46.3429,-14.0705],[-46.343,-14.0704],[-46.3452,-14.0719],[-46.35,-14.0747],[-46.352,-14.0759]]]}},{"type":"Feature","properties":{"c":"b23","b":23,"n":"Setor Central","m":"5218300","cx":-46.3682,"cy":-14.0923},"geometry":{"type":"Polygon","coordinates":[[[-46.3627,-14.0936],[-46.3626,-14.0949],[-46.3626,-14.095],[-46.3661,-14.0951],[-46.367,-14.0951],[-46.3693,-14.094],[-46.3704,-14.094],[-46.3711,-14.0942],[-46.3732,-14.0953],[-46.3734,-14.0948],[-46.3734,-14.0932],[-46.3739,-14.0915],[-46.374,-14.0905],[-46.3736,-14.0897],[-46.3737,-14.089],[-46.3687,-14.0898],[-46.3685,-14.0909],[-46.3674,-14.0908],[-46.363,-14.0907],[-46.3627,-14.0936]]]}},{"type":"Feature","properties":{"c":"b24","b":24,"n":"Setor Dom Prudêncio","m":"5218300","cx":-46.3598,"cy":-14.0932},"geometry":{"type":"Polygon","coordinates":[[[-46.3626,-14.0949],[-46.3627,-14.0936],[-46.363,-14.0907],[-46.3594,-14.0906],[-46.3594,-14.0908],[-46.3581,-14.0903],[-46.3566,-14.0925],[-46.3567,-14.0928],[-46.3574,-14.0958],[-46.3577,-14.0966],[-46.3626,-14.0949]]]}},{"type":"Feature","properties":{"c":"b25","b":25,"n":"Setor Guarani","m":"5218300","cx":-46.3524,"cy":-14.0773},"geometry":{"type":"Polygon","coordinates":[[[-46.3498,-14.0804],[-46.3584,-14.082],[-46.3596,-14.0822],[-46.3597,-14.0788],[-46.3584,-14.0792],[-46.352,-14.0759],[-46.35,-14.0747],[-46.3498,-14.0804]]]}},{"type":"Feature","properties":{"c":"b26","b":26,"n":"Setor Mãe Bela","m":"5218300","cx":-46.3461,"cy":-14.0767},"geometry":{"type":"Polygon","coordinates":[[[-46.3452,-14.0719],[-46.343,-14.0704],[-46.3429,-14.0705],[-46.3427,-14.0746],[-46.3418,-14.0788],[-46.3419,-14.0789],[-46.3442,-14.0794],[-46.3464,-14.0797],[-46.3498,-14.0804],[-46.35,-14.0747],[-46.3452,-14.0719]]]}},{"type":"Feature","properties":{"c":"b27","b":27,"n":"Setor Santa Luzia","m":"5218300","cx":-46.3539,"cy":-14.0882},"geometry":{"type":"Polygon","coordinates":[[[-46.3584,-14.082],[-46.3498,-14.0804],[-46.3498,-14.0816],[-46.3495,-14.0901],[-46.35,-14.0903],[-46.3505,-14.091],[-46.3515,-14.0915],[-46.3529,-14.0919],[-46.3531,-14.0923],[-46.3548,-14.0929],[-46.3562,-14.0924],[-46.3566,-14.0925],[-46.3581,-14.0903],[-46.3583,-14.0863],[-46.3584,-14.0846],[-46.3584,-14.082]]]}},{"type":"Feature","properties":{"c":"b28","b":28,"n":"Setor Vila Morena","m":"5218300","cx":-46.3692,"cy":-14.0997},"geometry":{"type":"Polygon","coordinates":[[[-46.3749,-14.1018],[-46.3744,-14.101],[-46.3744,-14.1003],[-46.374,-14.0995],[-46.374,-14.099],[-46.3733,-14.098],[-46.3729,-14.0966],[-46.3732,-14.0953],[-46.3711,-14.0942],[-46.3704,-14.094],[-46.3693,-14.094],[-46.367,-14.0951],[-46.3661,-14.0951],[-46.3626,-14.095],[-46.3626,-14.0949],[-46.3577,-14.0966],[-46.3587,-14.0977],[-46.3596,-14.0977],[-46.3601,-14.0977],[-46.3614,-14.0979],[-46.3622,-14.0977],[-46.3626,-14.0981],[-46.3635,-14.0985],[-46.3642,-14.0993],[-46.3643,-14.1002],[-46.3651,-14.1003],[-46.3657,-14.1],[-46.3662,-14.1002],[-46.3665,-14.1011],[-46.3669,-14.1017],[-46.3683,-14.102],[-46.3689,-14.1026],[-46.3691,-14.1043],[-46.3694,-14.1052],[-46.3703,-14.1058],[-46.3708,-14.106],[-46.3728,-14.1051],[-46.3739,-14.1056],[-46.3743,-14.1045],[-46.3751,-14.1034],[-46.3754,-14.1024],[-46.3749,-14.1018]]]}},{"type":"Feature","properties":{"c":"b29","b":29,"n":"Setor dos Funcionários","m":"5218300","cx":-46.3713,"cy":-14.0874},"geometry":{"type":"Polygon","coordinates":[[[-46.3668,-14.0847],[-46.3668,-14.0866],[-46.3674,-14.0866],[-46.3675,-14.0887],[-46.3674,-14.0908],[-46.3685,-14.0909],[-46.3687,-14.0898],[-46.3737,-14.089],[-46.3741,-14.0889],[-46.3748,-14.0882],[-46.3757,-14.0867],[-46.3757,-14.0849],[-46.3739,-14.0846],[-46.3732,-14.0841],[-46.3719,-14.0834],[-46.3668,-14.0834],[-46.3668,-14.0847]]]}},{"type":"Feature","properties":{"c":"b30","b":30,"n":"Vale do Amanhecer","m":"5218300","cx":-46.3759,"cy":-14.0818},"geometry":{"type":"Polygon","coordinates":[[[-46.3765,-14.0851],[-46.3767,-14.0836],[-46.3772,-14.082],[-46.3774,-14.0809],[-46.3778,-14.0792],[-46.3756,-14.0784],[-46.3752,-14.0796],[-46.3748,-14.0806],[-46.3746,-14.0817],[-46.3739,-14.0832],[-46.3732,-14.0841],[-46.3739,-14.0846],[-46.3757,-14.0849],[-46.3765,-14.0851]]]}},{"type":"Feature","properties":{"c":"b31","b":31,"n":"Vila São José","m":"5218300","cx":-46.3785,"cy":-14.0918},"geometry":{"type":"Polygon","coordinates":[[[-46.3772,-14.082],[-46.3767,-14.0836],[-46.3765,-14.0851],[-46.3757,-14.0849],[-46.3757,-14.0867],[-46.3748,-14.0882],[-46.3741,-14.0889],[-46.3737,-14.089],[-46.3736,-14.0897],[-46.374,-14.0905],[-46.3739,-14.0915],[-46.3734,-14.0932],[-46.3734,-14.0948],[-46.3732,-14.0953],[-46.3729,-14.0966],[-46.3733,-14.098],[-46.374,-14.099],[-46.374,-14.0995],[-46.3744,-14.1003],[-46.3744,-14.101],[-46.3749,-14.1018],[-46.3754,-14.1024],[-46.3771,-14.102],[-46.3785,-14.1015],[-46.3796,-14.1015],[-46.3814,-14.1026],[-46.3826,-14.1007],[-46.3818,-14.0985],[-46.3816,-14.0978],[-46.3826,-14.0979],[-46.3848,-14.0974],[-46.3858,-14.0975],[-46.3863,-14.0968],[-46.3843,-14.0946],[-46.3836,-14.0937],[-46.3831,-14.0922],[-46.3835,-14.0895],[-46.3827,-14.0888],[-46.382,-14.0889],[-46.3806,-14.0895],[-46.3798,-14.0897],[-46.3792,-14.0891],[-46.3802,-14.0881],[-46.3806,-14.0873],[-46.3812,-14.0875],[-46.3814,-14.0872],[-46.3817,-14.0859],[-46.3828,-14.0848],[-46.383,-14.0828],[-46.3832,-14.0823],[-46.3774,-14.0809],[-46.3772,-14.082]]]}}]}