{"type":"FeatureCollection","features":[{"type":"Feature","properties":{"c":"b0","b":0,"n":"5 de Outubro","m":"1400100","cx":-60.633,"cy":2.8552},"geometry":{"type":"Polygon","coordinates":[[[-60.6433,2.8491],[-60.6428,2.8497],[-60.6455,2.8521],[-60.6361,2.8633],[-60.629,2.861],[-60.6254,2.8595],[-60.6239,2.8596],[-60.6231,2.8592],[-60.6223,2.8586],[-60.6221,2.8577],[-60.6226,2.8557],[-60.6236,2.8546],[-60.625,2.8543],[-60.6262,2.8545],[-60.6286,2.8547],[-60.6298,2.8542],[-60.6317,2.8522],[-60.6373,2.8489],[-60.6402,2.8465],[-60.6406,2.8468],[-60.6433,2.8491]]]}},{"type":"Feature","properties":{"c":"b1","b":1,"n":"Aeroporto","m":"1400100","cx":-60.6872,"cy":2.849},"geometry":{"type":"Polygon","coordinates":[[[-60.7114,2.8397],[-60.7064,2.8472],[-60.7026,2.8527],[-60.6988,2.8585],[-60.6966,2.8667],[-60.6969,2.8697],[-60.6951,2.8698],[-60.6937,2.8693],[-60.6925,2.8686],[-60.691,2.8669],[-60.6904,2.8665],[-60.6887,2.8662],[-60.6858,2.8668],[-60.6849,2.8666],[-60.6842,2.866],[-60.6836,2.8645],[-60.683,2.8643],[-60.6823,2.8654],[-60.682,2.8671],[-60.6815,2.8682],[-60.6801,2.869],[-60.679,2.8693],[-60.6767,2.8696],[-60.6758,2.8701],[-60.6693,2.8583],[-60.6655,2.8512],[-60.6656,2.8507],[-60.6736,2.8468],[-60.6765,2.8454],[-60.6882,2.8396],[-60.6852,2.834],[-60.6862,2.8334],[-60.6916,2.8303],[-60.6973,2.8272],[-60.6981,2.8291],[-60.7007,2.8361],[-60.7038,2.8349],[-60.7108,2.8328],[-60.7129,2.8371],[-60.7114,2.8397]]]}},{"type":"Feature","properties":{"c":"b2","b":2,"n":"Alvorada","m":"1400100","cx":-60.7515,"cy":2.8226},"geometry":{"type":"Polygon","coordinates":[[[-60.749,2.8131],[-60.749,2.8134],[-60.7515,2.8132],[-60.7575,2.8128],[-60.7577,2.8158],[-60.7576,2.8189],[-60.7572,2.8269],[-60.7549,2.828],[-60.7541,2.8281],[-60.7518,2.8283],[-60.7498,2.8288],[-60.748,2.8287],[-60.7457,2.8309],[-60.7451,2.8297],[-60.7449,2.8285],[-60.7453,2.8284],[-60.7454,2.8241],[-60.7457,2.8211],[-60.7456,2.8166],[-60.7458,2.8166],[-60.7456,2.8133],[-60.749,2.8131]]]}},{"type":"Feature","properties":{"c":"b3","b":3,"n":"Aparecida","m":"1400100","cx":-60.6629,"cy":2.8385},"geometry":{"type":"Polygon","coordinates":[[[-60.6591,2.8365],[-60.6608,2.8346],[-60.6637,2.8313],[-60.6651,2.8297],[-60.6697,2.8336],[-60.6672,2.8438],[-60.6628,2.8462],[-60.662,2.8447],[-60.6607,2.8427],[-60.6601,2.8426],[-60.657,2.8416],[-60.6557,2.8405],[-60.6591,2.8365]]]}},{"type":"Feature","properties":{"c":"b4","b":4,"n":"Asa Branca","m":"1400100","cx":-60.72,"cy":2.8127},"geometry":{"type":"Polygon","coordinates":[[[-60.7283,2.8166],[-60.7285,2.8176],[-60.7215,2.8181],[-60.7156,2.8184],[-60.7129,2.8187],[-60.7115,2.8081],[-60.7138,2.8086],[-60.7154,2.8086],[-60.717,2.8082],[-60.7171,2.808],[-60.7185,2.8088],[-60.7221,2.8085],[-60.7272,2.8081],[-60.7283,2.8166]]]}},{"type":"Feature","properties":{"c":"b5","b":5,"n":"Bela Vista","m":"1400100","cx":-60.7259,"cy":2.7712},"geometry":{"type":"Polygon","coordinates":[[[-60.7286,2.7681],[-60.7302,2.7702],[-60.7326,2.7734],[-60.7331,2.7734],[-60.7337,2.7743],[-60.734,2.7749],[-60.7326,2.7752],[-60.7316,2.7752],[-60.7296,2.7743],[-60.7279,2.7747],[-60.7267,2.7757],[-60.7257,2.7768],[-60.7251,2.7765],[-60.7239,2.7751],[-60.7216,2.7721],[-60.7188,2.7686],[-60.723,2.7654],[-60.7251,2.7636],[-60.7286,2.7681]]]}},{"type":"Feature","properties":{"c":"b6","b":6,"n":"Buritis","m":"1400100","cx":-60.7089,"cy":2.8173},"geometry":{"type":"Polygon","coordinates":[[[-60.7047,2.8145],[-60.7042,2.8109],[-60.7037,2.807],[-60.7064,2.8071],[-60.7083,2.8069],[-60.7108,2.8078],[-60.7115,2.8081],[-60.7129,2.8187],[-60.713,2.8236],[-60.7127,2.8273],[-60.7051,2.8258],[-60.7054,2.8231],[-60.7053,2.8192],[-60.7048,2.8158],[-60.7047,2.8145]]]}},{"type":"Feature","properties":{"c":"b7","b":7,"n":"Caimbé","m":"1400100","cx":-60.717,"cy":2.8255},"geometry":{"type":"Polygon","coordinates":[[[-60.7156,2.8184],[-60.7215,2.8181],[-60.7209,2.829],[-60.7205,2.8337],[-60.7199,2.8335],[-60.714,2.8321],[-60.7136,2.8295],[-60.7133,2.8275],[-60.7127,2.8273],[-60.713,2.8236],[-60.7129,2.8187],[-60.7156,2.8184]]]}},{"type":"Feature","properties":{"c":"b8","b":8,"n":"Calunga","m":"1400100","cx":-60.6745,"cy":2.8053},"geometry":{"type":"Polygon","coordinates":[[[-60.6709,2.8107],[-60.6702,2.8105],[-60.6704,2.8101],[-60.6704,2.8074],[-60.6702,2.8064],[-60.6716,2.8041],[-60.6727,2.8025],[-60.6754,2.7994],[-60.6758,2.7987],[-60.6811,2.8016],[-60.6812,2.8017],[-60.677,2.8065],[-60.6727,2.8114],[-60.6709,2.8107]]]}},{"type":"Feature","properties":{"c":"b9","b":9,"n":"Cambará","m":"1400100","cx":-60.7319,"cy":2.8139},"geometry":{"type":"Polygon","coordinates":[[[-60.7338,2.8075],[-60.7345,2.8074],[-60.736,2.8082],[-60.7358,2.8089],[-60.7356,2.8095],[-60.7357,2.8111],[-60.7361,2.8171],[-60.7339,2.8173],[-60.7327,2.8173],[-60.7285,2.8176],[-60.7283,2.8166],[-60.7272,2.8081],[-60.7338,2.8075]]]}},{"type":"Feature","properties":{"c":"b10","b":10,"n":"Canarinho","m":"1400100","cx":-60.6578,"cy":2.8328},"geometry":{"type":"Polygon","coordinates":[[[-60.6521,2.8338],[-60.6543,2.8317],[-60.6551,2.8305],[-60.6562,2.8295],[-60.6568,2.8287],[-60.657,2.8278],[-60.6578,2.826],[-60.6578,2.8264],[-60.6595,2.8277],[-60.6637,2.8313],[-60.6608,2.8346],[-60.6591,2.8365],[-60.6557,2.8405],[-60.6542,2.8393],[-60.6523,2.837],[-60.6518,2.8367],[-60.6512,2.8357],[-60.6521,2.8338]]]}},{"type":"Feature","properties":{"c":"b11","b":11,"n":"Caranã","m":"1400100","cx":-60.7203,"cy":2.8414},"geometry":{"type":"Polygon","coordinates":[[[-60.7288,2.8357],[-60.7288,2.8377],[-60.7287,2.8398],[-60.7279,2.8429],[-60.727,2.8447],[-60.7265,2.8457],[-60.7246,2.8482],[-60.7241,2.8491],[-60.7228,2.8509],[-60.7222,2.8502],[-60.7214,2.8508],[-60.7196,2.8517],[-60.7184,2.8522],[-60.7174,2.8514],[-60.7166,2.8489],[-60.7162,2.8491],[-60.7158,2.8482],[-60.7149,2.8464],[-60.714,2.8447],[-60.7114,2.8397],[-60.7129,2.8371],[-60.7199,2.8335],[-60.7205,2.8337],[-60.7273,2.8353],[-60.7288,2.8357]]]}},{"type":"Feature","properties":{"c":"b12","b":12,"n":"Cauamé","m":"1400100","cx":-60.7111,"cy":2.8549},"geometry":{"type":"Polygon","coordinates":[[[-60.7205,2.8539],[-60.7207,2.8542],[-60.7218,2.8568],[-60.722,2.8588],[-60.7226,2.8592],[-60.7257,2.8579],[-60.7272,2.8568],[-60.7281,2.8559],[-60.7288,2.8545],[-60.7293,2.8526],[-60.7293,2.8523],[-60.7311,2.8535],[-60.7336,2.8547],[-60.7354,2.8552],[-60.7338,2.8632],[-60.7329,2.8621],[-60.7319,2.861],[-60.7313,2.8608],[-60.7293,2.8609],[-60.7279,2.8612],[-60.7259,2.8618],[-60.7253,2.8622],[-60.724,2.8624],[-60.7228,2.8622],[-60.7203,2.8603],[-60.7192,2.8601],[-60.7181,2.8605],[-60.7164,2.8626],[-60.7155,2.863],[-60.7151,2.8629],[-60.7136,2.8622],[-60.7126,2.8613],[-60.7119,2.8603],[-60.7112,2.8596],[-60.7104,2.8593],[-60.7094,2.8595],[-60.7088,2.8602],[-60.7085,2.8613],[-60.7085,2.8624],[-60.7053,2.8627],[-60.7023,2.8624],[-60.7008,2.8624],[-60.7,2.863],[-60.6986,2.8652],[-60.6983,2.8674],[-60.6978,2.869],[-60.6969,2.8697],[-60.6966,2.8667],[-60.6988,2.8585],[-60.7026,2.8527],[-60.7064,2.8472],[-60.7114,2.8397],[-60.714,2.8447],[-60.7149,2.8464],[-60.7158,2.8482],[-60.7162,2.8491],[-60.7166,2.8489],[-60.7174,2.8514],[-60.7184,2.8522],[-60.7205,2.8539]]]}},{"type":"Feature","properties":{"c":"b13","b":13,"n":"Caçari","m":"1400100","cx":-60.6512,"cy":2.8504},"geometry":{"type":"Polygon","coordinates":[[[-60.657,2.8416],[-60.6601,2.8426],[-60.6607,2.8427],[-60.662,2.8447],[-60.6612,2.8447],[-60.6604,2.8455],[-60.6595,2.8469],[-60.6592,2.8484],[-60.6595,2.8484],[-60.6595,2.8497],[-60.6583,2.8511],[-60.6523,2.858],[-60.6529,2.8586],[-60.6502,2.8618],[-60.6462,2.8656],[-60.6361,2.8633],[-60.6455,2.8521],[-60.6428,2.8497],[-60.6433,2.8491],[-60.6406,2.8468],[-60.6427,2.8451],[-60.6438,2.844],[-60.6446,2.8427],[-60.6464,2.8409],[-60.6481,2.8391],[-60.6495,2.8373],[-60.6512,2.8357],[-60.6518,2.8367],[-60.6523,2.837],[-60.6542,2.8393],[-60.6557,2.8405],[-60.657,2.8416]]]}},{"type":"Feature","properties":{"c":"b14","b":14,"n":"Centenário","m":"1400100","cx":-60.7091,"cy":2.7925},"geometry":{"type":"Polygon","coordinates":[[[-60.7197,2.7945],[-60.7174,2.8023],[-60.717,2.8025],[-60.7161,2.8019],[-60.7122,2.8006],[-60.7092,2.7995],[-60.7071,2.7988],[-60.7062,2.7986],[-60.6983,2.7962],[-60.6985,2.7941],[-60.6989,2.7894],[-60.699,2.7884],[-60.6999,2.7863],[-60.7007,2.7851],[-60.702,2.7835],[-60.7028,2.7847],[-60.7037,2.7858],[-60.7054,2.7873],[-60.7061,2.7877],[-60.7078,2.7889],[-60.7102,2.79],[-60.7117,2.7906],[-60.7134,2.7909],[-60.7154,2.7911],[-60.7184,2.7916],[-60.719,2.7919],[-60.7202,2.7931],[-60.7197,2.7945]]]}},{"type":"Feature","properties":{"c":"b15","b":15,"n":"Centro","m":"1400100","cx":-60.6721,"cy":2.8198},"geometry":{"type":"Polygon","coordinates":[[[-60.6804,2.8195],[-60.6805,2.8215],[-60.6801,2.8236],[-60.6794,2.8252],[-60.6784,2.8264],[-60.6762,2.8281],[-60.6743,2.8287],[-60.6726,2.8288],[-60.6709,2.8286],[-60.6692,2.828],[-60.6676,2.8269],[-60.6649,2.8244],[-60.6618,2.8218],[-60.6635,2.82],[-60.6649,2.8187],[-60.6656,2.8172],[-60.6668,2.8155],[-60.6674,2.8143],[-60.6686,2.8128],[-60.6696,2.8118],[-60.6702,2.8105],[-60.6709,2.8107],[-60.6727,2.8114],[-60.6751,2.8128],[-60.6773,2.8142],[-60.6783,2.8146],[-60.6779,2.8151],[-60.6791,2.8164],[-60.6801,2.8182],[-60.6804,2.8195]]]}},{"type":"Feature","properties":{"c":"b16","b":16,"n":"Cidade Satélite","m":"1400100","cx":-60.7413,"cy":2.8529},"geometry":{"type":"Polygon","coordinates":[[[-60.7354,2.8552],[-60.7336,2.8547],[-60.7311,2.8535],[-60.7293,2.8523],[-60.7294,2.8516],[-60.73,2.8513],[-60.7304,2.8505],[-60.7306,2.8496],[-60.7311,2.8491],[-60.7318,2.8475],[-60.732,2.8459],[-60.7329,2.8439],[-60.7356,2.8411],[-60.7363,2.8401],[-60.7371,2.8388],[-60.7387,2.8397],[-60.7397,2.8397],[-60.7564,2.8362],[-60.7551,2.8406],[-60.7547,2.8417],[-60.7524,2.8489],[-60.7544,2.8499],[-60.753,2.8522],[-60.7501,2.8559],[-60.7478,2.8587],[-60.747,2.8603],[-60.7458,2.8622],[-60.745,2.8628],[-60.7443,2.8646],[-60.7423,2.8673],[-60.7411,2.8686],[-60.7405,2.8689],[-60.7387,2.8679],[-60.7374,2.8669],[-60.7359,2.8659],[-60.7351,2.8652],[-60.7338,2.8632],[-60.7354,2.8552]]]}},{"type":"Feature","properties":{"c":"b17","b":17,"n":"Cinturão Verde","m":"1400100","cx":-60.7073,"cy":2.8022},"geometry":{"type":"Polygon","coordinates":[[[-60.7163,2.8054],[-60.7156,2.8076],[-60.7154,2.8086],[-60.7138,2.8086],[-60.7115,2.8081],[-60.7108,2.8078],[-60.7083,2.8069],[-60.7064,2.8071],[-60.7037,2.807],[-60.7025,2.807],[-60.7014,2.8065],[-60.7003,2.8044],[-60.6987,2.8028],[-60.6961,2.8],[-60.6973,2.7984],[-60.6983,2.7962],[-60.7062,2.7986],[-60.7071,2.7988],[-60.7092,2.7995],[-60.7122,2.8006],[-60.7161,2.8019],[-60.717,2.8025],[-60.7163,2.8054]]]}},{"type":"Feature","properties":{"c":"b18","b":18,"n":"Doutor Airton Rocha","m":"1400100","cx":-60.7584,"cy":2.7694},"geometry":{"type":"Polygon","coordinates":[[[-60.7744,2.7822],[-60.7703,2.7899],[-60.7674,2.7933],[-60.7674,2.7935],[-60.7638,2.7902],[-60.7622,2.7889],[-60.7591,2.7861],[-60.7587,2.7859],[-60.7573,2.7841],[-60.7553,2.7817],[-60.7505,2.7754],[-60.7499,2.7748],[-60.7444,2.7679],[-60.7425,2.7653],[-60.7353,2.7556],[-60.7376,2.7538],[-60.7456,2.7476],[-60.7478,2.746],[-60.749,2.7449],[-60.7583,2.7481],[-60.7663,2.7543],[-60.7677,2.7616],[-60.772,2.7708],[-60.7803,2.7734],[-60.7744,2.7822]]]}},{"type":"Feature","properties":{"c":"b19","b":19,"n":"Dr. Silvio Botelho","m":"1400100","cx":-60.7413,"cy":2.8031},"geometry":{"type":"Polygon","coordinates":[[[-60.736,2.8082],[-60.7361,2.8082],[-60.737,2.8054],[-60.7373,2.8042],[-60.7379,2.802],[-60.7388,2.7992],[-60.7402,2.7957],[-60.7476,2.7953],[-60.7479,2.8008],[-60.7449,2.8009],[-60.7453,2.8086],[-60.7378,2.8089],[-60.7378,2.8087],[-60.7358,2.8089],[-60.736,2.8082]]]}},{"type":"Feature","properties":{"c":"b20","b":20,"n":"Dr. Silvio Leite","m":"1400100","cx":-60.7412,"cy":2.8254},"geometry":{"type":"Polygon","coordinates":[[[-60.7457,2.8211],[-60.7454,2.8241],[-60.7453,2.8284],[-60.7449,2.8285],[-60.7451,2.8297],[-60.7457,2.8309],[-60.7447,2.8318],[-60.7427,2.8333],[-60.7412,2.8349],[-60.7405,2.8331],[-60.7385,2.8287],[-60.7376,2.8267],[-60.7343,2.8185],[-60.7339,2.8173],[-60.7361,2.8171],[-60.7383,2.817],[-60.7456,2.8166],[-60.7457,2.8211]]]}},{"type":"Feature","properties":{"c":"b21","b":21,"n":"Governador Aquilino Mota Duarte","m":"1400100","cx":-60.7113,"cy":2.7674},"geometry":{"type":"Polygon","coordinates":[[[-60.7282,2.7612],[-60.7251,2.7636],[-60.723,2.7654],[-60.7188,2.7686],[-60.7171,2.7699],[-60.7147,2.7718],[-60.7103,2.7753],[-60.7077,2.7777],[-60.7071,2.7772],[-60.7043,2.7738],[-60.7032,2.7737],[-60.6995,2.7729],[-60.6985,2.7726],[-60.6975,2.771],[-60.7038,2.7661],[-60.7015,2.7626],[-60.7035,2.7604],[-60.7059,2.7576],[-60.7079,2.756],[-60.7108,2.7589],[-60.7144,2.756],[-60.7165,2.7588],[-60.7189,2.7568],[-60.7213,2.7587],[-60.7227,2.7605],[-60.7288,2.7558],[-60.7311,2.7589],[-60.7282,2.7612]]]}},{"type":"Feature","properties":{"c":"b22","b":22,"n":"Jardim Caranã","m":"1400100","cx":-60.7244,"cy":2.8533},"geometry":{"type":"Polygon","coordinates":[[[-60.7253,2.8487],[-60.7293,2.8526],[-60.7288,2.8545],[-60.7281,2.8559],[-60.7272,2.8568],[-60.7257,2.8579],[-60.7226,2.8592],[-60.722,2.8588],[-60.7218,2.8568],[-60.7207,2.8542],[-60.7205,2.8539],[-60.7184,2.8522],[-60.7196,2.8517],[-60.7214,2.8508],[-60.7222,2.8502],[-60.7228,2.8509],[-60.7241,2.8491],[-60.7246,2.8482],[-60.7253,2.8487]]]}},{"type":"Feature","properties":{"c":"b23","b":23,"n":"Jardim Equatorial","m":"1400100","cx":-60.7691,"cy":2.8179},"geometry":{"type":"Polygon","coordinates":[[[-60.7599,2.8127],[-60.7637,2.8125],[-60.7678,2.8122],[-60.7678,2.8109],[-60.7688,2.8109],[-60.769,2.8099],[-60.7721,2.8096],[-60.7778,2.8087],[-60.779,2.8094],[-60.779,2.8107],[-60.7796,2.8119],[-60.7802,2.8127],[-60.7809,2.8155],[-60.7812,2.8173],[-60.7798,2.8185],[-60.7792,2.8188],[-60.7773,2.8185],[-60.7762,2.8185],[-60.7746,2.819],[-60.7736,2.8196],[-60.7724,2.8211],[-60.7718,2.8219],[-60.7691,2.8234],[-60.7683,2.8239],[-60.7675,2.8248],[-60.7655,2.8263],[-60.7626,2.8267],[-60.7606,2.8263],[-60.7595,2.8263],[-60.7572,2.8269],[-60.7576,2.8189],[-60.7577,2.8158],[-60.7575,2.8128],[-60.7599,2.8127]]]}},{"type":"Feature","properties":{"c":"b24","b":24,"n":"Jardim Floresta","m":"1400100","cx":-60.7063,"cy":2.8308},"geometry":{"type":"Polygon","coordinates":[[[-60.7133,2.8275],[-60.7136,2.8295],[-60.714,2.8321],[-60.7199,2.8335],[-60.7129,2.8371],[-60.7108,2.8328],[-60.7038,2.8349],[-60.7007,2.8361],[-60.6981,2.8291],[-60.6973,2.8272],[-60.6962,2.8242],[-60.6992,2.8247],[-60.7051,2.8258],[-60.7127,2.8273],[-60.7133,2.8275]]]}},{"type":"Feature","properties":{"c":"b25","b":25,"n":"Jardim Primavera","m":"1400100","cx":-60.7352,"cy":2.827},"geometry":{"type":"Polygon","coordinates":[[[-60.7399,2.8362],[-60.7391,2.8345],[-60.7385,2.8347],[-60.7376,2.8326],[-60.736,2.8332],[-60.7353,2.8302],[-60.7343,2.8287],[-60.7335,2.8282],[-60.7328,2.8273],[-60.7322,2.8263],[-60.7327,2.8184],[-60.7327,2.8173],[-60.7339,2.8173],[-60.7343,2.8185],[-60.7376,2.8267],[-60.7385,2.8287],[-60.7405,2.8331],[-60.7412,2.8349],[-60.7399,2.8362]]]}},{"type":"Feature","properties":{"c":"b26","b":26,"n":"Jardim Tropical","m":"1400100","cx":-60.7342,"cy":2.796},"geometry":{"type":"Polygon","coordinates":[[[-60.7356,2.8032],[-60.7344,2.8019],[-60.7345,2.8027],[-60.7338,2.8027],[-60.7338,2.8021],[-60.7327,2.8031],[-60.7318,2.8017],[-60.7312,2.8012],[-60.73,2.8008],[-60.7296,2.8004],[-60.729,2.7994],[-60.7288,2.7971],[-60.7285,2.7963],[-60.7274,2.7946],[-60.7278,2.7931],[-60.7289,2.7924],[-60.7312,2.792],[-60.7334,2.7902],[-60.7349,2.7885],[-60.7363,2.7893],[-60.7378,2.7882],[-60.7397,2.7875],[-60.7412,2.7874],[-60.7412,2.7875],[-60.7415,2.7935],[-60.7408,2.7938],[-60.7402,2.7957],[-60.7388,2.7992],[-60.7379,2.802],[-60.7373,2.8042],[-60.7356,2.8032]]]}},{"type":"Feature","properties":{"c":"b27","b":27,"n":"Jóquei Clube","m":"1400100","cx":-60.7242,"cy":2.801},"geometry":{"type":"Polygon","coordinates":[[[-60.7285,2.7963],[-60.7288,2.7971],[-60.729,2.7994],[-60.7296,2.8004],[-60.73,2.8008],[-60.7312,2.8012],[-60.7318,2.8017],[-60.7327,2.8031],[-60.7332,2.8044],[-60.7341,2.8053],[-60.7325,2.8068],[-60.7334,2.8067],[-60.7338,2.8075],[-60.7272,2.8081],[-60.7221,2.8085],[-60.7185,2.8088],[-60.7171,2.808],[-60.717,2.8082],[-60.7154,2.8086],[-60.7156,2.8076],[-60.7163,2.8054],[-60.717,2.8025],[-60.7174,2.8023],[-60.7197,2.7945],[-60.7202,2.7931],[-60.7203,2.7932],[-60.721,2.7944],[-60.7216,2.7949],[-60.7227,2.7951],[-60.7238,2.7951],[-60.7247,2.7948],[-60.7274,2.7946],[-60.7285,2.7963]]]}},{"type":"Feature","properties":{"c":"b28","b":28,"n":"Laura Moreira","m":"1400100","cx":-60.7926,"cy":2.8019},"geometry":{"type":"Polygon","coordinates":[[[-60.7744,2.7822],[-60.7803,2.7734],[-60.7836,2.7731],[-60.7926,2.7781],[-60.7952,2.7808],[-60.795,2.7838],[-60.7933,2.7891],[-60.7948,2.7915],[-60.7976,2.7936],[-60.7985,2.7975],[-60.8008,2.7998],[-60.8014,2.8017],[-60.8007,2.8075],[-60.8013,2.8086],[-60.8035,2.8098],[-60.8036,2.8115],[-60.8055,2.8154],[-60.8074,2.8274],[-60.8054,2.8274],[-60.7905,2.8292],[-60.7816,2.8309],[-60.7811,2.825],[-60.7798,2.8185],[-60.7812,2.8173],[-60.7809,2.8155],[-60.7802,2.8127],[-60.7796,2.8119],[-60.779,2.8107],[-60.779,2.8094],[-60.7778,2.8087],[-60.7792,2.8085],[-60.7799,2.8076],[-60.7797,2.8068],[-60.7807,2.8054],[-60.7817,2.8045],[-60.7822,2.8037],[-60.7826,2.8039],[-60.7841,2.8022],[-60.7833,2.8016],[-60.7796,2.7982],[-60.7768,2.7959],[-60.773,2.7924],[-60.7703,2.7899],[-60.7744,2.7822]]]}},{"type":"Feature","properties":{"c":"b29","b":29,"n":"Liberdade","m":"1400100","cx":-60.7002,"cy":2.8212},"geometry":{"type":"Polygon","coordinates":[[[-60.6945,2.8175],[-60.6953,2.8167],[-60.6962,2.816],[-60.6982,2.8164],[-60.6995,2.8159],[-60.7048,2.8158],[-60.7053,2.8192],[-60.7054,2.8231],[-60.7051,2.8258],[-60.6992,2.8247],[-60.6962,2.8242],[-60.6938,2.8179],[-60.6945,2.8175]]]}},{"type":"Feature","properties":{"c":"b30","b":30,"n":"Marechal Rondon","m":"1400100","cx":-60.6921,"cy":2.7843},"geometry":{"type":"MultiPolygon","coordinates":[[[[-60.6853,2.7786],[-60.686,2.7762],[-60.6867,2.7744],[-60.6901,2.7682],[-60.691,2.769],[-60.6894,2.7731],[-60.6885,2.774],[-60.6884,2.7752],[-60.6881,2.7763],[-60.6885,2.7775],[-60.6895,2.7765],[-60.6918,2.7754],[-60.6939,2.7754],[-60.7,2.7771],[-60.7012,2.778],[-60.7012,2.7791],[-60.7014,2.7802],[-60.7016,2.7826],[-60.702,2.7835],[-60.7007,2.7851],[-60.6999,2.7863],[-60.699,2.7884],[-60.6989,2.7894],[-60.6985,2.7941],[-60.6983,2.7962],[-60.6973,2.7984],[-60.6961,2.8],[-60.6954,2.7991],[-60.6949,2.7988],[-60.6937,2.7971],[-60.693,2.7964],[-60.6916,2.7958],[-60.69,2.7956],[-60.6881,2.7957],[-60.687,2.7954],[-60.6855,2.7941],[-60.685,2.7929],[-60.6835,2.7915],[-60.6826,2.7912],[-60.6821,2.7914],[-60.6804,2.7904],[-60.6853,2.7786]]],[[[-60.6779,2.7814],[-60.6774,2.7816],[-60.6771,2.7813],[-60.6772,2.7808],[-60.6777,2.7799],[-60.6784,2.7792],[-60.68,2.7786],[-60.6788,2.7805],[-60.6779,2.7814]]],[[[-60.6846,2.7665],[-60.6847,2.767],[-60.6842,2.7683],[-60.683,2.7708],[-60.6827,2.7719],[-60.681,2.7753],[-60.6805,2.7762],[-60.6801,2.7772],[-60.679,2.7782],[-60.6775,2.7785],[-60.6765,2.7779],[-60.6758,2.7762],[-60.6768,2.7733],[-60.6781,2.7712],[-60.6793,2.7684],[-60.6806,2.7662],[-60.6814,2.7646],[-60.6824,2.7628],[-60.683,2.7633],[-60.6846,2.7665]]]]}},{"type":"Feature","properties":{"c":"b31","b":31,"n":"Mecejana","m":"1400100","cx":-60.6879,"cy":2.8225},"geometry":{"type":"Polygon","coordinates":[[[-60.6973,2.8272],[-60.6916,2.8303],[-60.6862,2.8334],[-60.6802,2.8281],[-60.6784,2.8264],[-60.6794,2.8252],[-60.6801,2.8236],[-60.6805,2.8215],[-60.6804,2.8195],[-60.6801,2.8182],[-60.6843,2.8165],[-60.6922,2.8135],[-60.6938,2.8179],[-60.6962,2.8242],[-60.6973,2.8272]]]}},{"type":"Feature","properties":{"c":"b32","b":32,"n":"Murilo Teixeira Cidade","m":"1400100","cx":-60.7527,"cy":2.8326},"geometry":{"type":"MultiPolygon","coordinates":[[[[-60.7738,2.8326],[-60.7691,2.8336],[-60.7682,2.8275],[-60.7679,2.8262],[-60.7688,2.826],[-60.7686,2.825],[-60.7695,2.8248],[-60.7691,2.8234],[-60.7718,2.8219],[-60.7724,2.8211],[-60.7738,2.8326]]],[[[-60.738,2.8377],[-60.7399,2.8362],[-60.7412,2.8349],[-60.7427,2.8333],[-60.7447,2.8318],[-60.7457,2.8309],[-60.748,2.8287],[-60.7498,2.8288],[-60.7518,2.8283],[-60.7541,2.8281],[-60.7549,2.828],[-60.7572,2.8269],[-60.7595,2.8263],[-60.7606,2.8263],[-60.761,2.8289],[-60.7621,2.835],[-60.7564,2.8362],[-60.7397,2.8397],[-60.7387,2.8397],[-60.7371,2.8388],[-60.738,2.8377]]]]}},{"type":"Feature","properties":{"c":"b33","b":33,"n":"Nova Canaã","m":"1400100","cx":-60.7408,"cy":2.8152},"geometry":{"type":"Polygon","coordinates":[[[-60.7458,2.8166],[-60.7456,2.8166],[-60.7383,2.817],[-60.7361,2.8171],[-60.7357,2.8111],[-60.7372,2.8111],[-60.7373,2.8126],[-60.7395,2.8124],[-60.7396,2.8139],[-60.7411,2.8138],[-60.7411,2.8137],[-60.7425,2.8135],[-60.7456,2.8133],[-60.7458,2.8166]]]}},{"type":"Feature","properties":{"c":"b34","b":34,"n":"Nova Cidade","m":"1400100","cx":-60.7338,"cy":2.7645},"geometry":{"type":"Polygon","coordinates":[[[-60.7282,2.7612],[-60.7311,2.7589],[-60.7325,2.7578],[-60.7353,2.7556],[-60.7425,2.7653],[-60.7444,2.7679],[-60.7425,2.7692],[-60.7369,2.7724],[-60.7337,2.7743],[-60.7331,2.7734],[-60.7326,2.7734],[-60.7302,2.7702],[-60.7286,2.7681],[-60.7251,2.7636],[-60.7282,2.7612]]]}},{"type":"Feature","properties":{"c":"b35","b":35,"n":"Olímpico","m":"1400100","cx":-60.7354,"cy":2.8049},"geometry":{"type":"Polygon","coordinates":[[[-60.7334,2.8067],[-60.7325,2.8068],[-60.7341,2.8053],[-60.7332,2.8044],[-60.7327,2.8031],[-60.7338,2.8021],[-60.7338,2.8027],[-60.7345,2.8027],[-60.7344,2.8019],[-60.7356,2.8032],[-60.7373,2.8042],[-60.737,2.8054],[-60.7361,2.8082],[-60.736,2.8082],[-60.7345,2.8074],[-60.7338,2.8075],[-60.7334,2.8067]]]}},{"type":"Feature","properties":{"c":"b36","b":36,"n":"Operário","m":"1400100","cx":-60.7408,"cy":2.7793},"geometry":{"type":"Polygon","coordinates":[[[-60.756,2.7846],[-60.7524,2.7867],[-60.7514,2.7871],[-60.7484,2.7868],[-60.7487,2.7881],[-60.7524,2.7887],[-60.7539,2.7906],[-60.7539,2.7937],[-60.7515,2.793],[-60.7493,2.7918],[-60.7485,2.7916],[-60.7473,2.7908],[-60.7449,2.7888],[-60.7412,2.7875],[-60.7412,2.7874],[-60.7397,2.7875],[-60.7378,2.7882],[-60.7353,2.7859],[-60.7343,2.7849],[-60.7341,2.7851],[-60.7257,2.7768],[-60.7267,2.7757],[-60.7279,2.7747],[-60.7296,2.7743],[-60.7316,2.7752],[-60.7326,2.7752],[-60.734,2.7749],[-60.7337,2.7743],[-60.7369,2.7724],[-60.7425,2.7692],[-60.7444,2.7679],[-60.7499,2.7748],[-60.7505,2.7754],[-60.7553,2.7817],[-60.7573,2.7841],[-60.756,2.7846]]]}},{"type":"Feature","properties":{"c":"b37","b":37,"n":"Paraviana","m":"1400100","cx":-60.6613,"cy":2.8546},"geometry":{"type":"Polygon","coordinates":[[[-60.6628,2.8462],[-60.6655,2.8512],[-60.6693,2.8583],[-60.6758,2.8701],[-60.6736,2.87],[-60.6702,2.8682],[-60.6648,2.8662],[-60.6559,2.8651],[-60.6462,2.8656],[-60.6502,2.8618],[-60.6529,2.8586],[-60.6523,2.858],[-60.6583,2.8511],[-60.6595,2.8497],[-60.6595,2.8484],[-60.6592,2.8484],[-60.6595,2.8469],[-60.6604,2.8455],[-60.6612,2.8447],[-60.662,2.8447],[-60.6628,2.8462]]]}},{"type":"Feature","properties":{"c":"b38","b":38,"n":"Pintolândia","m":"1400100","cx":-60.7482,"cy":2.8067},"geometry":{"type":"MultiPolygon","coordinates":[[[[-60.7511,2.8047],[-60.7507,2.7978],[-60.752,2.7977],[-60.7523,2.8046],[-60.7511,2.8047]]],[[[-60.7356,2.8095],[-60.7358,2.8089],[-60.7378,2.8087],[-60.7378,2.8089],[-60.7453,2.8086],[-60.7449,2.8009],[-60.7479,2.8008],[-60.7496,2.8007],[-60.7499,2.8048],[-60.7511,2.8047],[-60.7515,2.8118],[-60.7515,2.8132],[-60.749,2.8134],[-60.749,2.8131],[-60.7456,2.8133],[-60.7425,2.8135],[-60.7411,2.8137],[-60.7411,2.8138],[-60.7396,2.8139],[-60.7395,2.8124],[-60.7373,2.8126],[-60.7372,2.8111],[-60.7357,2.8111],[-60.7356,2.8095]]]]}},{"type":"Feature","properties":{"c":"b39","b":39,"n":"Piscicultura","m":"1400100","cx":-60.7351,"cy":2.8353},"geometry":{"type":"Polygon","coordinates":[[[-60.7331,2.8342],[-60.736,2.8332],[-60.7376,2.8326],[-60.7385,2.8347],[-60.7391,2.8345],[-60.7399,2.8362],[-60.738,2.8377],[-60.7371,2.8388],[-60.7364,2.8382],[-60.7342,2.8369],[-60.7294,2.8358],[-60.7331,2.8342]]]}},{"type":"Feature","properties":{"c":"b40","b":40,"n":"Pricumã","m":"1400100","cx":-60.6977,"cy":2.8093},"geometry":{"type":"Polygon","coordinates":[[[-60.7042,2.8109],[-60.7047,2.8145],[-60.7048,2.8158],[-60.6995,2.8159],[-60.6982,2.8164],[-60.6962,2.816],[-60.6953,2.8167],[-60.6945,2.8175],[-60.6938,2.8179],[-60.6922,2.8135],[-60.6911,2.8077],[-60.691,2.8061],[-60.6904,2.8056],[-60.6915,2.805],[-60.6941,2.8023],[-60.6961,2.8],[-60.6987,2.8028],[-60.7003,2.8044],[-60.7014,2.8065],[-60.7025,2.807],[-60.7037,2.807],[-60.7042,2.8109]]]}},{"type":"Feature","properties":{"c":"b41","b":41,"n":"Professora Araceli Souto Maior","m":"1400100","cx":-60.7281,"cy":2.7881},"geometry":{"type":"Polygon","coordinates":[[[-60.7214,2.7898],[-60.7227,2.786],[-60.7211,2.7854],[-60.7225,2.7837],[-60.7229,2.783],[-60.724,2.7817],[-60.7246,2.7823],[-60.7285,2.7846],[-60.7336,2.7876],[-60.7349,2.7885],[-60.7334,2.7902],[-60.7312,2.792],[-60.7289,2.7924],[-60.7278,2.7931],[-60.7274,2.7946],[-60.7247,2.7948],[-60.7238,2.7951],[-60.7227,2.7951],[-60.7216,2.7949],[-60.721,2.7944],[-60.7203,2.7932],[-60.7214,2.7898]]]}},{"type":"Feature","properties":{"c":"b42","b":42,"n":"Raiar do Sol","m":"1400100","cx":-60.7159,"cy":2.7787},"geometry":{"type":"Polygon","coordinates":[[[-60.7077,2.7777],[-60.7103,2.7753],[-60.7147,2.7718],[-60.7171,2.7699],[-60.7188,2.7686],[-60.7216,2.7721],[-60.7239,2.7751],[-60.7251,2.7765],[-60.7257,2.7768],[-60.7341,2.7851],[-60.7343,2.7849],[-60.7353,2.7859],[-60.7378,2.7882],[-60.7363,2.7893],[-60.7349,2.7885],[-60.7336,2.7876],[-60.7285,2.7846],[-60.7246,2.7823],[-60.724,2.7817],[-60.7225,2.78],[-60.7208,2.7782],[-60.7198,2.779],[-60.7186,2.7793],[-60.7177,2.7793],[-60.7153,2.7791],[-60.7125,2.779],[-60.7107,2.7784],[-60.7092,2.7781],[-60.7086,2.7783],[-60.7073,2.778],[-60.7077,2.7777]]]}},{"type":"Feature","properties":{"c":"b43","b":43,"n":"Santa Luzia","m":"1400100","cx":-60.7556,"cy":2.8092},"geometry":{"type":"Polygon","coordinates":[[[-60.7515,2.8132],[-60.7515,2.8118],[-60.7511,2.8047],[-60.7523,2.8046],[-60.7595,2.8043],[-60.7597,2.8071],[-60.7599,2.8113],[-60.7599,2.8127],[-60.7575,2.8128],[-60.7515,2.8132]]]}},{"type":"Feature","properties":{"c":"b44","b":44,"n":"Santa Tereza","m":"1400100","cx":-60.7302,"cy":2.8268},"geometry":{"type":"Polygon","coordinates":[[[-60.7331,2.8342],[-60.7294,2.8358],[-60.7288,2.8357],[-60.7273,2.8353],[-60.7277,2.8303],[-60.7281,2.8245],[-60.7285,2.8176],[-60.7327,2.8173],[-60.7327,2.8184],[-60.7322,2.8263],[-60.7328,2.8273],[-60.7335,2.8282],[-60.7343,2.8287],[-60.7353,2.8302],[-60.736,2.8332],[-60.7331,2.8342]]]}},{"type":"Feature","properties":{"c":"b45","b":45,"n":"Senador Hélio Campos","m":"1400100","cx":-60.7665,"cy":2.7995},"geometry":{"type":"Polygon","coordinates":[[[-60.773,2.7924],[-60.7768,2.7959],[-60.7796,2.7982],[-60.7833,2.8016],[-60.7841,2.8022],[-60.7826,2.8039],[-60.7822,2.8037],[-60.7817,2.8045],[-60.7807,2.8054],[-60.7797,2.8068],[-60.7799,2.8076],[-60.7792,2.8085],[-60.7778,2.8087],[-60.7721,2.8096],[-60.769,2.8099],[-60.7688,2.8109],[-60.7678,2.8109],[-60.7678,2.8122],[-60.7637,2.8125],[-60.7599,2.8127],[-60.7599,2.8113],[-60.7597,2.8071],[-60.7595,2.8043],[-60.7523,2.8046],[-60.752,2.7977],[-60.7507,2.7978],[-60.7511,2.8047],[-60.7499,2.8048],[-60.7496,2.8007],[-60.7479,2.8008],[-60.7476,2.7953],[-60.7402,2.7957],[-60.7408,2.7938],[-60.7415,2.7935],[-60.7412,2.7875],[-60.7449,2.7888],[-60.7473,2.7908],[-60.7485,2.7916],[-60.7493,2.7918],[-60.7515,2.793],[-60.7539,2.7937],[-60.7539,2.7906],[-60.7524,2.7887],[-60.7487,2.7881],[-60.7484,2.7868],[-60.7514,2.7871],[-60.7524,2.7867],[-60.756,2.7846],[-60.7573,2.7841],[-60.7587,2.7859],[-60.7591,2.7861],[-60.7622,2.7889],[-60.7638,2.7902],[-60.7674,2.7935],[-60.7674,2.7933],[-60.7703,2.7899],[-60.773,2.7924]]]}},{"type":"Feature","properties":{"c":"b46","b":46,"n":"São Bento","m":"1400100","cx":-60.7126,"cy":2.7856},"geometry":{"type":"Polygon","coordinates":[[[-60.7086,2.7783],[-60.7092,2.7781],[-60.7107,2.7784],[-60.7125,2.779],[-60.7153,2.7791],[-60.7177,2.7793],[-60.7186,2.7793],[-60.7198,2.779],[-60.7208,2.7782],[-60.7225,2.78],[-60.724,2.7817],[-60.7229,2.783],[-60.7225,2.7837],[-60.7211,2.7854],[-60.7227,2.786],[-60.7214,2.7898],[-60.7203,2.7932],[-60.7202,2.7931],[-60.719,2.7919],[-60.7184,2.7916],[-60.7154,2.7911],[-60.7134,2.7909],[-60.7117,2.7906],[-60.7102,2.79],[-60.7078,2.7889],[-60.7061,2.7877],[-60.7054,2.7873],[-60.7037,2.7858],[-60.7028,2.7847],[-60.702,2.7835],[-60.7016,2.7826],[-60.7014,2.7802],[-60.7012,2.7791],[-60.7012,2.778],[-60.7024,2.7781],[-60.703,2.7777],[-60.7056,2.7776],[-60.7073,2.778],[-60.7086,2.7783]]]}},{"type":"Feature","properties":{"c":"b47","b":47,"n":"São Francisco","m":"1400100","cx":-60.6757,"cy":2.8316},"geometry":{"type":"Polygon","coordinates":[[[-60.6651,2.8297],[-60.6676,2.8269],[-60.6692,2.828],[-60.6709,2.8286],[-60.6726,2.8288],[-60.6743,2.8287],[-60.6762,2.8281],[-60.6784,2.8264],[-60.6802,2.8281],[-60.6862,2.8334],[-60.6852,2.834],[-60.6831,2.835],[-60.6758,2.8391],[-60.6697,2.8336],[-60.6651,2.8297]]]}},{"type":"Feature","properties":{"c":"b48","b":48,"n":"São Pedro","m":"1400100","cx":-60.6627,"cy":2.8267},"geometry":{"type":"Polygon","coordinates":[[[-60.6651,2.8297],[-60.6637,2.8313],[-60.6595,2.8277],[-60.6578,2.8264],[-60.6578,2.826],[-60.658,2.8255],[-60.6588,2.8244],[-60.6618,2.8218],[-60.6649,2.8244],[-60.6676,2.8269],[-60.6651,2.8297]]]}},{"type":"Feature","properties":{"c":"b49","b":49,"n":"São Vicente","m":"1400100","cx":-60.6829,"cy":2.8095},"geometry":{"type":"Polygon","coordinates":[[[-60.691,2.8061],[-60.6911,2.8077],[-60.6922,2.8135],[-60.6843,2.8165],[-60.6801,2.8182],[-60.6791,2.8164],[-60.6779,2.8151],[-60.6783,2.8146],[-60.6773,2.8142],[-60.6751,2.8128],[-60.6727,2.8114],[-60.677,2.8065],[-60.6812,2.8017],[-60.6869,2.8047],[-60.6896,2.8058],[-60.6904,2.8056],[-60.691,2.8061]]]}},{"type":"Feature","properties":{"c":"b50","b":50,"n":"Tancredo Neves","m":"1400100","cx":-60.7245,"cy":2.8268},"geometry":{"type":"Polygon","coordinates":[[[-60.7285,2.8176],[-60.7281,2.8245],[-60.7277,2.8303],[-60.7273,2.8353],[-60.7205,2.8337],[-60.7209,2.829],[-60.7215,2.8181],[-60.7285,2.8176]]]}},{"type":"Feature","properties":{"c":"b51","b":51,"n":"Treze de Setembro","m":"1400100","cx":-60.6853,"cy":2.7979},"geometry":{"type":"Polygon","coordinates":[[[-60.6941,2.8023],[-60.6915,2.805],[-60.6904,2.8056],[-60.6896,2.8058],[-60.6869,2.8047],[-60.6812,2.8017],[-60.6811,2.8016],[-60.6758,2.7987],[-60.6774,2.7965],[-60.6792,2.7936],[-60.6799,2.7914],[-60.6804,2.7904],[-60.6821,2.7914],[-60.6826,2.7912],[-60.6835,2.7915],[-60.685,2.7929],[-60.6855,2.7941],[-60.687,2.7954],[-60.6881,2.7957],[-60.69,2.7956],[-60.6916,2.7958],[-60.693,2.7964],[-60.6937,2.7971],[-60.6949,2.7988],[-60.6954,2.7991],[-60.6961,2.8],[-60.6941,2.8023]]]}},{"type":"Feature","properties":{"c":"b52","b":52,"n":"Trinta e um de Março","m":"1400100","cx":-60.6709,"cy":2.8364},"geometry":{"type":"Polygon","coordinates":[[[-60.6722,2.841],[-60.6672,2.8438],[-60.6697,2.8336],[-60.6758,2.8391],[-60.6722,2.841]]]}},{"type":"Feature","properties":{"c":"b53","b":53,"n":"União","m":"1400100","cx":-60.73,"cy":2.8443},"geometry":{"type":"Polygon","coordinates":[[[-60.7363,2.8401],[-60.7356,2.8411],[-60.7329,2.8439],[-60.732,2.8459],[-60.7318,2.8475],[-60.7311,2.8491],[-60.7306,2.8496],[-60.7304,2.8505],[-60.73,2.8513],[-60.7294,2.8516],[-60.7293,2.8523],[-60.7293,2.8526],[-60.7253,2.8487],[-60.7246,2.8482],[-60.7265,2.8457],[-60.727,2.8447],[-60.7279,2.8429],[-60.7287,2.8398],[-60.7288,2.8377],[-60.7288,2.8357],[-60.7294,2.8358],[-60.7342,2.8369],[-60.7364,2.8382],[-60.7371,2.8388],[-60.7363,2.8401]]]}},{"type":"Feature","properties":{"c":"b54","b":54,"n":"dos Estados","m":"1400100","cx":-60.6761,"cy":2.8424},"geometry":{"type":"Polygon","coordinates":[[[-60.6628,2.8462],[-60.6672,2.8438],[-60.6722,2.841],[-60.6758,2.8391],[-60.6831,2.835],[-60.6852,2.834],[-60.6882,2.8396],[-60.6765,2.8454],[-60.6736,2.8468],[-60.6656,2.8507],[-60.6655,2.8512],[-60.6628,2.8462]]]}}]}