{"type":"FeatureCollection","features":[{"type":"Feature","properties":{"u":"RN"},"geometry":{"type":"MultiPolygon","coordinates":[[[[-38.264,-6.489],[-38.27,-6.494],[-38.282,-6.5],[-38.289,-6.506],[-38.29,-6.497],[-38.294,-6.489],[-38.298,-6.487],[-38.306,-6.49],[-38.314,-6.487],[-38.319,-6.473],[-38.324,-6.469],[-38.328,-6.461],[-38.333,-6.458],[-38.339,-6.46],[-38.344,-6.457],[-38.349,-6.456],[-38.355,-6.457],[-38.361,-6.462],[-38.361,-6.457],[-38.364,-6.454],[-38.373,-6.456],[-38.375,-6.454],[-38.374,-6.449],[-38.376,-6.441],[-38.375,-6.437],[-38.378,-6.437],[-38.383,-6.43],[-38.383,-6.425],[-38.385,-6.422],[-38.392,-6.416],[-38.402,-6.41],[-38.419,-6.412],[-38.427,-6.414],[-38.432,-6.41],[-38.438,-6.41],[-38.442,-6.405],[-38.448,-6.403],[-38.447,-6.4],[-38.451,-6.393],[-38.456,-6.393],[-38.466,-6.396],[-38.474,-6.396],[-38.485,-6.399],[-38.486,-6.398],[-38.483,-6.389],[-38.483,-6.381],[-38.484,-6.375],[-38.49,-6.368],[-38.489,-6.362],[-38.483,-6.357],[-38.476,-6.346],[-38.465,-6.337],[-38.458,-6.33],[-38.466,-6.331],[-38.47,-6.334],[-38.477,-6.334],[-38.486,-6.341],[-38.494,-6.345],[-38.504,-6.356],[-38.506,-6.357],[-38.512,-6.352],[-38.515,-6.347],[-38.518,-6.346],[-38.525,-6.345],[-38.533,-6.342],[-38.539,-6.345],[-38.545,-6.345],[-38.545,-6.347],[-38.55,-6.351],[-38.545,-6.354],[-38.56,-6.355],[-38.568,-6.35],[-38.577,-6.347],[-38.58,-6.335],[-38.582,-6.331],[-38.581,-6.325],[-38.582,-6.319],[-38.575,-6.309],[-38.567,-6.304],[-38.567,-6.301],[-38.571,-6.299],[-38.57,-6.293],[-38.572,-6.284],[-38.576,-6.284],[-38.58,-6.28],[-38.575,-6.278],[-38.573,-6.274],[-38.565,-6.268],[-38.56,-6.267],[-38.554,-6.263],[-38.554,-6.26],[-38.55,-6.257],[-38.549,-6.251],[-38.546,-6.245],[-38.538,-6.247],[-38.528,-6.239],[-38.525,-6.233],[-38.523,-6.228],[-38.52,-6.223],[-38.529,-6.214],[-38.528,-6.208],[-38.528,-6.202],[-38.526,-6.199],[-38.527,-6.193],[-38.519,-6.191],[-38.512,-6.192],[-38.503,-6.192],[-38.501,-6.191],[-38.502,-6.184],[-38.501,-6.18],[-38.497,-6.176],[-38.494,-6.175],[-38.487,-6.165],[-38.475,-6.157],[-38.472,-6.15],[-38.476,-6.144],[-38.475,-6.143],[-38.473,-6.136],[-38.466,-6.121],[-38.462,-6.112],[-38.458,-6.108],[-38.451,-6.107],[-38.45,-6.103],[-38.445,-6.102],[-38.441,-6.097],[-38.443,-6.095],[-38.443,-6.091],[-38.446,-6.09],[-38.447,-6.085],[-38.444,-6.085],[-38.437,-6.078],[-38.433,-6.078],[-38.428,-6.074],[-38.427,-6.069],[-38.42,-6.064],[-38.416,-6.062],[-38.413,-6.058],[-38.404,-6.057],[-38.402,-6.053],[-38.395,-6.055],[-38.39,-6.053],[-38.382,-6.053],[-38.385,-6.062],[-38.384,-6.066],[-38.378,-6.067],[-38.38,-6.073],[-38.377,-6.079],[-38.365,-6.088],[-38.361,-6.086],[-38.356,-6.086],[-38.354,-6.083],[-38.35,-6.083],[-38.347,-6.081],[-38.348,-6.07],[-38.347,-6.067],[-38.341,-6.073],[-38.34,-6.078],[-38.337,-6.08],[-38.332,-6.078],[-38.327,-6.079],[-38.32,-6.077],[-38.316,-6.082],[-38.307,-6.087],[-38.304,-6.087],[-38.3,-6.081],[-38.293,-6.077],[-38.291,-6.073],[-38.285,-6.071],[-38.281,-6.071],[-38.276,-6.069],[-38.275,-6.066],[-38.274,-6.064],[-38.27,-6.063],[-38.268,-6.057],[-38.265,-6.054],[-38.259,-6.054],[-38.26,-6.05],[-38.256,-6.047],[-38.253,-6.043],[-38.253,-6.035],[-38.251,-6.033],[-38.252,-6.022],[-38.251,-6.014],[-38.252,-6.01],[-38.249,-6.005],[-38.245,-6.002],[-38.245,-5.999],[-38.221,-5.979],[-38.214,-5.974],[-38.209,-5.967],[-38.202,-5.962],[-38.192,-5.96],[-38.184,-5.95],[-38.178,-5.953],[-38.174,-5.953],[-38.171,-5.95],[-38.165,-5.947],[-38.163,-5.944],[-38.163,-5.939],[-38.165,-5.932],[-38.163,-5.927],[-38.158,-5.924],[-38.147,-5.916],[-38.145,-5.914],[-38.144,-5.906],[-38.143,-5.902],[-38.128,-5.892],[-38.123,-5.882],[-38.121,-5.858],[-38.116,-5.848],[-38.116,-5.843],[-38.119,-5.836],[-38.119,-5.833],[-38.116,-5.829],[-38.114,-5.822],[-38.1,-5.805],[-38.088,-5.793],[-38.074,-5.778],[-38.066,-5.765],[-38.062,-5.762],[-38.059,-5.755],[-38.058,-5.748],[-38.05,-5.74],[-38.047,-5.733],[-38.047,-5.73],[-38.051,-5.728],[-38.058,-5.73],[-38.062,-5.725],[-38.068,-5.725],[-38.075,-5.723],[-38.08,-5.726],[-38.087,-5.731],[-38.089,-5.728],[-38.09,-5.72],[-38.09,-5.715],[-38.083,-5.698],[-38.085,-5.684],[-38.084,-5.677],[-38.082,-5.67],[-38.076,-5.663],[-38.064,-5.656],[-38.053,-5.646],[-38.037,-5.639],[-38.032,-5.633],[-38.024,-5.614],[-38.014,-5.594],[-38.01,-5.591],[-37.998,-5.585],[-38.0,-5.575],[-37.998,-5.568],[-37.993,-5.559],[-37.99,-5.556],[-37.976,-5.551],[-37.96,-5.54],[-37.951,-5.537],[-37.946,-5.531],[-37.942,-5.524],[-37.938,-5.513],[-37.935,-5.505],[-37.931,-5.502],[-37.925,-5.503],[-37.92,-5.505],[-37.911,-5.504],[-37.902,-5.501],[-37.9,-5.49],[-37.898,-5.486],[-37.892,-5.481],[-37.89,-5.452],[-37.886,-5.444],[-37.881,-5.436],[-37.877,-5.427],[-37.864,-5.412],[-37.86,-5.407],[-37.859,-5.396],[-37.863,-5.382],[-37.864,-5.378],[-37.864,-5.374],[-37.859,-5.367],[-37.858,-5.357],[-37.847,-5.34],[-37.836,-5.335],[-37.823,-5.323],[-37.813,-5.317],[-37.804,-5.313],[-37.787,-5.297],[-37.783,-5.295],[-37.783,-5.287],[-37.789,-5.278],[-37.792,-5.269],[-37.79,-5.255],[-37.786,-5.245],[-37.783,-5.232],[-37.788,-5.219],[-37.79,-5.211],[-37.787,-5.204],[-37.776,-5.187],[-37.765,-5.14],[-37.756,-5.129],[-37.748,-5.118],[-37.74,-5.11],[-37.733,-5.101],[-37.732,-5.085],[-37.728,-5.075],[-37.725,-5.071],[-37.715,-5.063],[-37.71,-5.061],[-37.696,-5.058],[-37.679,-5.055],[-37.678,-5.054],[-37.66,-4.998],[-37.64,-4.926],[-37.559,-4.908],[-37.522,-4.899],[-37.467,-4.886],[-37.446,-4.881],[-37.253,-4.831],[-37.232,-4.865],[-37.221,-4.881],[-37.21,-4.895],[-37.204,-4.901],[-37.195,-4.908],[-37.186,-4.914],[-37.18,-4.917],[-37.172,-4.926],[-37.164,-4.935],[-37.158,-4.945],[-37.15,-4.949],[-37.142,-4.95],[-37.139,-4.948],[-37.14,-4.944],[-37.145,-4.942],[-37.145,-4.937],[-37.142,-4.936],[-37.127,-4.936],[-37.122,-4.934],[-37.117,-4.929],[-37.116,-4.927],[-37.104,-4.922],[-37.095,-4.925],[-37.088,-4.928],[-37.081,-4.93],[-37.065,-4.941],[-37.054,-4.947],[-37.043,-4.95],[-37.037,-4.95],[-37.03,-4.947],[-37.024,-4.942],[-37.015,-4.938],[-37.008,-4.936],[-37.003,-4.929],[-36.999,-4.929],[-36.987,-4.931],[-36.979,-4.932],[-36.974,-4.93],[-36.968,-4.926],[-36.963,-4.919],[-36.96,-4.919],[-36.934,-4.938],[-36.919,-4.947],[-36.91,-4.95],[-36.901,-4.952],[-36.889,-4.952],[-36.884,-4.95],[-36.879,-4.951],[-36.875,-4.955],[-36.867,-4.958],[-36.864,-4.962],[-36.856,-4.972],[-36.846,-4.986],[-36.84,-4.992],[-36.829,-5.007],[-36.825,-5.011],[-36.818,-5.02],[-36.812,-5.026],[-36.799,-5.037],[-36.789,-5.044],[-36.777,-5.047],[-36.774,-5.053],[-36.769,-5.049],[-36.752,-5.059],[-36.74,-5.064],[-36.734,-5.067],[-36.729,-5.077],[-36.716,-5.081],[-36.689,-5.088],[-36.68,-5.084],[-36.669,-5.088],[-36.665,-5.087],[-36.653,-5.088],[-36.648,-5.088],[-36.626,-5.092],[-36.619,-5.094],[-36.613,-5.094],[-36.61,-5.092],[-36.609,-5.088],[-36.61,-5.083],[-36.614,-5.08],[-36.611,-5.079],[-36.604,-5.079],[-36.596,-5.081],[-36.583,-5.085],[-36.581,-5.089],[-36.575,-5.086],[-36.557,-5.087],[-36.547,-5.089],[-36.542,-5.089],[-36.543,-5.081],[-36.541,-5.077],[-36.536,-5.074],[-36.534,-5.071],[-36.525,-5.067],[-36.516,-5.068],[-36.508,-5.062],[-36.503,-5.062],[-36.495,-5.063],[-36.474,-5.07],[-36.474,-5.069],[-36.46,-5.069],[-36.456,-5.066],[-36.449,-5.066],[-36.435,-5.071],[-36.418,-5.077],[-36.407,-5.081],[-36.388,-5.087],[-36.379,-5.087],[-36.372,-5.089],[-36.359,-5.086],[-36.344,-5.087],[-36.341,-5.085],[-36.332,-5.087],[-36.317,-5.096],[-36.308,-5.102],[-36.294,-5.093],[-36.29,-5.088],[-36.283,-5.09],[-36.276,-5.09],[-36.276,-5.088],[-36.261,-5.093],[-36.253,-5.095],[-36.243,-5.096],[-36.238,-5.094],[-36.222,-5.096],[-36.2,-5.095],[-36.161,-5.097],[-36.145,-5.095],[-36.129,-5.092],[-36.124,-5.091],[-36.11,-5.084],[-36.11,-5.083],[-36.099,-5.077],[-36.091,-5.072],[-36.08,-5.066],[-36.075,-5.065],[-36.065,-5.065],[-36.055,-5.063],[-36.042,-5.057],[-36.038,-5.051],[-36.014,-5.049],[-36.004,-5.045],[-35.999,-5.045],[-35.993,-5.046],[-35.984,-5.046],[-35.981,-5.042],[-35.972,-5.043],[-35.969,-5.042],[-35.965,-5.044],[-35.962,-5.043],[-35.955,-5.044],[-35.948,-5.044],[-35.941,-5.048],[-35.92,-5.057],[-35.908,-5.059],[-35.901,-5.062],[-35.886,-5.067],[-35.873,-5.069],[-35.865,-5.069],[-35.86,-5.068],[-35.851,-5.07],[-35.833,-5.075],[-35.827,-5.075],[-35.821,-5.074],[-35.802,-5.073],[-35.798,-5.076],[-35.791,-5.077],[-35.787,-5.075],[-35.779,-5.078],[-35.775,-5.081],[-35.768,-5.083],[-35.759,-5.089],[-35.749,-5.09],[-35.742,-5.093],[-35.734,-5.094],[-35.73,-5.097],[-35.718,-5.097],[-35.714,-5.101],[-35.706,-5.104],[-35.7,-5.104],[-35.697,-5.102],[-35.685,-5.106],[-35.675,-5.11],[-35.664,-5.111],[-35.66,-5.113],[-35.639,-5.12],[-35.632,-5.12],[-35.623,-5.119],[-35.617,-5.114],[-35.611,-5.118],[-35.605,-5.121],[-35.595,-5.123],[-35.587,-5.128],[-35.583,-5.128],[-35.576,-5.131],[-35.572,-5.134],[-35.562,-5.137],[-35.548,-5.139],[-35.528,-5.145],[-35.518,-5.151],[-35.515,-5.151],[-35.507,-5.154],[-35.5,-5.154],[-35.494,-5.157],[-35.49,-5.157],[-35.48,-5.164],[-35.477,-5.17],[-35.468,-5.179],[-35.462,-5.192],[-35.459,-5.197],[-35.453,-5.199],[-35.45,-5.203],[-35.436,-5.212],[-35.426,-5.218],[-35.417,-5.221],[-35.41,-5.231],[-35.406,-5.235],[-35.401,-5.243],[-35.395,-5.246],[-35.39,-5.253],[-35.382,-5.27],[-35.375,-5.278],[-35.371,-5.285],[-35.37,-5.291],[-35.367,-5.293],[-35.367,-5.303],[-35.365,-5.305],[-35.364,-5.313],[-35.362,-5.32],[-35.359,-5.334],[-35.359,-5.34],[-35.355,-5.355],[-35.351,-5.362],[-35.345,-5.371],[-35.338,-5.378],[-35.333,-5.381],[-35.326,-5.381],[-35.322,-5.377],[-35.319,-5.378],[-35.317,-5.383],[-35.31,-5.39],[-35.31,-5.392],[-35.31,-5.409],[-35.308,-5.415],[-35.303,-5.417],[-35.298,-5.426],[-35.292,-5.427],[-35.293,-5.433],[-35.291,-5.444],[-35.29,-5.455],[-35.288,-5.461],[-35.282,-5.464],[-35.278,-5.471],[-35.275,-5.473],[-35.273,-5.479],[-35.266,-5.482],[-35.261,-5.481],[-35.26,-5.492],[-35.258,-5.493],[-35.26,-5.497],[-35.26,-5.506],[-35.259,-5.511],[-35.256,-5.517],[-35.251,-5.517],[-35.25,-5.526],[-35.248,-5.529],[-35.249,-5.539],[-35.248,-5.546],[-35.245,-5.556],[-35.238,-5.564],[-35.236,-5.572],[-35.231,-5.575],[-35.228,-5.575],[-35.226,-5.581],[-35.227,-5.588],[-35.225,-5.591],[-35.225,-5.602],[-35.227,-5.612],[-35.225,-5.622],[-35.221,-5.63],[-35.216,-5.628],[-35.217,-5.631],[-35.218,-5.645],[-35.216,-5.659],[-35.217,-5.661],[-35.218,-5.671],[-35.216,-5.676],[-35.212,-5.684],[-35.204,-5.693],[-35.201,-5.695],[-35.196,-5.693],[-35.192,-5.701],[-35.197,-5.71],[-35.2,-5.721],[-35.203,-5.735],[-35.204,-5.743],[-35.203,-5.75],[-35.194,-5.755],[-35.194,-5.767],[-35.192,-5.782],[-35.189,-5.784],[-35.187,-5.79],[-35.182,-5.793],[-35.182,-5.797],[-35.179,-5.799],[-35.181,-5.814],[-35.181,-5.837],[-35.18,-5.857],[-35.179,-5.864],[-35.176,-5.874],[-35.171,-5.88],[-35.165,-5.883],[-35.16,-5.88],[-35.153,-5.886],[-35.154,-5.898],[-35.157,-5.916],[-35.156,-5.926],[-35.154,-5.929],[-35.154,-5.939],[-35.153,-5.947],[-35.149,-5.958],[-35.145,-5.963],[-35.137,-5.966],[-35.133,-5.965],[-35.129,-5.967],[-35.121,-5.979],[-35.121,-5.982],[-35.118,-5.985],[-35.114,-5.987],[-35.113,-5.996],[-35.108,-6.005],[-35.106,-6.007],[-35.106,-6.012],[-35.109,-6.022],[-35.11,-6.035],[-35.11,-6.043],[-35.106,-6.054],[-35.102,-6.057],[-35.099,-6.055],[-35.096,-6.057],[-35.099,-6.066],[-35.098,-6.07],[-35.101,-6.074],[-35.099,-6.082],[-35.1,-6.111],[-35.098,-6.118],[-35.098,-6.14],[-35.097,-6.15],[-35.098,-6.158],[-35.095,-6.182],[-35.094,-6.183],[-35.091,-6.183],[-35.091,-6.18],[-35.088,-6.185],[-35.083,-6.189],[-35.082,-6.196],[-35.078,-6.211],[-35.072,-6.221],[-35.069,-6.223],[-35.067,-6.221],[-35.062,-6.226],[-35.058,-6.227],[-35.057,-6.225],[-35.051,-6.226],[-35.045,-6.226],[-35.042,-6.227],[-35.041,-6.232],[-35.036,-6.235],[-35.037,-6.246],[-35.038,-6.267],[-35.036,-6.272],[-35.033,-6.275],[-35.034,-6.282],[-35.033,-6.286],[-35.032,-6.3],[-35.031,-6.306],[-35.032,-6.311],[-35.033,-6.316],[-35.032,-6.325],[-35.027,-6.351],[-35.024,-6.36],[-35.02,-6.366],[-35.015,-6.369],[-35.012,-6.37],[-35.008,-6.366],[-35.003,-6.366],[-34.998,-6.371],[-34.992,-6.371],[-34.989,-6.382],[-34.985,-6.391],[-34.984,-6.395],[-34.981,-6.398],[-34.98,-6.404],[-34.979,-6.411],[-34.975,-6.42],[-34.975,-6.427],[-34.973,-6.436],[-34.971,-6.438],[-34.973,-6.44],[-34.974,-6.452],[-34.972,-6.466],[-34.969,-6.471],[-34.97,-6.48],[-34.969,-6.487],[-34.972,-6.485],[-34.978,-6.487],[-34.979,-6.49],[-34.983,-6.493],[-34.992,-6.501],[-35.001,-6.502],[-35.003,-6.504],[-35.011,-6.506],[-35.017,-6.505],[-35.019,-6.503],[-35.022,-6.505],[-35.029,-6.506],[-35.037,-6.517],[-35.043,-6.519],[-35.046,-6.522],[-35.052,-6.524],[-35.058,-6.528],[-35.067,-6.525],[-35.072,-6.52],[-35.075,-6.514],[-35.089,-6.505],[-35.092,-6.5],[-35.096,-6.498],[-35.102,-6.5],[-35.104,-6.506],[-35.107,-6.506],[-35.113,-6.505],[-35.113,-6.51],[-35.118,-6.516],[-35.119,-6.521],[-35.122,-6.525],[-35.123,-6.53],[-35.13,-6.533],[-35.133,-6.536],[-35.139,-6.546],[-35.143,-6.548],[-35.146,-6.553],[-35.152,-6.554],[-35.157,-6.552],[-35.163,-6.556],[-35.169,-6.558],[-35.174,-6.558],[-35.184,-6.555],[-35.189,-6.55],[-35.199,-6.55],[-35.207,-6.544],[-35.21,-6.539],[-35.21,-6.533],[-35.214,-6.529],[-35.218,-6.519],[-35.223,-6.516],[-35.224,-6.522],[-35.23,-6.53],[-35.236,-6.533],[-35.253,-6.534],[-35.27,-6.542],[-35.275,-6.544],[-35.284,-6.544],[-35.294,-6.544],[-35.309,-6.544],[-35.314,-6.545],[-35.331,-6.544],[-35.337,-6.542],[-35.341,-6.539],[-35.365,-6.512],[-35.395,-6.494],[-35.401,-6.492],[-35.412,-6.488],[-35.435,-6.489],[-35.442,-6.487],[-35.443,-6.479],[-35.447,-6.487],[-35.452,-6.485],[-35.456,-6.479],[-35.461,-6.477],[-35.464,-6.483],[-35.473,-6.483],[-35.477,-6.487],[-35.483,-6.486],[-35.489,-6.481],[-35.493,-6.48],[-35.496,-6.483],[-35.501,-6.478],[-35.508,-6.479],[-35.512,-6.477],[-35.515,-6.479],[-35.519,-6.479],[-35.525,-6.476],[-35.527,-6.479],[-35.531,-6.48],[-35.534,-6.483],[-35.537,-6.48],[-35.541,-6.483],[-35.544,-6.481],[-35.548,-6.482],[-35.552,-6.49],[-35.559,-6.493],[-35.565,-6.492],[-35.564,-6.487],[-35.572,-6.488],[-35.578,-6.486],[-35.581,-6.487],[-35.581,-6.484],[-35.586,-6.482],[-35.588,-6.479],[-35.592,-6.477],[-35.592,-6.472],[-35.598,-6.465],[-35.6,-6.461],[-35.604,-6.459],[-35.613,-6.462],[-35.618,-6.462],[-35.617,-6.459],[-35.62,-6.457],[-35.623,-6.459],[-35.629,-6.455],[-35.635,-6.455],[-35.646,-6.451],[-35.651,-6.45],[-35.654,-6.447],[-35.66,-6.445],[-35.664,-6.447],[-35.665,-6.451],[-35.674,-6.452],[-35.682,-6.448],[-35.686,-6.453],[-35.696,-6.46],[-35.698,-6.463],[-35.702,-6.464],[-35.707,-6.47],[-35.719,-6.473],[-35.726,-6.47],[-35.73,-6.473],[-35.735,-6.473],[-35.741,-6.476],[-35.744,-6.474],[-35.75,-6.478],[-35.758,-6.479],[-35.763,-6.482],[-35.773,-6.483],[-35.78,-6.483],[-35.944,-6.493],[-35.95,-6.492],[-35.958,-6.489],[-35.965,-6.484],[-35.975,-6.489],[-35.981,-6.488],[-35.987,-6.485],[-35.992,-6.485],[-36.005,-6.481],[-36.007,-6.475],[-36.012,-6.474],[-36.013,-6.471],[-36.008,-6.465],[-36.011,-6.458],[-36.017,-6.452],[-36.037,-6.444],[-36.051,-6.432],[-36.056,-6.426],[-36.059,-6.418],[-36.061,-6.411],[-36.067,-6.415],[-36.074,-6.415],[-36.072,-6.412],[-36.077,-6.406],[-36.08,-6.405],[-36.081,-6.408],[-36.085,-6.411],[-36.085,-6.415],[-36.092,-6.419],[-36.096,-6.42],[-36.103,-6.422],[-36.106,-6.424],[-36.11,-6.429],[-36.122,-6.427],[-36.129,-6.425],[-36.132,-6.428],[-36.137,-6.426],[-36.141,-6.427],[-36.144,-6.425],[-36.168,-6.429],[-36.172,-6.431],[-36.18,-6.43],[-36.189,-6.432],[-36.195,-6.431],[-36.2,-6.432],[-36.229,-6.434],[-36.25,-6.437],[-36.251,-6.404],[-36.259,-6.405],[-36.262,-6.402],[-36.269,-6.402],[-36.277,-6.398],[-36.292,-6.396],[-36.295,-6.395],[-36.295,-6.39],[-36.299,-6.382],[-36.299,-6.377],[-36.296,-6.37],[-36.293,-6.365],[-36.282,-6.355],[-36.278,-6.349],[-36.277,-6.34],[-36.279,-6.327],[-36.279,-6.318],[-36.28,-6.309],[-36.295,-6.292],[-36.304,-6.283],[-36.308,-6.281],[-36.314,-6.283],[-36.329,-6.294],[-36.354,-6.309],[-36.363,-6.31],[-36.395,-6.294],[-36.415,-6.333],[-36.428,-6.36],[-36.433,-6.363],[-36.445,-6.362],[-36.487,-6.36],[-36.5,-6.358],[-36.5,-6.37],[-36.504,-6.38],[-36.504,-6.386],[-36.507,-6.4],[-36.511,-6.407],[-36.519,-6.418],[-36.526,-6.437],[-36.529,-6.443],[-36.531,-6.452],[-36.53,-6.466],[-36.531,-6.472],[-36.528,-6.479],[-36.527,-6.484],[-36.527,-6.493],[-36.526,-6.501],[-36.516,-6.503],[-36.5,-6.514],[-36.489,-6.516],[-36.483,-6.52],[-36.481,-6.523],[-36.481,-6.533],[-36.479,-6.54],[-36.476,-6.545],[-36.472,-6.548],[-36.455,-6.552],[-36.449,-6.554],[-36.444,-6.558],[-36.442,-6.565],[-36.441,-6.574],[-36.441,-6.587],[-36.441,-6.595],[-36.439,-6.613],[-36.436,-6.626],[-36.438,-6.629],[-36.449,-6.624],[-36.454,-6.627],[-36.458,-6.634],[-36.461,-6.634],[-36.466,-6.628],[-36.472,-6.617],[-36.477,-6.613],[-36.485,-6.611],[-36.494,-6.604],[-36.502,-6.601],[-36.508,-6.595],[-36.514,-6.594],[-36.522,-6.597],[-36.525,-6.6],[-36.521,-6.607],[-36.521,-6.611],[-36.523,-6.619],[-36.531,-6.635],[-36.542,-6.666],[-36.543,-6.679],[-36.545,-6.689],[-36.547,-6.695],[-36.554,-6.703],[-36.559,-6.708],[-36.558,-6.713],[-36.555,-6.717],[-36.549,-6.722],[-36.544,-6.731],[-36.542,-6.732],[-36.528,-6.735],[-36.524,-6.738],[-36.521,-6.746],[-36.513,-6.75],[-36.505,-6.754],[-36.502,-6.762],[-36.503,-6.767],[-36.501,-6.778],[-36.503,-6.783],[-36.503,-6.793],[-36.505,-6.809],[-36.51,-6.818],[-36.516,-6.822],[-36.529,-6.825],[-36.539,-6.836],[-36.541,-6.841],[-36.545,-6.843],[-36.547,-6.841],[-36.55,-6.844],[-36.558,-6.842],[-36.56,-6.841],[-36.566,-6.844],[-36.57,-6.848],[-36.574,-6.857],[-36.573,-6.861],[-36.567,-6.867],[-36.568,-6.875],[-36.573,-6.879],[-36.574,-6.886],[-36.579,-6.892],[-36.59,-6.909],[-36.597,-6.917],[-36.598,-6.92],[-36.604,-6.93],[-36.611,-6.938],[-36.617,-6.934],[-36.637,-6.934],[-36.648,-6.93],[-36.661,-6.927],[-36.673,-6.926],[-36.687,-6.926],[-36.692,-6.93],[-36.695,-6.934],[-36.709,-6.975],[-36.712,-6.98],[-36.719,-6.983],[-36.724,-6.98],[-36.737,-6.973],[-36.744,-6.968],[-36.755,-6.956],[-36.765,-6.94],[-36.767,-6.936],[-36.765,-6.931],[-36.762,-6.927],[-36.757,-6.899],[-36.755,-6.895],[-36.75,-6.889],[-36.745,-6.88],[-36.73,-6.836],[-36.734,-6.835],[-36.751,-6.837],[-36.769,-6.839],[-36.773,-6.787],[-36.831,-6.735],[-36.835,-6.731],[-36.874,-6.743],[-36.903,-6.754],[-36.92,-6.762],[-36.937,-6.773],[-36.957,-6.79],[-36.959,-6.783],[-36.953,-6.775],[-36.958,-6.776],[-36.969,-6.77],[-36.973,-6.763],[-36.973,-6.758],[-36.972,-6.741],[-36.978,-6.722],[-36.983,-6.717],[-36.986,-6.712],[-36.994,-6.708],[-37.0,-6.708],[-37.004,-6.71],[-37.035,-6.734],[-37.041,-6.74],[-37.051,-6.744],[-37.063,-6.751],[-37.075,-6.754],[-37.099,-6.761],[-37.12,-6.767],[-37.128,-6.766],[-37.133,-6.771],[-37.135,-6.777],[-37.138,-6.781],[-37.144,-6.783],[-37.149,-6.792],[-37.154,-6.8],[-37.166,-6.807],[-37.173,-6.815],[-37.183,-6.818],[-37.193,-6.826],[-37.217,-6.825],[-37.223,-6.825],[-37.235,-6.825],[-37.255,-6.811],[-37.256,-6.804],[-37.255,-6.799],[-37.257,-6.793],[-37.261,-6.787],[-37.257,-6.783],[-37.258,-6.779],[-37.265,-6.773],[-37.271,-6.77],[-37.274,-6.767],[-37.269,-6.762],[-37.267,-6.753],[-37.268,-6.744],[-37.264,-6.738],[-37.264,-6.732],[-37.28,-6.724],[-37.286,-6.716],[-37.29,-6.713],[-37.284,-6.694],[-37.314,-6.689],[-37.332,-6.698],[-37.343,-6.701],[-37.362,-6.701],[-37.368,-6.701],[-37.388,-6.7],[-37.396,-6.7],[-37.407,-6.697],[-37.485,-6.71],[-37.478,-6.695],[-37.476,-6.689],[-37.471,-6.68],[-37.475,-6.673],[-37.468,-6.666],[-37.466,-6.66],[-37.476,-6.645],[-37.477,-6.637],[-37.475,-6.618],[-37.476,-6.608],[-37.48,-6.605],[-37.48,-6.594],[-37.479,-6.585],[-37.479,-6.578],[-37.475,-6.564],[-37.479,-6.562],[-37.482,-6.557],[-37.483,-6.55],[-37.482,-6.548],[-37.474,-6.538],[-37.465,-6.533],[-37.421,-6.533],[-37.412,-6.53],[-37.4,-6.519],[-37.396,-6.51],[-37.394,-6.472],[-37.392,-6.462],[-37.391,-6.453],[-37.388,-6.449],[-37.386,-6.442],[-37.381,-6.437],[-37.385,-6.432],[-37.387,-6.426],[-37.396,-6.42],[-37.398,-6.416],[-37.395,-6.41],[-37.397,-6.405],[-37.396,-6.401],[-37.389,-6.391],[-37.389,-6.38],[-37.378,-6.369],[-37.376,-6.356],[-37.378,-6.351],[-37.377,-6.344],[-37.372,-6.337],[-37.371,-6.333],[-37.363,-6.322],[-37.351,-6.314],[-37.343,-6.312],[-37.33,-6.306],[-37.328,-6.303],[-37.321,-6.283],[-37.317,-6.279],[-37.31,-6.278],[-37.287,-6.282],[-37.279,-6.282],[-37.273,-6.28],[-37.273,-6.263],[-37.271,-6.252],[-37.265,-6.244],[-37.259,-6.238],[-37.252,-6.226],[-37.245,-6.221],[-37.241,-6.219],[-37.234,-6.213],[-37.213,-6.209],[-37.202,-6.206],[-37.194,-6.198],[-37.194,-6.196],[-37.194,-6.184],[-37.189,-6.181],[-37.174,-6.18],[-37.166,-6.17],[-37.163,-6.166],[-37.161,-6.158],[-37.157,-6.152],[-37.166,-6.154],[-37.171,-6.149],[-37.175,-6.142],[-37.175,-6.138],[-37.172,-6.131],[-37.171,-6.12],[-37.167,-6.11],[-37.168,-6.106],[-37.172,-6.101],[-37.172,-6.095],[-37.171,-6.086],[-37.171,-6.077],[-37.176,-6.055],[-37.174,-6.048],[-37.179,-6.05],[-37.196,-6.047],[-37.199,-6.042],[-37.202,-6.039],[-37.209,-6.038],[-37.216,-6.042],[-37.223,-6.042],[-37.225,-6.039],[-37.228,-6.032],[-37.232,-6.028],[-37.251,-6.026],[-37.256,-6.028],[-37.258,-6.034],[-37.263,-6.038],[-37.264,-6.046],[-37.267,-6.051],[-37.272,-6.056],[-37.282,-6.058],[-37.287,-6.058],[-37.296,-6.05],[-37.301,-6.05],[-37.309,-6.058],[-37.32,-6.06],[-37.336,-6.067],[-37.339,-6.07],[-37.347,-6.08],[-37.354,-6.086],[-37.372,-6.083],[-37.379,-6.085],[-37.382,-6.086],[-37.386,-6.089],[-37.386,-6.095],[-37.39,-6.104],[-37.394,-6.109],[-37.399,-6.111],[-37.408,-6.113],[-37.411,-6.111],[-37.426,-6.109],[-37.442,-6.112],[-37.446,-6.112],[-37.454,-6.12],[-37.455,-6.133],[-37.459,-6.133],[-37.459,-6.145],[-37.48,-6.15],[-37.483,-6.152],[-37.489,-6.144],[-37.503,-6.144],[-37.503,-6.152],[-37.522,-6.152],[-37.536,-6.153],[-37.54,-6.166],[-37.561,-6.165],[-37.57,-6.155],[-37.575,-6.16],[-37.582,-6.161],[-37.59,-6.166],[-37.6,-6.174],[-37.604,-6.175],[-37.621,-6.176],[-37.638,-6.18],[-37.643,-6.187],[-37.647,-6.189],[-37.663,-6.191],[-37.673,-6.191],[-37.689,-6.187],[-37.696,-6.187],[-37.7,-6.185],[-37.706,-6.177],[-37.709,-6.177],[-37.732,-6.185],[-37.742,-6.189],[-37.749,-6.194],[-37.754,-6.198],[-37.755,-6.202],[-37.752,-6.209],[-37.753,-6.214],[-37.756,-6.217],[-37.764,-6.219],[-37.776,-6.231],[-37.775,-6.233],[-37.765,-6.234],[-37.762,-6.236],[-37.761,-6.24],[-37.766,-6.242],[-37.777,-6.246],[-37.762,-6.253],[-37.761,-6.256],[-37.762,-6.259],[-37.769,-6.265],[-37.771,-6.268],[-37.771,-6.273],[-37.766,-6.278],[-37.763,-6.283],[-37.758,-6.287],[-37.758,-6.291],[-37.765,-6.292],[-37.772,-6.291],[-37.781,-6.291],[-37.795,-6.289],[-37.803,-6.291],[-37.81,-6.292],[-37.816,-6.297],[-37.824,-6.306],[-37.823,-6.309],[-37.815,-6.312],[-37.816,-6.316],[-37.829,-6.32],[-37.834,-6.322],[-37.84,-6.327],[-37.843,-6.333],[-37.842,-6.337],[-37.834,-6.342],[-37.835,-6.346],[-37.844,-6.354],[-37.841,-6.359],[-37.842,-6.363],[-37.845,-6.365],[-37.854,-6.366],[-37.859,-6.374],[-37.862,-6.374],[-37.872,-6.369],[-37.883,-6.367],[-37.888,-6.364],[-37.889,-6.37],[-37.889,-6.387],[-37.884,-6.392],[-37.886,-6.397],[-37.89,-6.4],[-37.894,-6.399],[-37.902,-6.4],[-37.923,-6.415],[-37.926,-6.421],[-37.933,-6.423],[-37.942,-6.424],[-37.945,-6.423],[-37.949,-6.418],[-37.955,-6.408],[-37.955,-6.398],[-37.966,-6.402],[-37.968,-6.405],[-37.968,-6.416],[-37.971,-6.422],[-37.983,-6.428],[-37.991,-6.429],[-37.997,-6.426],[-38.003,-6.428],[-38.014,-6.427],[-38.014,-6.43],[-38.01,-6.43],[-38.008,-6.432],[-38.012,-6.438],[-38.02,-6.445],[-38.02,-6.447],[-38.013,-6.468],[-38.016,-6.469],[-38.022,-6.468],[-38.025,-6.473],[-38.029,-6.476],[-38.037,-6.475],[-38.041,-6.473],[-38.041,-6.47],[-38.036,-6.462],[-38.037,-6.457],[-38.044,-6.452],[-38.043,-6.443],[-38.046,-6.441],[-38.051,-6.442],[-38.054,-6.454],[-38.058,-6.453],[-38.061,-6.454],[-38.062,-6.459],[-38.067,-6.461],[-38.071,-6.464],[-38.076,-6.473],[-38.079,-6.477],[-38.081,-6.483],[-38.086,-6.488],[-38.095,-6.494],[-38.097,-6.508],[-38.102,-6.512],[-38.106,-6.517],[-38.117,-6.523],[-38.125,-6.522],[-38.133,-6.52],[-38.136,-6.518],[-38.138,-6.513],[-38.139,-6.506],[-38.145,-6.494],[-38.148,-6.491],[-38.16,-6.499],[-38.164,-6.498],[-38.169,-6.5],[-38.192,-6.499],[-38.201,-6.488],[-38.229,-6.483],[-38.236,-6.481],[-38.242,-6.481],[-38.247,-6.485],[-38.253,-6.485],[-38.257,-6.483],[-38.261,-6.485],[-38.264,-6.489]]],[[[-37.045,-4.816],[-37.044,-4.819],[-37.046,-4.817],[-37.045,-4.816]]]]}}]}