{"type":"FeatureCollection","features":[{"type":"Feature","properties":{"c":"5300108"},"geometry":{"type":"Polygon","coordinates":[[[-48.016,-16.05],[-48.14,-16.05],[-48.147,-16.05],[-48.278,-16.05],[-48.279,-16.042],[-48.273,-16.032],[-48.272,-16.024],[-48.27,-16.022],[-48.27,-16.016],[-48.272,-16.014],[-48.27,-16.004],[-48.266,-16.001],[-48.265,-15.997],[-48.263,-15.995],[-48.264,-15.992],[-48.262,-15.99],[-48.262,-15.985],[-48.258,-15.983],[-48.261,-15.979],[-48.258,-15.976],[-48.26,-15.967],[-48.255,-15.962],[-48.256,-15.96],[-48.251,-15.956],[-48.253,-15.947],[-48.251,-15.938],[-48.255,-15.937],[-48.256,-15.932],[-48.259,-15.931],[-48.261,-15.928],[-48.264,-15.928],[-48.265,-15.931],[-48.276,-15.931],[-48.275,-15.928],[-48.277,-15.927],[-48.275,-15.923],[-48.27,-15.919],[-48.27,-15.91],[-48.274,-15.91],[-48.276,-15.906],[-48.276,-15.897],[-48.273,-15.895],[-48.276,-15.892],[-48.272,-15.884],[-48.275,-15.877],[-48.278,-15.872],[-48.276,-15.87],[-48.28,-15.869],[-48.279,-15.86],[-48.284,-15.853],[-48.285,-15.843],[-48.285,-15.837],[-48.283,-15.834],[-48.281,-15.824],[-48.271,-15.813],[-48.268,-15.813],[-48.268,-15.808],[-48.257,-15.802],[-48.25,-15.802],[-48.246,-15.8],[-48.246,-15.797],[-48.24,-15.798],[-48.241,-15.793],[-48.238,-15.793],[-48.237,-15.785],[-48.232,-15.784],[-48.232,-15.778],[-48.217,-15.768],[-48.212,-15.759],[-48.209,-15.75],[-48.208,-15.739],[-48.208,-15.718],[-48.211,-15.713],[-48.219,-15.709],[-48.231,-15.71],[-48.239,-15.708],[-48.241,-15.706],[-48.239,-15.697],[-48.241,-15.694],[-48.241,-15.686],[-48.237,-15.673],[-48.235,-15.667],[-48.235,-15.662],[-48.234,-15.657],[-48.236,-15.653],[-48.234,-15.642],[-48.23,-15.637],[-48.226,-15.63],[-48.221,-15.627],[-48.218,-15.623],[-48.211,-15.623],[-48.203,-15.624],[-48.2,-15.623],[-48.2,-15.502],[-47.579,-15.502],[-47.418,-15.502],[-47.418,-15.546],[-47.414,-15.549],[-47.406,-15.547],[-47.402,-15.548],[-47.399,-15.551],[-47.399,-15.557],[-47.394,-15.558],[-47.389,-15.568],[-47.381,-15.567],[-47.378,-15.576],[-47.368,-15.579],[-47.362,-15.578],[-47.362,-15.58],[-47.355,-15.579],[-47.35,-15.581],[-47.347,-15.58],[-47.335,-15.588],[-47.33,-15.586],[-47.328,-15.589],[-47.321,-15.587],[-47.318,-15.589],[-47.316,-15.597],[-47.322,-15.598],[-47.323,-15.606],[-47.327,-15.612],[-47.331,-15.622],[-47.33,-15.623],[-47.333,-15.632],[-47.331,-15.636],[-47.329,-15.644],[-47.327,-15.649],[-47.329,-15.651],[-47.327,-15.653],[-47.33,-15.658],[-47.328,-15.659],[-47.328,-15.666],[-47.326,-15.67],[-47.329,-15.68],[-47.332,-15.681],[-47.331,-15.684],[-47.328,-15.684],[-47.329,-15.688],[-47.322,-15.689],[-47.319,-15.688],[-47.318,-15.692],[-47.313,-15.697],[-47.314,-15.705],[-47.313,-15.706],[-47.315,-15.715],[-47.321,-15.719],[-47.321,-15.723],[-47.318,-15.725],[-47.317,-15.73],[-47.319,-15.736],[-47.314,-15.738],[-47.315,-15.748],[-47.319,-15.75],[-47.321,-15.757],[-47.326,-15.761],[-47.33,-15.769],[-47.328,-15.772],[-47.331,-15.774],[-47.331,-15.777],[-47.333,-15.781],[-47.336,-15.781],[-47.336,-15.785],[-47.339,-15.788],[-47.339,-15.793],[-47.342,-15.798],[-47.345,-15.797],[-47.345,-15.803],[-47.35,-15.804],[-47.349,-15.808],[-47.352,-15.811],[-47.356,-15.819],[-47.355,-15.821],[-47.357,-15.824],[-47.361,-15.821],[-47.363,-15.828],[-47.367,-15.829],[-47.365,-15.834],[-47.366,-15.838],[-47.368,-15.836],[-47.369,-15.847],[-47.368,-15.852],[-47.37,-15.855],[-47.37,-15.862],[-47.374,-15.864],[-47.371,-15.865],[-47.374,-15.877],[-47.379,-15.884],[-47.375,-15.897],[-47.376,-15.9],[-47.372,-15.9],[-47.375,-15.907],[-47.366,-15.909],[-47.369,-15.917],[-47.369,-15.92],[-47.365,-15.919],[-47.362,-15.922],[-47.362,-15.929],[-47.366,-15.931],[-47.365,-15.933],[-47.372,-15.935],[-47.373,-15.939],[-47.369,-15.947],[-47.371,-15.947],[-47.371,-15.951],[-47.373,-15.959],[-47.378,-15.962],[-47.375,-15.966],[-47.379,-15.973],[-47.379,-15.978],[-47.376,-15.978],[-47.375,-15.989],[-47.372,-15.995],[-47.371,-15.995],[-47.37,-16.001],[-47.369,-16.003],[-47.365,-16.001],[-47.365,-16.004],[-47.36,-16.008],[-47.356,-16.008],[-47.351,-16.007],[-47.347,-16.009],[-47.345,-16.012],[-47.339,-16.012],[-47.341,-16.015],[-47.34,-16.02],[-47.337,-16.017],[-47.331,-16.022],[-47.326,-16.03],[-47.322,-16.027],[-47.317,-16.036],[-47.31,-16.036],[-47.313,-16.042],[-47.308,-16.046],[-47.309,-16.05],[-47.416,-16.05],[-47.452,-16.05],[-47.629,-16.05],[-47.831,-16.05],[-47.983,-16.05],[-48.016,-16.05]]]}},{"type":"Feature","properties":{"u":"DF","uf":1},"geometry":{"type":"Polygon","coordinates":[[[-48.016,-16.05],[-48.14,-16.05],[-48.147,-16.05],[-48.278,-16.05],[-48.279,-16.042],[-48.273,-16.032],[-48.272,-16.024],[-48.27,-16.022],[-48.27,-16.016],[-48.272,-16.014],[-48.27,-16.004],[-48.266,-16.001],[-48.265,-15.997],[-48.263,-15.995],[-48.264,-15.992],[-48.262,-15.99],[-48.262,-15.985],[-48.258,-15.983],[-48.261,-15.979],[-48.258,-15.976],[-48.26,-15.967],[-48.255,-15.962],[-48.256,-15.96],[-48.251,-15.956],[-48.253,-15.947],[-48.251,-15.938],[-48.255,-15.937],[-48.256,-15.932],[-48.259,-15.931],[-48.261,-15.928],[-48.264,-15.928],[-48.265,-15.931],[-48.276,-15.931],[-48.275,-15.928],[-48.277,-15.927],[-48.275,-15.923],[-48.27,-15.919],[-48.27,-15.91],[-48.274,-15.91],[-48.276,-15.906],[-48.276,-15.897],[-48.273,-15.895],[-48.276,-15.892],[-48.272,-15.884],[-48.275,-15.877],[-48.278,-15.872],[-48.276,-15.87],[-48.28,-15.869],[-48.279,-15.86],[-48.284,-15.853],[-48.285,-15.843],[-48.285,-15.837],[-48.283,-15.834],[-48.281,-15.824],[-48.271,-15.813],[-48.268,-15.813],[-48.268,-15.808],[-48.257,-15.802],[-48.25,-15.802],[-48.246,-15.8],[-48.246,-15.797],[-48.24,-15.798],[-48.241,-15.793],[-48.238,-15.793],[-48.237,-15.785],[-48.232,-15.784],[-48.232,-15.778],[-48.217,-15.768],[-48.212,-15.759],[-48.209,-15.75],[-48.208,-15.739],[-48.208,-15.718],[-48.211,-15.713],[-48.219,-15.709],[-48.231,-15.71],[-48.239,-15.708],[-48.241,-15.706],[-48.239,-15.697],[-48.241,-15.694],[-48.241,-15.686],[-48.237,-15.673],[-48.235,-15.667],[-48.235,-15.662],[-48.234,-15.657],[-48.236,-15.653],[-48.234,-15.642],[-48.23,-15.637],[-48.226,-15.63],[-48.221,-15.627],[-48.218,-15.623],[-48.211,-15.623],[-48.203,-15.624],[-48.2,-15.623],[-48.2,-15.502],[-47.579,-15.502],[-47.418,-15.502],[-47.418,-15.546],[-47.414,-15.549],[-47.406,-15.547],[-47.402,-15.548],[-47.399,-15.551],[-47.399,-15.557],[-47.394,-15.558],[-47.389,-15.568],[-47.381,-15.567],[-47.378,-15.576],[-47.368,-15.579],[-47.362,-15.578],[-47.362,-15.58],[-47.355,-15.579],[-47.35,-15.581],[-47.347,-15.58],[-47.335,-15.588],[-47.33,-15.586],[-47.328,-15.589],[-47.321,-15.587],[-47.318,-15.589],[-47.316,-15.597],[-47.322,-15.598],[-47.323,-15.606],[-47.327,-15.612],[-47.331,-15.622],[-47.33,-15.623],[-47.333,-15.632],[-47.331,-15.636],[-47.329,-15.644],[-47.327,-15.649],[-47.329,-15.651],[-47.327,-15.653],[-47.33,-15.658],[-47.328,-15.659],[-47.328,-15.666],[-47.326,-15.67],[-47.329,-15.68],[-47.332,-15.681],[-47.331,-15.684],[-47.328,-15.684],[-47.329,-15.688],[-47.322,-15.689],[-47.319,-15.688],[-47.318,-15.692],[-47.313,-15.697],[-47.314,-15.705],[-47.313,-15.706],[-47.315,-15.715],[-47.321,-15.719],[-47.321,-15.723],[-47.318,-15.725],[-47.317,-15.73],[-47.319,-15.736],[-47.314,-15.738],[-47.315,-15.748],[-47.319,-15.75],[-47.321,-15.757],[-47.326,-15.761],[-47.33,-15.769],[-47.328,-15.772],[-47.331,-15.774],[-47.331,-15.777],[-47.333,-15.781],[-47.336,-15.781],[-47.336,-15.785],[-47.339,-15.788],[-47.339,-15.793],[-47.342,-15.798],[-47.345,-15.797],[-47.345,-15.803],[-47.35,-15.804],[-47.349,-15.808],[-47.352,-15.811],[-47.356,-15.819],[-47.355,-15.821],[-47.357,-15.824],[-47.361,-15.821],[-47.363,-15.828],[-47.367,-15.829],[-47.365,-15.834],[-47.366,-15.838],[-47.368,-15.836],[-47.369,-15.847],[-47.368,-15.852],[-47.37,-15.855],[-47.37,-15.862],[-47.374,-15.864],[-47.371,-15.865],[-47.374,-15.877],[-47.379,-15.884],[-47.375,-15.897],[-47.376,-15.9],[-47.372,-15.9],[-47.375,-15.907],[-47.366,-15.909],[-47.369,-15.917],[-47.369,-15.92],[-47.365,-15.919],[-47.362,-15.922],[-47.362,-15.929],[-47.366,-15.931],[-47.365,-15.933],[-47.372,-15.935],[-47.373,-15.939],[-47.369,-15.947],[-47.371,-15.947],[-47.371,-15.951],[-47.373,-15.959],[-47.378,-15.962],[-47.375,-15.966],[-47.379,-15.973],[-47.379,-15.978],[-47.376,-15.978],[-47.375,-15.989],[-47.372,-15.995],[-47.371,-15.995],[-47.37,-16.001],[-47.369,-16.003],[-47.365,-16.001],[-47.365,-16.004],[-47.36,-16.008],[-47.356,-16.008],[-47.351,-16.007],[-47.347,-16.009],[-47.345,-16.012],[-47.339,-16.012],[-47.341,-16.015],[-47.34,-16.02],[-47.337,-16.017],[-47.331,-16.022],[-47.326,-16.03],[-47.322,-16.027],[-47.317,-16.036],[-47.31,-16.036],[-47.313,-16.042],[-47.308,-16.046],[-47.309,-16.05],[-47.416,-16.05],[-47.452,-16.05],[-47.629,-16.05],[-47.831,-16.05],[-47.983,-16.05],[-48.016,-16.05]]]}}]}